{"type": "FeatureCollection", "name": "E8_proj_seed354 sites", "properties": {"shape": "E8_proj_seed354", "lock_lat": 55.0, "lock_lon": 65.0, "bearing": 350.0, "thresholds": {"close": 0.09892531138990063, "medium": 0.13489815189531904, "close_km": 11.0, "medium_km": 15.0, "dist_mode": "edge_exact"}}, "features": [{"type": "Feature", "properties": {"kind": "site", "name": "Glastonbury Tor", "dist_deg": 0.0307004, "dist_km": 3.414, "class": "close", "dist_source": "ks_full_grid", "edges_supported": 3}, "geometry": {"type": "Point", "coordinates": [-2.7, 51.0]}}, {"type": "Feature", "properties": {"kind": "site", "name": "Shaftesbury", "dist_deg": 0.0251557, "dist_km": 2.797, "class": "close", "dist_source": "ks_full_grid", "edges_supported": 3}, "geometry": {"type": "Point", "coordinates": [-2.195, 51.0]}}, {"type": "Feature", "properties": {"kind": "site", "name": "Brandenburg Gate", "dist_deg": 0.0435502, "dist_km": 4.843, "class": "close", "dist_source": "ks_full_grid", "edges_supported": 1}, "geometry": {"type": "Point", "coordinates": [13.3778, 52.5164]}}, {"type": "Feature", "properties": {"kind": "site", "name": "Placa de Catalunya", "dist_deg": 0.0095375, "dist_km": 1.06, "class": "close", "dist_source": "ks_full_grid", "edges_supported": 2}, "geometry": {"type": "Point", "coordinates": [2.17, 41.387]}}, {"type": "Feature", "properties": {"kind": "site", "name": "Island of the Sun", "dist_deg": 0.0046087, "dist_km": 0.512, "class": "close", "dist_source": "ks_full_grid", "edges_supported": 2}, "geometry": {"type": "Point", "coordinates": [-69.1717, -16.0167]}}, {"type": "Feature", "properties": {"kind": "site", "name": "Plaza Mayor Lima", "dist_deg": 0.0601743, "dist_km": 6.691, "class": "close", "dist_source": "ks_full_grid", "edges_supported": 1}, "geometry": {"type": "Point", "coordinates": [-77.0306, -12.0458]}}, {"type": "Feature", "properties": {"kind": "site", "name": "Rio Ucayali-Rio Maranon confluence", "dist_deg": 0.0283113, "dist_km": 3.148, "class": "close", "dist_source": "ks_full_grid", "edges_supported": 1}, "geometry": {"type": "Point", "coordinates": [-73.45, -4.45]}}, {"type": "Feature", "properties": {"kind": "site", "name": "Uluru", "dist_deg": 0.0068168, "dist_km": 0.758, "class": "close", "dist_source": "ks_full_grid", "edges_supported": 2}, "geometry": {"type": "Point", "coordinates": [130.9917, -25.3433]}}, {"type": "Feature", "properties": {"kind": "site", "name": "Kata Tjuta", "dist_deg": 0.0377209, "dist_km": 4.194, "class": "close", "dist_source": "ks_full_grid", "edges_supported": 1}, "geometry": {"type": "Point", "coordinates": [130.7528, -25.2981]}}, {"type": "Feature", "properties": {"kind": "site", "name": "Nourlangie Rock", "dist_deg": 0.0882241, "dist_km": 9.81, "class": "close", "dist_source": "ks_full_grid", "edges_supported": 1}, "geometry": {"type": "Point", "coordinates": [132.8111, -12.8669]}}, {"type": "Feature", "properties": {"kind": "site", "name": "Hamelin Pool", "dist_deg": 0.0623714, "dist_km": 6.935, "class": "close", "dist_source": "ks_full_grid", "edges_supported": 1}, "geometry": {"type": "Point", "coordinates": [114.2003, -26.435]}}, {"type": "Feature", "properties": {"kind": "site", "name": "Tirta Empul", "dist_deg": 0.0124883, "dist_km": 1.389, "class": "close", "dist_source": "ks_full_grid", "edges_supported": 1}, "geometry": {"type": "Point", "coordinates": [115.3111, -8.4167]}}, {"type": "Feature", "properties": {"kind": "site", "name": "Borobudur", "dist_deg": 0.0078247, "dist_km": 0.87, "class": "close", "dist_source": "ks_full_grid", "edges_supported": 4}, "geometry": {"type": "Point", "coordinates": [110.2042, -7.6081]}}, {"type": "Feature", "properties": {"kind": "site", "name": "Mount Kinabalu", "dist_deg": 0.0203861, "dist_km": 2.267, "class": "close", "dist_source": "ks_full_grid", "edges_supported": 1}, "geometry": {"type": "Point", "coordinates": [116.5628, 6.0744]}}, {"type": "Feature", "properties": {"kind": "site", "name": "Mount Kailash", "dist_deg": 0.0390118, "dist_km": 4.338, "class": "close", "dist_source": "ks_full_grid", "edges_supported": 1}, "geometry": {"type": "Point", "coordinates": [81.3125, 31.0675]}}, {"type": "Feature", "properties": {"kind": "site", "name": "Karakul Lake", "dist_deg": 0.0009365, "dist_km": 0.104, "class": "close", "dist_source": "ks_full_grid", "edges_supported": 4}, "geometry": {"type": "Point", "coordinates": [73.4886, 39.0217]}}, {"type": "Feature", "properties": {"kind": "site", "name": "Sundarbans-Sagar Island", "dist_deg": 0.0045802, "dist_km": 0.509, "class": "close", "dist_source": "ks_full_grid", "edges_supported": 4}, "geometry": {"type": "Point", "coordinates": [88.2953, 22.5564]}}, {"type": "Feature", "properties": {"kind": "site", "name": "Mount Shasta", "dist_deg": 0.0056776, "dist_km": 0.631, "class": "close", "dist_source": "ks_full_grid", "edges_supported": 1}, "geometry": {"type": "Point", "coordinates": [-122.31, 41.31]}}, {"type": "Feature", "properties": {"kind": "site", "name": "Kachina Peaks Wilderness", "dist_deg": 0.0942609, "dist_km": 10.481, "class": "close", "dist_source": "ks_full_grid", "edges_supported": 1}, "geometry": {"type": "Point", "coordinates": [-111.6625, 35.3394]}}, {"type": "Feature", "properties": {"kind": "site", "name": "Golden Hinde", "dist_deg": 0.1368451, "dist_km": 15.216, "class": "far", "dist_source": "ks_full_grid", "edges_supported": 0}, "geometry": {"type": "Point", "coordinates": [-125.4494, 49.6506]}}, {"type": "Feature", "properties": {"kind": "site", "name": "El Tule-Palenque", "dist_deg": 0.0240544, "dist_km": 2.675, "class": "close", "dist_source": "ks_full_grid", "edges_supported": 1}, "geometry": {"type": "Point", "coordinates": [-91.9817, 17.51]}}, {"type": "Feature", "properties": {"kind": "site", "name": "Laguna Corcovado", "dist_deg": 0.0449545, "dist_km": 4.999, "class": "close", "dist_source": "ks_full_grid", "edges_supported": 1}, "geometry": {"type": "Point", "coordinates": [-83.6167, 8.55]}}, {"type": "Feature", "properties": {"kind": "site", "name": "Cerro de la Silla", "dist_deg": 0.0466123, "dist_km": 5.183, "class": "close", "dist_source": "ks_full_grid", "edges_supported": 2}, "geometry": {"type": "Point", "coordinates": [-100.3092, 25.6733]}}, {"type": "Feature", "properties": {"kind": "site", "name": "Mount Fuji", "dist_deg": 0.015013, "dist_km": 1.669, "class": "close", "dist_source": "ks_full_grid", "edges_supported": 2}, "geometry": {"type": "Point", "coordinates": [138.7317, 35.3628]}}, {"type": "Feature", "properties": {"kind": "site", "name": "Mani San", "dist_deg": 0.0457627, "dist_km": 5.089, "class": "close", "dist_source": "ks_full_grid", "edges_supported": 1}, "geometry": {"type": "Point", "coordinates": [126.4347, 37.6117]}}, {"type": "Feature", "properties": {"kind": "site", "name": "Sefa Utaki", "dist_deg": 0.0688829, "dist_km": 7.659, "class": "close", "dist_source": "ks_full_grid", "edges_supported": 4}, "geometry": {"type": "Point", "coordinates": [127.7669, 26.1444]}}, {"type": "Feature", "properties": {"kind": "site", "name": "Haleakala Crater", "dist_deg": 0.0224254, "dist_km": 2.494, "class": "close", "dist_source": "ks_full_grid", "edges_supported": 3}, "geometry": {"type": "Point", "coordinates": [-156.1828, 20.7186]}}, {"type": "Feature", "properties": {"kind": "site", "name": "Midway Atoll", "dist_deg": 0.075009, "dist_km": 8.341, "class": "close", "dist_source": "ks_full_grid", "edges_supported": 1}, "geometry": {"type": "Point", "coordinates": [-177.3833, 28.25]}}, {"type": "Feature", "properties": {"kind": "site", "name": "Mauna Loa", "dist_deg": 0.0805851, "dist_km": 8.961, "class": "close", "dist_source": "ks_full_grid", "edges_supported": 1}, "geometry": {"type": "Point", "coordinates": [-155.5356, 19.7569]}}, {"type": "Feature", "properties": {"kind": "site", "name": "Lake Rotopounamu", "dist_deg": 0.020334, "dist_km": 2.261, "class": "close", "dist_source": "ks_full_grid", "edges_supported": 1}, "geometry": {"type": "Point", "coordinates": [175.7372, -39.0258]}}, {"type": "Feature", "properties": {"kind": "site", "name": "Mount Panié", "dist_deg": 0.0031926, "dist_km": 0.355, "class": "close", "dist_source": "ks_full_grid", "edges_supported": 4}, "geometry": {"type": "Point", "coordinates": [164.7706, -20.5894]}}, {"type": "Feature", "properties": {"kind": "site", "name": "Macquarie Island", "dist_deg": 0.0171895, "dist_km": 1.911, "class": "close", "dist_source": "ks_full_grid", "edges_supported": 2}, "geometry": {"type": "Point", "coordinates": [158.8956, -54.5947]}}, {"type": "Feature", "properties": {"kind": "site", "name": "Great Pyramid of Giza", "dist_deg": 0.0360556, "dist_km": 4.009, "class": "close", "dist_source": "ks_full_grid", "edges_supported": 2}, "geometry": {"type": "Point", "coordinates": [31.1342, 29.9792]}}, {"type": "Feature", "properties": {"kind": "site", "name": "Mount Sinai", "dist_deg": 0.0960959, "dist_km": 10.685, "class": "close", "dist_source": "ks_full_grid", "edges_supported": 1}, "geometry": {"type": "Point", "coordinates": [33.973, 28.5394]}}, {"type": "Feature", "properties": {"kind": "site", "name": "Mount of Olives", "dist_deg": 0.1140124, "dist_km": 12.678, "class": "medium", "dist_source": "ks_full_grid", "edges_supported": 0}, "geometry": {"type": "Point", "coordinates": [35.2439, 31.778]}}, {"type": "Feature", "properties": {"kind": "site", "name": "Mecca", "dist_deg": 0.086566, "dist_km": 9.626, "class": "close", "dist_source": "ks_full_grid", "edges_supported": 1}, "geometry": {"type": "Point", "coordinates": [39.8147, 21.4275]}}, {"type": "Feature", "properties": {"kind": "site", "name": "Takht-e Soleiman", "dist_deg": 0.0161392, "dist_km": 1.795, "class": "close", "dist_source": "ks_full_grid", "edges_supported": 2}, "geometry": {"type": "Point", "coordinates": [47.2361, 36.6033]}}, {"type": "Feature", "properties": {"kind": "site", "name": "Table Mountain", "dist_deg": 0.0804576, "dist_km": 8.947, "class": "close", "dist_source": "ks_full_grid", "edges_supported": 4}, "geometry": {"type": "Point", "coordinates": [18.43, -33.9247]}}, {"type": "Feature", "properties": {"kind": "site", "name": "Pilansberg", "dist_deg": 0.0133206, "dist_km": 1.481, "class": "close", "dist_source": "ks_full_grid", "edges_supported": 2}, "geometry": {"type": "Point", "coordinates": [27.0322, -25.2294]}}, {"type": "Feature", "properties": {"kind": "site", "name": "Mont-aux-Sources", "dist_deg": 0.0204251, "dist_km": 2.271, "class": "close", "dist_source": "ks_full_grid", "edges_supported": 10}, "geometry": {"type": "Point", "coordinates": [28.8847, -28.7592]}}, {"type": "Feature", "properties": {"kind": "site", "name": "Sergiev Posad", "dist_deg": 0.0148887, "dist_km": 1.656, "class": "close", "dist_source": "ks_full_grid", "edges_supported": 5}, "geometry": {"type": "Point", "coordinates": [37.6175, 55.7558]}}, {"type": "Feature", "properties": {"kind": "site", "name": "Mount Konzhakovsky Kamen", "dist_deg": 0.0196717, "dist_km": 2.187, "class": "close", "dist_source": "ks_full_grid", "edges_supported": 2}, "geometry": {"type": "Point", "coordinates": [60.0, 59.0]}}, {"type": "Feature", "properties": {"kind": "site", "name": "Mount Elbrus", "dist_deg": 0.0019164, "dist_km": 0.213, "class": "close", "dist_source": "ks_full_grid", "edges_supported": 2}, "geometry": {"type": "Point", "coordinates": [42.4392, 43.355]}}, {"type": "Feature", "properties": {"kind": "site", "name": "Po Lin Monastery", "dist_deg": 0.0069074, "dist_km": 0.768, "class": "close", "dist_source": "ks_full_grid", "edges_supported": 3}, "geometry": {"type": "Point", "coordinates": [113.9078, 22.2556]}}, {"type": "Feature", "properties": {"kind": "site", "name": "Emei Shan", "dist_deg": 0.0145196, "dist_km": 1.615, "class": "close", "dist_source": "ks_full_grid", "edges_supported": 1}, "geometry": {"type": "Point", "coordinates": [104.0756, 30.6511]}}, {"type": "Feature", "properties": {"kind": "site", "name": "Mount Pulag", "dist_deg": 0.0278695, "dist_km": 3.099, "class": "close", "dist_source": "ks_full_grid", "edges_supported": 2}, "geometry": {"type": "Point", "coordinates": [120.8836, 16.5836]}}, {"type": "Feature", "properties": {"kind": "site", "name": "Niagara Falls", "dist_deg": 0.0136135, "dist_km": 1.514, "class": "close", "dist_source": "ks_full_grid", "edges_supported": 4}, "geometry": {"type": "Point", "coordinates": [-79.0853, 43.0903]}}, {"type": "Feature", "properties": {"kind": "site", "name": "Pilot Knob State Park", "dist_deg": 0.0291179, "dist_km": 3.238, "class": "close", "dist_source": "ks_full_grid", "edges_supported": 1}, "geometry": {"type": "Point", "coordinates": [-93.5533, 43.2528]}}, {"type": "Feature", "properties": {"kind": "site", "name": "Akimiski Island", "dist_deg": 0.0865564, "dist_km": 9.625, "class": "close", "dist_source": "ks_full_grid", "edges_supported": 2}, "geometry": {"type": "Point", "coordinates": [-81.3172, 52.9872]}}, {"type": "Feature", "properties": {"kind": "site", "name": "Mount Dimlang", "dist_deg": 0.0036842, "dist_km": 0.41, "class": "close", "dist_source": "ks_full_grid", "edges_supported": 3}, "geometry": {"type": "Point", "coordinates": [11.75, 8.5]}}, {"type": "Feature", "properties": {"kind": "site", "name": "Lake Chad", "dist_deg": 0.0744438, "dist_km": 8.278, "class": "close", "dist_source": "ks_full_grid", "edges_supported": 2}, "geometry": {"type": "Point", "coordinates": [14.1, 13.3303]}}, {"type": "Feature", "properties": {"kind": "site", "name": "Isangila Falls", "dist_deg": 0.0458083, "dist_km": 5.094, "class": "close", "dist_source": "ks_full_grid", "edges_supported": 3}, "geometry": {"type": "Point", "coordinates": [12.0, -6.0]}}, {"type": "Feature", "properties": {"kind": "site", "name": "Marco Zero Recife", "dist_deg": 0.0650984, "dist_km": 7.239, "class": "close", "dist_source": "ks_full_grid", "edges_supported": 1}, "geometry": {"type": "Point", "coordinates": [-34.8711, -8.0633]}}, {"type": "Feature", "properties": {"kind": "site", "name": "Peter and Paul Rocks", "dist_deg": 0.0102356, "dist_km": 1.138, "class": "close", "dist_source": "ks_full_grid", "edges_supported": 4}, "geometry": {"type": "Point", "coordinates": [-29.3353, -0.9169]}}, {"type": "Feature", "properties": {"kind": "site", "name": "Parnaiba River Headwaters", "dist_deg": 0.0019995, "dist_km": 0.222, "class": "close", "dist_source": "ks_full_grid", "edges_supported": 3}, "geometry": {"type": "Point", "coordinates": [-43.1747, -8.3231]}}, {"type": "Feature", "properties": {"kind": "site", "name": "Plaza de Mayo", "dist_deg": 0.0050232, "dist_km": 0.559, "class": "close", "dist_source": "ks_full_grid", "edges_supported": 2}, "geometry": {"type": "Point", "coordinates": [-58.3722, -34.6083]}}, {"type": "Feature", "properties": {"kind": "site", "name": "Iguazu Falls", "dist_deg": 0.1052054, "dist_km": 11.698, "class": "medium", "dist_source": "ks_full_grid", "edges_supported": 0}, "geometry": {"type": "Point", "coordinates": [-54.4453, -25.6803]}}, {"type": "Feature", "properties": {"kind": "site", "name": "Plaza de Armas Santiago", "dist_deg": 0.0174179, "dist_km": 1.937, "class": "close", "dist_source": "ks_full_grid", "edges_supported": 3}, "geometry": {"type": "Point", "coordinates": [-70.6519, -33.4431]}}, {"type": "Feature", "properties": {"kind": "site", "name": "Jebel Toubkal", "dist_deg": 0.0763371, "dist_km": 8.488, "class": "close", "dist_source": "ks_full_grid", "edges_supported": 1}, "geometry": {"type": "Point", "coordinates": [-7.9161, 31.0619]}}, {"type": "Feature", "properties": {"kind": "site", "name": "Pico de Teide", "dist_deg": 0.0700732, "dist_km": 7.792, "class": "close", "dist_source": "ks_full_grid", "edges_supported": 2}, "geometry": {"type": "Point", "coordinates": [-16.6333, 28.2667]}}, {"type": "Feature", "properties": {"kind": "site", "name": "Chott el Djerid", "dist_deg": 0.0423931, "dist_km": 4.714, "class": "close", "dist_source": "ks_full_grid", "edges_supported": 3}, "geometry": {"type": "Point", "coordinates": [9.5375, 33.8869]}}, {"type": "Feature", "properties": {"kind": "site", "name": "Teatro Amazonas", "dist_deg": 0.032889, "dist_km": 3.657, "class": "close", "dist_source": "ks_full_grid", "edges_supported": 1}, "geometry": {"type": "Point", "coordinates": [-60.0231, -3.1306]}}, {"type": "Feature", "properties": {"kind": "site", "name": "Angel Falls", "dist_deg": 0.0027702, "dist_km": 0.308, "class": "close", "dist_source": "ks_full_grid", "edges_supported": 7}, "geometry": {"type": "Point", "coordinates": [-62.5356, 5.9675]}}, {"type": "Feature", "properties": {"kind": "site", "name": "Lago Arari", "dist_deg": 0.02171, "dist_km": 2.414, "class": "close", "dist_source": "ks_full_grid", "edges_supported": 5}, "geometry": {"type": "Point", "coordinates": [-58.75, -3.4167]}}, {"type": "Feature", "properties": {"kind": "site", "name": "Christ the Redeemer", "dist_deg": 0.0077817, "dist_km": 0.865, "class": "close", "dist_source": "ks_full_grid", "edges_supported": 2}, "geometry": {"type": "Point", "coordinates": [-43.2106, -22.9519]}}, {"type": "Feature", "properties": {"kind": "site", "name": "Praca dos Tres Poderes", "dist_deg": 0.0818585, "dist_km": 9.102, "class": "close", "dist_source": "ks_full_grid", "edges_supported": 1}, "geometry": {"type": "Point", "coordinates": [-47.8611, -15.7997]}}, {"type": "Feature", "properties": {"kind": "site", "name": "Terreiro de Jesus", "dist_deg": 0.0324695, "dist_km": 3.61, "class": "close", "dist_source": "ks_full_grid", "edges_supported": 2}, "geometry": {"type": "Point", "coordinates": [-38.51, -12.9733]}}, {"type": "Feature", "properties": {"kind": "site", "name": "High Tatra", "dist_deg": 0.0362845, "dist_km": 4.035, "class": "close", "dist_source": "ks_full_grid", "edges_supported": 2}, "geometry": {"type": "Point", "coordinates": [20.0, 49.1667]}}, {"type": "Feature", "properties": {"kind": "site", "name": "Stortorget Stockholm", "dist_deg": 0.0101098, "dist_km": 1.124, "class": "close", "dist_source": "ks_full_grid", "edges_supported": 3}, "geometry": {"type": "Point", "coordinates": [18.0708, 59.325]}}, {"type": "Feature", "properties": {"kind": "site", "name": "Mount Olympus", "dist_deg": 0.0308539, "dist_km": 3.431, "class": "close", "dist_source": "ks_full_grid", "edges_supported": 3}, "geometry": {"type": "Point", "coordinates": [22.35, 40.0833]}}, {"type": "Feature", "properties": {"kind": "site", "name": "Arunachala Hill", "dist_deg": 0.058744, "dist_km": 6.532, "class": "close", "dist_source": "ks_full_grid", "edges_supported": 2}, "geometry": {"type": "Point", "coordinates": [79.0517, 12.2406]}}, {"type": "Feature", "properties": {"kind": "site", "name": "Piram Island", "dist_deg": 0.0429765, "dist_km": 4.779, "class": "close", "dist_source": "ks_full_grid", "edges_supported": 3}, "geometry": {"type": "Point", "coordinates": [72.35, 21.6]}}, {"type": "Feature", "properties": {"kind": "site", "name": "Adam’s Peak", "dist_deg": 0.0077274, "dist_km": 0.859, "class": "close", "dist_source": "ks_full_grid", "edges_supported": 2}, "geometry": {"type": "Point", "coordinates": [80.4997, 6.8092]}}, {"type": "Feature", "properties": {"kind": "site", "name": "Uhuru Peak Kilimanjaro", "dist_deg": 0.0087208, "dist_km": 0.97, "class": "close", "dist_source": "ks_full_grid", "edges_supported": 1}, "geometry": {"type": "Point", "coordinates": [37.3533, -3.0758]}}, {"type": "Feature", "properties": {"kind": "site", "name": "Lake Victoria (Ukerewe Island)", "dist_deg": 0.0122533, "dist_km": 1.363, "class": "close", "dist_source": "ks_full_grid", "edges_supported": 1}, "geometry": {"type": "Point", "coordinates": [32.9, -0.9833]}}, {"type": "Feature", "properties": {"kind": "site", "name": "Mount Nkungwe", "dist_deg": 0.0643495, "dist_km": 7.155, "class": "close", "dist_source": "ks_full_grid", "edges_supported": 2}, "geometry": {"type": "Point", "coordinates": [29.8, -6.1167]}}, {"type": "Feature", "properties": {"kind": "site", "name": "Mount Belukha", "dist_deg": 0.0113246, "dist_km": 1.259, "class": "close", "dist_source": "ks_full_grid", "edges_supported": 1}, "geometry": {"type": "Point", "coordinates": [88.9, 48.5]}}, {"type": "Feature", "properties": {"kind": "site", "name": "Uzynaral Strait", "dist_deg": 0.0040096, "dist_km": 0.446, "class": "close", "dist_source": "ks_full_grid", "edges_supported": 1}, "geometry": {"type": "Point", "coordinates": [75.5, 46.6]}}, {"type": "Feature", "properties": {"kind": "site", "name": "Lake Baikal (Cape Khoboy)", "dist_deg": 0.0307218, "dist_km": 3.416, "class": "close", "dist_source": "ks_full_grid", "edges_supported": 3}, "geometry": {"type": "Point", "coordinates": [107.6667, 53.1667]}}, {"type": "Feature", "properties": {"kind": "site", "name": "Forbidden City Beijing", "dist_deg": 0.0523678, "dist_km": 5.823, "class": "close", "dist_source": "ks_full_grid", "edges_supported": 4}, "geometry": {"type": "Point", "coordinates": [116.4075, 39.9042]}}, {"type": "Feature", "properties": {"kind": "site", "name": "Tai Shan", "dist_deg": 0.0465159, "dist_km": 5.172, "class": "close", "dist_source": "ks_full_grid", "edges_supported": 2}, "geometry": {"type": "Point", "coordinates": [117.3333, 36.5]}}, {"type": "Feature", "properties": {"kind": "site", "name": "Karakorum", "dist_deg": 0.0791126, "dist_km": 8.797, "class": "close", "dist_source": "ks_full_grid", "edges_supported": 1}, "geometry": {"type": "Point", "coordinates": [102.8239, 47.1972]}}, {"type": "Feature", "properties": {"kind": "site", "name": "Boulder Colorado", "dist_deg": 0.0417555, "dist_km": 4.643, "class": "close", "dist_source": "ks_full_grid", "edges_supported": 1}, "geometry": {"type": "Point", "coordinates": [-105.2706, 40.015]}}, {"type": "Feature", "properties": {"kind": "site", "name": "Mount Whitney", "dist_deg": 0.04312, "dist_km": 4.795, "class": "close", "dist_source": "ks_full_grid", "edges_supported": 2}, "geometry": {"type": "Point", "coordinates": [-118.292, 36.5786]}}, {"type": "Feature", "properties": {"kind": "site", "name": "Cahokia Mounds", "dist_deg": 0.0041091, "dist_km": 0.457, "class": "close", "dist_source": "ks_full_grid", "edges_supported": 1}, "geometry": {"type": "Point", "coordinates": [-90.0678, 38.6503]}}, {"type": "Feature", "properties": {"kind": "site", "name": "Three Sisters Blue Mountains", "dist_deg": 0.0109623, "dist_km": 1.219, "class": "close", "dist_source": "ks_full_grid", "edges_supported": 4}, "geometry": {"type": "Point", "coordinates": [150.5, -33.75]}}, {"type": "Feature", "properties": {"kind": "site", "name": "Mount Picton Tasmania", "dist_deg": 0.0039908, "dist_km": 0.444, "class": "close", "dist_source": "ks_full_grid", "edges_supported": 4}, "geometry": {"type": "Point", "coordinates": [146.6075, -43.1575]}}, {"type": "Feature", "properties": {"kind": "site", "name": "Fraser Island", "dist_deg": 0.032851, "dist_km": 3.653, "class": "close", "dist_source": "ks_full_grid", "edges_supported": 2}, "geometry": {"type": "Point", "coordinates": [153.0294, -25.3925]}}, {"type": "Feature", "properties": {"kind": "site", "name": "Cerro de Puntas", "dist_deg": 0.0154271, "dist_km": 1.715, "class": "close", "dist_source": "ks_full_grid", "edges_supported": 1}, "geometry": {"type": "Point", "coordinates": [-67.2639, 18.3561]}}, {"type": "Feature", "properties": {"kind": "site", "name": "Great Exuma Island", "dist_deg": 0.0199897, "dist_km": 2.223, "class": "close", "dist_source": "ks_full_grid", "edges_supported": 1}, "geometry": {"type": "Point", "coordinates": [-75.8167, 23.5167]}}, {"type": "Feature", "properties": {"kind": "site", "name": "Montego Bay", "dist_deg": 0.0786728, "dist_km": 8.748, "class": "close", "dist_source": "ks_full_grid", "edges_supported": 1}, "geometry": {"type": "Point", "coordinates": [-77.9167, 18.4667]}}, {"type": "Feature", "properties": {"kind": "site", "name": "Mount Simpson PNG", "dist_deg": 0.012817, "dist_km": 1.425, "class": "close", "dist_source": "ks_full_grid", "edges_supported": 2}, "geometry": {"type": "Point", "coordinates": [148.0, -9.5]}}, {"type": "Feature", "properties": {"kind": "site", "name": "Popomanaseu", "dist_deg": 0.0472907, "dist_km": 5.258, "class": "close", "dist_source": "ks_full_grid", "edges_supported": 1}, "geometry": {"type": "Point", "coordinates": [160.0667, -9.7]}}, {"type": "Feature", "properties": {"kind": "site", "name": "Puncak Jaya", "dist_deg": 0.0182135, "dist_km": 2.025, "class": "close", "dist_source": "ks_full_grid", "edges_supported": 1}, "geometry": {"type": "Point", "coordinates": [138.5, -4.5]}}, {"type": "Feature", "properties": {"kind": "site", "name": "Dakar", "dist_deg": 0.100251, "dist_km": 11.147, "class": "medium", "dist_source": "ks_full_grid", "edges_supported": 0}, "geometry": {"type": "Point", "coordinates": [-17.3333, 14.75]}}, {"type": "Feature", "properties": {"kind": "site", "name": "Timbuktu", "dist_deg": 0.0290441, "dist_km": 3.23, "class": "close", "dist_source": "ks_full_grid", "edges_supported": 2}, "geometry": {"type": "Point", "coordinates": [-3.5, 15.0]}}, {"type": "Feature", "properties": {"kind": "site", "name": "Fogo Cape Verde", "dist_deg": 0.0189829, "dist_km": 2.111, "class": "close", "dist_source": "ks_full_grid", "edges_supported": 2}, "geometry": {"type": "Point", "coordinates": [-24.3817, 14.9133]}}, {"type": "Feature", "properties": {"kind": "site", "name": "Tsodilo Hill", "dist_deg": 0.0515657, "dist_km": 5.734, "class": "close", "dist_source": "ks_full_grid", "edges_supported": 2}, "geometry": {"type": "Point", "coordinates": [21.7667, -18.75]}}, {"type": "Feature", "properties": {"kind": "site", "name": "Kgalagadi Transfrontier Park", "dist_deg": 0.0038193, "dist_km": 0.425, "class": "close", "dist_source": "ks_full_grid", "edges_supported": 6}, "geometry": {"type": "Point", "coordinates": [20.7122, -25.2872]}}, {"type": "Feature", "properties": {"kind": "site", "name": "Great Zimbabwe", "dist_deg": 0.0376663, "dist_km": 4.188, "class": "close", "dist_source": "ks_full_grid", "edges_supported": 4}, "geometry": {"type": "Point", "coordinates": [30.9275, -20.2672]}}, {"type": "Feature", "properties": {"kind": "site", "name": "Khao Nan Mia", "dist_deg": 0.0267712, "dist_km": 2.977, "class": "close", "dist_source": "ks_full_grid", "edges_supported": 2}, "geometry": {"type": "Point", "coordinates": [99.5941, 8.8594]}}, {"type": "Feature", "properties": {"kind": "site", "name": "Lake Toba", "dist_deg": 0.0453451, "dist_km": 5.042, "class": "close", "dist_source": "ks_full_grid", "edges_supported": 1}, "geometry": {"type": "Point", "coordinates": [98.8756, 2.6845]}}, {"type": "Feature", "properties": {"kind": "site", "name": "Angkor Wat", "dist_deg": 0.0287082, "dist_km": 3.192, "class": "close", "dist_source": "ks_full_grid", "edges_supported": 2}, "geometry": {"type": "Point", "coordinates": [103.86, 13.4256]}}, {"type": "Feature", "properties": {"kind": "site", "name": "Mount Tomaniivi", "dist_deg": 0.0068346, "dist_km": 0.76, "class": "close", "dist_source": "ks_full_grid", "edges_supported": 4}, "geometry": {"type": "Point", "coordinates": [178.0167, -17.6167]}}, {"type": "Feature", "properties": {"kind": "site", "name": "Tarawa Island", "dist_deg": 0.0221946, "dist_km": 2.468, "class": "close", "dist_source": "ks_full_grid", "edges_supported": 3}, "geometry": {"type": "Point", "coordinates": [173.0764, 1.4403]}}, {"type": "Feature", "properties": {"kind": "site", "name": "Mount Silisili", "dist_deg": 0.0168854, "dist_km": 1.878, "class": "close", "dist_source": "ks_full_grid", "edges_supported": 3}, "geometry": {"type": "Point", "coordinates": [-172.4858, -13.6183]}}, {"type": "Feature", "properties": {"kind": "site", "name": "Denali (Mount McKinley)", "dist_deg": 0.0165696, "dist_km": 1.843, "class": "close", "dist_source": "ks_full_grid", "edges_supported": 6}, "geometry": {"type": "Point", "coordinates": [-149.4289, 63.0694]}}, {"type": "Feature", "properties": {"kind": "site", "name": "Great Bear Lake", "dist_deg": 0.0332976, "dist_km": 3.703, "class": "close", "dist_source": "ks_full_grid", "edges_supported": 3}, "geometry": {"type": "Point", "coordinates": [-120.3833, 66.1197]}}, {"type": "Feature", "properties": {"kind": "site", "name": "Fox Islands Aleutian", "dist_deg": 0.0189606, "dist_km": 2.108, "class": "close", "dist_source": "ks_full_grid", "edges_supported": 2}, "geometry": {"type": "Point", "coordinates": [-166.5833, 53.7667]}}, {"type": "Feature", "properties": {"kind": "site", "name": "Mount Maromokotro", "dist_deg": 0.0014161, "dist_km": 0.158, "class": "close", "dist_source": "ks_full_grid", "edges_supported": 2}, "geometry": {"type": "Point", "coordinates": [49.4847, -13.0183]}}, {"type": "Feature", "properties": {"kind": "site", "name": "Piton des Neiges", "dist_deg": 0.0306611, "dist_km": 3.409, "class": "close", "dist_source": "ks_full_grid", "edges_supported": 4}, "geometry": {"type": "Point", "coordinates": [55.7333, -21.3167]}}, {"type": "Feature", "properties": {"kind": "site", "name": "Morne Seychellois", "dist_deg": 0.0214044, "dist_km": 2.38, "class": "close", "dist_source": "ks_full_grid", "edges_supported": 2}, "geometry": {"type": "Point", "coordinates": [55.45, -4.6167]}}, {"type": "Feature", "properties": {"kind": "site", "name": "Mount Damavand", "dist_deg": 0.0121064, "dist_km": 1.346, "class": "close", "dist_source": "ks_full_grid", "edges_supported": 1}, "geometry": {"type": "Point", "coordinates": [52.1097, 35.9547]}}, {"type": "Feature", "properties": {"kind": "site", "name": "Vozrozhdeniya Island", "dist_deg": 0.0317488, "dist_km": 3.53, "class": "close", "dist_source": "ks_full_grid", "edges_supported": 2}, "geometry": {"type": "Point", "coordinates": [59.1419, 45.0917]}}, {"type": "Feature", "properties": {"kind": "site", "name": "Malek Siah Kuh", "dist_deg": 0.029835, "dist_km": 3.317, "class": "close", "dist_source": "ks_full_grid", "edges_supported": 2}, "geometry": {"type": "Point", "coordinates": [60.8636, 29.4892]}}, {"type": "Feature", "properties": {"kind": "site", "name": "Klyuchevskaya Sopka", "dist_deg": 0.0451411, "dist_km": 5.019, "class": "close", "dist_source": "ks_full_grid", "edges_supported": 1}, "geometry": {"type": "Point", "coordinates": [160.6428, 56.0581]}}, {"type": "Feature", "properties": {"kind": "site", "name": "Sakhalin Island", "dist_deg": 0.0198784, "dist_km": 2.21, "class": "close", "dist_source": "ks_full_grid", "edges_supported": 2}, "geometry": {"type": "Point", "coordinates": [143.0028, 50.2247]}}, {"type": "Feature", "properties": {"kind": "site", "name": "Cherskiy", "dist_deg": 0.0369369, "dist_km": 4.107, "class": "close", "dist_source": "ks_full_grid", "edges_supported": 2}, "geometry": {"type": "Point", "coordinates": [-115.9872, 34.6272]}}, {"type": "Feature", "properties": {"kind": "site", "name": "Easter Island", "dist_deg": 0.0109628, "dist_km": 1.219, "class": "close", "dist_source": "ks_full_grid", "edges_supported": 5}, "geometry": {"type": "Point", "coordinates": [-109.3664, -27.1211]}}, {"type": "Feature", "properties": {"kind": "site", "name": "Reykjavik-Thingvellir", "dist_deg": 0.0174444, "dist_km": 1.94, "class": "close", "dist_source": "ks_full_grid", "edges_supported": 2}, "geometry": {"type": "Point", "coordinates": [-21.8953, 64.1353]}}, {"type": "Feature", "properties": {"kind": "site", "name": "Callanish", "dist_deg": 0.0226236, "dist_km": 2.516, "class": "close", "dist_source": "ks_full_grid", "edges_supported": 3}, "geometry": {"type": "Point", "coordinates": [-6.7367, 58.1997]}}, {"type": "Feature", "properties": {"kind": "site", "name": "Nuuk Greenland", "dist_deg": 0.0807001, "dist_km": 8.973, "class": "close", "dist_source": "ks_full_grid", "edges_supported": 3}, "geometry": {"type": "Point", "coordinates": [-51.7214, 64.1836]}}, {"type": "Feature", "properties": {"kind": "site", "name": "Port Stanley", "dist_deg": 0.0667231, "dist_km": 7.419, "class": "close", "dist_source": "ks_full_grid", "edges_supported": 1}, "geometry": {"type": "Point", "coordinates": [-57.8492, -51.7011]}}, {"type": "Feature", "properties": {"kind": "site", "name": "South Georgia Island", "dist_deg": 0.0412316, "dist_km": 4.585, "class": "close", "dist_source": "ks_full_grid", "edges_supported": 1}, "geometry": {"type": "Point", "coordinates": [-36.75, -54.25]}}, {"type": "Feature", "properties": {"kind": "site", "name": "Lake Buenos Aires", "dist_deg": 0.0050595, "dist_km": 0.563, "class": "close", "dist_source": "ks_full_grid", "edges_supported": 1}, "geometry": {"type": "Point", "coordinates": [-71.3675, -46.5033]}}, {"type": "Feature", "properties": {"kind": "site", "name": "Wood Buffalo National Park", "dist_deg": 0.0257946, "dist_km": 2.868, "class": "close", "dist_source": "ks_full_grid", "edges_supported": 2}, "geometry": {"type": "Point", "coordinates": [-112.8542, 58.9239]}}, {"type": "Feature", "properties": {"kind": "site", "name": "Adelaide Peninsula", "dist_deg": 0.0020765, "dist_km": 0.231, "class": "close", "dist_source": "ks_full_grid", "edges_supported": 1}, "geometry": {"type": "Point", "coordinates": [-97.8, 68.0833]}}, {"type": "Feature", "properties": {"kind": "site", "name": "Bay of God’s Mercy", "dist_deg": 0.0002736, "dist_km": 0.03, "class": "close", "dist_source": "ks_full_grid", "edges_supported": 2}, "geometry": {"type": "Point", "coordinates": [-84.1333, 64.6]}}, {"type": "Feature", "properties": {"kind": "site", "name": "Ascension Island", "dist_deg": 0.0298398, "dist_km": 3.318, "class": "close", "dist_source": "ks_full_grid", "edges_supported": 2}, "geometry": {"type": "Point", "coordinates": [-14.3558, -7.9467]}}, {"type": "Feature", "properties": {"kind": "site", "name": "St. Helena Island", "dist_deg": 0.0572128, "dist_km": 6.362, "class": "close", "dist_source": "ks_full_grid", "edges_supported": 1}, "geometry": {"type": "Point", "coordinates": [-5.7167, -15.9333]}}, {"type": "Feature", "properties": {"kind": "site", "name": "Mount Loma", "dist_deg": 0.0204008, "dist_km": 2.268, "class": "close", "dist_source": "ks_full_grid", "edges_supported": 3}, "geometry": {"type": "Point", "coordinates": [-11.117, 9.217]}}, {"type": "Feature", "properties": {"kind": "site", "name": "Lena-Muna juncture", "dist_deg": 0.1512406, "dist_km": 16.817, "class": "far", "dist_source": "ks_full_grid", "edges_supported": 0}, "geometry": {"type": "Point", "coordinates": [123.2833, 68.0167]}}, {"type": "Feature", "properties": {"kind": "site", "name": "Lake Ozero Taymyr", "dist_deg": 0.0515155, "dist_km": 5.728, "class": "close", "dist_source": "ks_full_grid", "edges_supported": 1}, "geometry": {"type": "Point", "coordinates": [101.7167, 74.5167]}}, {"type": "Feature", "properties": {"kind": "site", "name": "Tunguska", "dist_deg": 0.0055403, "dist_km": 0.616, "class": "close", "dist_source": "ks_full_grid", "edges_supported": 8}, "geometry": {"type": "Point", "coordinates": [102.7861, 52.6528]}}, {"type": "Feature", "properties": {"kind": "site", "name": "Mount Ross Kerguelen", "dist_deg": 0.0035366, "dist_km": 0.393, "class": "close", "dist_source": "ks_full_grid", "edges_supported": 2}, "geometry": {"type": "Point", "coordinates": [69.5, -49.5833]}}, {"type": "Feature", "properties": {"kind": "site", "name": "Big Ben Heard Island", "dist_deg": 0.0923187, "dist_km": 10.265, "class": "close", "dist_source": "ks_full_grid", "edges_supported": 1}, "geometry": {"type": "Point", "coordinates": [73.525, -53.1083]}}, {"type": "Feature", "properties": {"kind": "site", "name": "Prydz Bay", "dist_deg": 0.0120067, "dist_km": 1.335, "class": "close", "dist_source": "ks_full_grid", "edges_supported": 2}, "geometry": {"type": "Point", "coordinates": [75.0, -69.0]}}, {"type": "Feature", "properties": {"kind": "site", "name": "Mount Lamlam Guam", "dist_deg": 0.0715553, "dist_km": 7.957, "class": "close", "dist_source": "ks_full_grid", "edges_supported": 2}, "geometry": {"type": "Point", "coordinates": [144.6628, 13.3386]}}, {"type": "Feature", "properties": {"kind": "site", "name": "Yap Island", "dist_deg": 0.058886, "dist_km": 6.548, "class": "close", "dist_source": "ks_full_grid", "edges_supported": 3}, "geometry": {"type": "Point", "coordinates": [134.3833, -2.55]}}, {"type": "Feature", "properties": {"kind": "site", "name": "Nan Madol", "dist_deg": 0.0214446, "dist_km": 2.385, "class": "close", "dist_source": "ks_full_grid", "edges_supported": 1}, "geometry": {"type": "Point", "coordinates": [158.3358, 6.8444]}}, {"type": "Feature", "properties": {"kind": "site", "name": "Mount Orohena", "dist_deg": 0.0362441, "dist_km": 4.03, "class": "close", "dist_source": "ks_full_grid", "edges_supported": 3}, "geometry": {"type": "Point", "coordinates": [-149.4842, -17.6197]}}, {"type": "Feature", "properties": {"kind": "site", "name": "Hivaoa Island", "dist_deg": 0.0120366, "dist_km": 1.338, "class": "close", "dist_source": "ks_full_grid", "edges_supported": 2}, "geometry": {"type": "Point", "coordinates": [-139.0211, -9.7547]}}, {"type": "Feature", "properties": {"kind": "site", "name": "Kiritimati (Christmas Island)", "dist_deg": 0.0206393, "dist_km": 2.295, "class": "close", "dist_source": "ks_full_grid", "edges_supported": 1}, "geometry": {"type": "Point", "coordinates": [-157.4278, 1.8722]}}, {"type": "Feature", "properties": {"kind": "site", "name": "Graciosa Azores", "dist_deg": 0.0113603, "dist_km": 1.263, "class": "close", "dist_source": "ks_full_grid", "edges_supported": 2}, "geometry": {"type": "Point", "coordinates": [-28.0069, 39.0525]}}, {"type": "Feature", "properties": {"kind": "site", "name": "St. George’s Island Bermuda", "dist_deg": 0.0586831, "dist_km": 6.525, "class": "close", "dist_source": "ks_full_grid", "edges_supported": 1}, "geometry": {"type": "Point", "coordinates": [-64.7786, 32.2811]}}, {"type": "Feature", "properties": {"kind": "site", "name": "Lisbon Portugal", "dist_deg": 0.0272939, "dist_km": 3.035, "class": "close", "dist_source": "ks_full_grid", "edges_supported": 4}, "geometry": {"type": "Point", "coordinates": [-9.1356, 38.7069]}}, {"type": "Feature", "properties": {"kind": "site", "name": "Longyearbyen Spitsbergen", "dist_deg": 0.0400057, "dist_km": 4.448, "class": "close", "dist_source": "ks_full_grid", "edges_supported": 1}, "geometry": {"type": "Point", "coordinates": [18.1642, 78.6481]}}, {"type": "Feature", "properties": {"kind": "site", "name": "Independence Fjord", "dist_deg": 0.0059454, "dist_km": 0.661, "class": "close", "dist_source": "ks_full_grid", "edges_supported": 2}, "geometry": {"type": "Point", "coordinates": [-28.2725, 81.9247]}}, {"type": "Feature", "properties": {"kind": "site", "name": "Yuzhny Novaya Zemlya", "dist_deg": 0.0492486, "dist_km": 5.476, "class": "close", "dist_source": "ks_full_grid", "edges_supported": 1}, "geometry": {"type": "Point", "coordinates": [80.3667, 73.4833]}}, {"type": "Feature", "properties": {"kind": "site", "name": "Mount Hope Antarctica", "dist_deg": 0.0985605, "dist_km": 10.959, "class": "close", "dist_source": "ks_full_grid", "edges_supported": 1}, "geometry": {"type": "Point", "coordinates": [171.0, -83.75]}}, {"type": "Feature", "properties": {"kind": "site", "name": "Bear Island Antarctica", "dist_deg": 0.0008637, "dist_km": 0.096, "class": "close", "dist_source": "ks_full_grid", "edges_supported": 5}, "geometry": {"type": "Point", "coordinates": [-67.06, -68.18]}}, {"type": "Feature", "properties": {"kind": "site", "name": "Elephant Island", "dist_deg": 0.0020662, "dist_km": 0.23, "class": "close", "dist_source": "ks_full_grid", "edges_supported": 2}, "geometry": {"type": "Point", "coordinates": [-55.1167, -61.1333]}}, {"type": "Feature", "properties": {"kind": "site", "name": "South Pole", "dist_deg": 0.094488, "dist_km": 10.507, "class": "close", "dist_source": "ks_full_grid", "edges_supported": 2}, "geometry": {"type": "Point", "coordinates": [0.0, -90.0]}}, {"type": "Feature", "properties": {"kind": "site", "name": "South Magnetic Pole", "dist_deg": 0.0412544, "dist_km": 4.587, "class": "close", "dist_source": "ks_full_grid", "edges_supported": 2}, "geometry": {"type": "Point", "coordinates": [138.0, -67.0]}}, {"type": "Feature", "properties": {"kind": "site", "name": "Sanae Antarctica", "dist_deg": 0.0995178, "dist_km": 11.066, "class": "medium", "dist_source": "ks_full_grid", "edges_supported": 1}, "geometry": {"type": "Point", "coordinates": [127.5233, -71.6728]}}, {"type": "Feature", "properties": {"kind": "site", "name": "Halifax Nova Scotia", "dist_deg": 0.0722679, "dist_km": 8.036, "class": "close", "dist_source": "ks_full_grid", "edges_supported": 4}, "geometry": {"type": "Point", "coordinates": [-63.5753, 44.6489]}}, {"type": "Feature", "properties": {"kind": "site", "name": "Washington DC", "dist_deg": 0.0298188, "dist_km": 3.316, "class": "close", "dist_source": "ks_full_grid", "edges_supported": 1}, "geometry": {"type": "Point", "coordinates": [-77.0364, 38.895]}}]}