{"type": "FeatureCollection", "name": "E8_proj_seed1496 sites", "properties": {"shape": "E8_proj_seed1496", "lock_lat": 75.0, "lock_lon": -145.0, "bearing": 30.0, "thresholds": {"close": 0.09892531138990063, "medium": 0.13489815189531904, "close_km": 11.0, "medium_km": 15.0, "dist_mode": "edge_exact"}}, "features": [{"type": "Feature", "properties": {"kind": "site", "name": "Glastonbury Tor", "dist_deg": 0.0321977, "dist_km": 3.58, "class": "close", "dist_source": "ks_full_grid"}, "geometry": {"type": "Point", "coordinates": [-2.7, 51.0]}}, {"type": "Feature", "properties": {"kind": "site", "name": "Shaftesbury", "dist_deg": 0.0066164, "dist_km": 0.736, "class": "close", "dist_source": "ks_full_grid"}, "geometry": {"type": "Point", "coordinates": [-2.195, 51.0]}}, {"type": "Feature", "properties": {"kind": "site", "name": "Brandenburg Gate", "dist_deg": 0.007098, "dist_km": 0.789, "class": "close", "dist_source": "ks_full_grid"}, "geometry": {"type": "Point", "coordinates": [13.3778, 52.5164]}}, {"type": "Feature", "properties": {"kind": "site", "name": "Placa de Catalunya", "dist_deg": 0.0709654, "dist_km": 7.891, "class": "close", "dist_source": "ks_full_grid"}, "geometry": {"type": "Point", "coordinates": [2.17, 41.387]}}, {"type": "Feature", "properties": {"kind": "site", "name": "Island of the Sun", "dist_deg": 0.0024643, "dist_km": 0.274, "class": "close", "dist_source": "ks_full_grid"}, "geometry": {"type": "Point", "coordinates": [-69.1717, -16.0167]}}, {"type": "Feature", "properties": {"kind": "site", "name": "Plaza Mayor Lima", "dist_deg": 0.0351586, "dist_km": 3.909, "class": "close", "dist_source": "ks_full_grid"}, "geometry": {"type": "Point", "coordinates": [-77.0306, -12.0458]}}, {"type": "Feature", "properties": {"kind": "site", "name": "Rio Ucayali-Rio Maranon confluence", "dist_deg": 0.1592309, "dist_km": 17.706, "class": "far", "dist_source": "ks_full_grid"}, "geometry": {"type": "Point", "coordinates": [-73.45, -4.45]}}, {"type": "Feature", "properties": {"kind": "site", "name": "Uluru", "dist_deg": 0.0127465, "dist_km": 1.417, "class": "close", "dist_source": "ks_full_grid"}, "geometry": {"type": "Point", "coordinates": [130.9917, -25.3433]}}, {"type": "Feature", "properties": {"kind": "site", "name": "Kata Tjuta", "dist_deg": 0.0751322, "dist_km": 8.354, "class": "close", "dist_source": "ks_full_grid"}, "geometry": {"type": "Point", "coordinates": [130.7528, -25.2981]}}, {"type": "Feature", "properties": {"kind": "site", "name": "Nourlangie Rock", "dist_deg": 0.0922829, "dist_km": 10.261, "class": "close", "dist_source": "ks_full_grid"}, "geometry": {"type": "Point", "coordinates": [132.8111, -12.8669]}}, {"type": "Feature", "properties": {"kind": "site", "name": "Hamelin Pool", "dist_deg": 0.0312909, "dist_km": 3.479, "class": "close", "dist_source": "ks_full_grid"}, "geometry": {"type": "Point", "coordinates": [114.2003, -26.435]}}, {"type": "Feature", "properties": {"kind": "site", "name": "Tirta Empul", "dist_deg": 0.0286396, "dist_km": 3.185, "class": "close", "dist_source": "ks_full_grid"}, "geometry": {"type": "Point", "coordinates": [115.3111, -8.4167]}}, {"type": "Feature", "properties": {"kind": "site", "name": "Borobudur", "dist_deg": 0.0386013, "dist_km": 4.292, "class": "close", "dist_source": "ks_full_grid"}, "geometry": {"type": "Point", "coordinates": [110.2042, -7.6081]}}, {"type": "Feature", "properties": {"kind": "site", "name": "Mount Kinabalu", "dist_deg": 0.0131478, "dist_km": 1.462, "class": "close", "dist_source": "ks_full_grid"}, "geometry": {"type": "Point", "coordinates": [116.5628, 6.0744]}}, {"type": "Feature", "properties": {"kind": "site", "name": "Mount Kailash", "dist_deg": 0.0089334, "dist_km": 0.993, "class": "close", "dist_source": "ks_full_grid"}, "geometry": {"type": "Point", "coordinates": [81.3125, 31.0675]}}, {"type": "Feature", "properties": {"kind": "site", "name": "Karakul Lake", "dist_deg": 0.0074405, "dist_km": 0.827, "class": "close", "dist_source": "ks_full_grid"}, "geometry": {"type": "Point", "coordinates": [73.4886, 39.0217]}}, {"type": "Feature", "properties": {"kind": "site", "name": "Sundarbans-Sagar Island", "dist_deg": 0.0712967, "dist_km": 7.928, "class": "close", "dist_source": "ks_full_grid"}, "geometry": {"type": "Point", "coordinates": [88.2953, 22.5564]}}, {"type": "Feature", "properties": {"kind": "site", "name": "Mount Shasta", "dist_deg": 0.0164763, "dist_km": 1.832, "class": "close", "dist_source": "ks_full_grid"}, "geometry": {"type": "Point", "coordinates": [-122.31, 41.31]}}, {"type": "Feature", "properties": {"kind": "site", "name": "Kachina Peaks Wilderness", "dist_deg": 0.0341093, "dist_km": 3.793, "class": "close", "dist_source": "ks_full_grid"}, "geometry": {"type": "Point", "coordinates": [-111.6625, 35.3394]}}, {"type": "Feature", "properties": {"kind": "site", "name": "Golden Hinde", "dist_deg": 0.0483814, "dist_km": 5.38, "class": "close", "dist_source": "ks_full_grid"}, "geometry": {"type": "Point", "coordinates": [-125.4494, 49.6506]}}, {"type": "Feature", "properties": {"kind": "site", "name": "El Tule-Palenque", "dist_deg": 0.0120956, "dist_km": 1.345, "class": "close", "dist_source": "ks_full_grid"}, "geometry": {"type": "Point", "coordinates": [-91.9817, 17.51]}}, {"type": "Feature", "properties": {"kind": "site", "name": "Laguna Corcovado", "dist_deg": 0.0440803, "dist_km": 4.902, "class": "close", "dist_source": "ks_full_grid"}, "geometry": {"type": "Point", "coordinates": [-83.6167, 8.55]}}, {"type": "Feature", "properties": {"kind": "site", "name": "Cerro de la Silla", "dist_deg": 0.0449014, "dist_km": 4.993, "class": "close", "dist_source": "ks_full_grid"}, "geometry": {"type": "Point", "coordinates": [-100.3092, 25.6733]}}, {"type": "Feature", "properties": {"kind": "site", "name": "Mount Fuji", "dist_deg": 0.0230238, "dist_km": 2.56, "class": "close", "dist_source": "ks_full_grid"}, "geometry": {"type": "Point", "coordinates": [138.7317, 35.3628]}}, {"type": "Feature", "properties": {"kind": "site", "name": "Mani San", "dist_deg": 0.0058975, "dist_km": 0.656, "class": "close", "dist_source": "ks_full_grid"}, "geometry": {"type": "Point", "coordinates": [126.4347, 37.6117]}}, {"type": "Feature", "properties": {"kind": "site", "name": "Sefa Utaki", "dist_deg": 0.0499041, "dist_km": 5.549, "class": "close", "dist_source": "ks_full_grid"}, "geometry": {"type": "Point", "coordinates": [127.7669, 26.1444]}}, {"type": "Feature", "properties": {"kind": "site", "name": "Haleakala Crater", "dist_deg": 0.0184727, "dist_km": 2.054, "class": "close", "dist_source": "ks_full_grid"}, "geometry": {"type": "Point", "coordinates": [-156.1828, 20.7186]}}, {"type": "Feature", "properties": {"kind": "site", "name": "Midway Atoll", "dist_deg": 0.0528329, "dist_km": 5.875, "class": "close", "dist_source": "ks_full_grid"}, "geometry": {"type": "Point", "coordinates": [-177.3833, 28.25]}}, {"type": "Feature", "properties": {"kind": "site", "name": "Mauna Loa", "dist_deg": 0.0475193, "dist_km": 5.284, "class": "close", "dist_source": "ks_full_grid"}, "geometry": {"type": "Point", "coordinates": [-155.5356, 19.7569]}}, {"type": "Feature", "properties": {"kind": "site", "name": "Lake Rotopounamu", "dist_deg": 0.0197159, "dist_km": 2.192, "class": "close", "dist_source": "ks_full_grid"}, "geometry": {"type": "Point", "coordinates": [175.7372, -39.0258]}}, {"type": "Feature", "properties": {"kind": "site", "name": "Mount Panié", "dist_deg": 0.0894273, "dist_km": 9.944, "class": "close", "dist_source": "ks_full_grid"}, "geometry": {"type": "Point", "coordinates": [164.7706, -20.5894]}}, {"type": "Feature", "properties": {"kind": "site", "name": "Macquarie Island", "dist_deg": 0.0002554, "dist_km": 0.028, "class": "close", "dist_source": "ks_full_grid"}, "geometry": {"type": "Point", "coordinates": [158.8956, -54.5947]}}, {"type": "Feature", "properties": {"kind": "site", "name": "Great Pyramid of Giza", "dist_deg": 0.0524319, "dist_km": 5.83, "class": "close", "dist_source": "ks_full_grid"}, "geometry": {"type": "Point", "coordinates": [31.1342, 29.9792]}}, {"type": "Feature", "properties": {"kind": "site", "name": "Mount Sinai", "dist_deg": 0.0065484, "dist_km": 0.728, "class": "close", "dist_source": "ks_full_grid"}, "geometry": {"type": "Point", "coordinates": [33.973, 28.5394]}}, {"type": "Feature", "properties": {"kind": "site", "name": "Mount of Olives", "dist_deg": 0.1164596, "dist_km": 12.95, "class": "medium", "dist_source": "ks_full_grid"}, "geometry": {"type": "Point", "coordinates": [35.2439, 31.778]}}, {"type": "Feature", "properties": {"kind": "site", "name": "Mecca", "dist_deg": 0.0301741, "dist_km": 3.355, "class": "close", "dist_source": "ks_full_grid"}, "geometry": {"type": "Point", "coordinates": [39.8147, 21.4275]}}, {"type": "Feature", "properties": {"kind": "site", "name": "Takht-e Soleiman", "dist_deg": 0.039089, "dist_km": 4.346, "class": "close", "dist_source": "ks_full_grid"}, "geometry": {"type": "Point", "coordinates": [47.2361, 36.6033]}}, {"type": "Feature", "properties": {"kind": "site", "name": "Table Mountain", "dist_deg": 0.0093297, "dist_km": 1.037, "class": "close", "dist_source": "ks_full_grid"}, "geometry": {"type": "Point", "coordinates": [18.43, -33.9247]}}, {"type": "Feature", "properties": {"kind": "site", "name": "Pilansberg", "dist_deg": 0.0720537, "dist_km": 8.012, "class": "close", "dist_source": "ks_full_grid"}, "geometry": {"type": "Point", "coordinates": [27.0322, -25.2294]}}, {"type": "Feature", "properties": {"kind": "site", "name": "Mont-aux-Sources", "dist_deg": 0.0537084, "dist_km": 5.972, "class": "close", "dist_source": "ks_full_grid"}, "geometry": {"type": "Point", "coordinates": [28.8847, -28.7592]}}, {"type": "Feature", "properties": {"kind": "site", "name": "Sergiev Posad", "dist_deg": 0.0181271, "dist_km": 2.016, "class": "close", "dist_source": "ks_full_grid"}, "geometry": {"type": "Point", "coordinates": [37.6175, 55.7558]}}, {"type": "Feature", "properties": {"kind": "site", "name": "Mount Konzhakovsky Kamen", "dist_deg": 0.0015996, "dist_km": 0.178, "class": "close", "dist_source": "ks_full_grid"}, "geometry": {"type": "Point", "coordinates": [60.0, 59.0]}}, {"type": "Feature", "properties": {"kind": "site", "name": "Mount Elbrus", "dist_deg": 0.0566155, "dist_km": 6.295, "class": "close", "dist_source": "ks_full_grid"}, "geometry": {"type": "Point", "coordinates": [42.4392, 43.355]}}, {"type": "Feature", "properties": {"kind": "site", "name": "Po Lin Monastery", "dist_deg": 0.0013833, "dist_km": 0.154, "class": "close", "dist_source": "ks_full_grid"}, "geometry": {"type": "Point", "coordinates": [113.9078, 22.2556]}}, {"type": "Feature", "properties": {"kind": "site", "name": "Emei Shan", "dist_deg": 0.0362157, "dist_km": 4.027, "class": "close", "dist_source": "ks_full_grid"}, "geometry": {"type": "Point", "coordinates": [104.0756, 30.6511]}}, {"type": "Feature", "properties": {"kind": "site", "name": "Mount Pulag", "dist_deg": 0.0323166, "dist_km": 3.593, "class": "close", "dist_source": "ks_full_grid"}, "geometry": {"type": "Point", "coordinates": [120.8836, 16.5836]}}, {"type": "Feature", "properties": {"kind": "site", "name": "Niagara Falls", "dist_deg": 0.0285776, "dist_km": 3.178, "class": "close", "dist_source": "ks_full_grid"}, "geometry": {"type": "Point", "coordinates": [-79.0853, 43.0903]}}, {"type": "Feature", "properties": {"kind": "site", "name": "Pilot Knob State Park", "dist_deg": 0.0281635, "dist_km": 3.132, "class": "close", "dist_source": "ks_full_grid"}, "geometry": {"type": "Point", "coordinates": [-93.5533, 43.2528]}}, {"type": "Feature", "properties": {"kind": "site", "name": "Akimiski Island", "dist_deg": 0.0217571, "dist_km": 2.419, "class": "close", "dist_source": "ks_full_grid"}, "geometry": {"type": "Point", "coordinates": [-81.3172, 52.9872]}}, {"type": "Feature", "properties": {"kind": "site", "name": "Mount Dimlang", "dist_deg": 0.000109, "dist_km": 0.012, "class": "close", "dist_source": "ks_full_grid"}, "geometry": {"type": "Point", "coordinates": [11.75, 8.5]}}, {"type": "Feature", "properties": {"kind": "site", "name": "Lake Chad", "dist_deg": 0.018723, "dist_km": 2.082, "class": "close", "dist_source": "ks_full_grid"}, "geometry": {"type": "Point", "coordinates": [14.1, 13.3303]}}, {"type": "Feature", "properties": {"kind": "site", "name": "Isangila Falls", "dist_deg": 0.0417096, "dist_km": 4.638, "class": "close", "dist_source": "ks_full_grid"}, "geometry": {"type": "Point", "coordinates": [12.0, -6.0]}}, {"type": "Feature", "properties": {"kind": "site", "name": "Marco Zero Recife", "dist_deg": 0.0004569, "dist_km": 0.051, "class": "close", "dist_source": "ks_full_grid"}, "geometry": {"type": "Point", "coordinates": [-34.8711, -8.0633]}}, {"type": "Feature", "properties": {"kind": "site", "name": "Peter and Paul Rocks", "dist_deg": 0.040886, "dist_km": 4.546, "class": "close", "dist_source": "ks_full_grid"}, "geometry": {"type": "Point", "coordinates": [-29.3353, -0.9169]}}, {"type": "Feature", "properties": {"kind": "site", "name": "Parnaiba River Headwaters", "dist_deg": 0.0119604, "dist_km": 1.33, "class": "close", "dist_source": "ks_full_grid"}, "geometry": {"type": "Point", "coordinates": [-43.1747, -8.3231]}}, {"type": "Feature", "properties": {"kind": "site", "name": "Plaza de Mayo", "dist_deg": 0.1371839, "dist_km": 15.254, "class": "far", "dist_source": "ks_full_grid"}, "geometry": {"type": "Point", "coordinates": [-58.3722, -34.6083]}}, {"type": "Feature", "properties": {"kind": "site", "name": "Iguazu Falls", "dist_deg": 0.0321515, "dist_km": 3.575, "class": "close", "dist_source": "ks_full_grid"}, "geometry": {"type": "Point", "coordinates": [-54.4453, -25.6803]}}, {"type": "Feature", "properties": {"kind": "site", "name": "Plaza de Armas Santiago", "dist_deg": 0.0063466, "dist_km": 0.706, "class": "close", "dist_source": "ks_full_grid"}, "geometry": {"type": "Point", "coordinates": [-70.6519, -33.4431]}}, {"type": "Feature", "properties": {"kind": "site", "name": "Jebel Toubkal", "dist_deg": 0.0149303, "dist_km": 1.66, "class": "close", "dist_source": "ks_full_grid"}, "geometry": {"type": "Point", "coordinates": [-7.9161, 31.0619]}}, {"type": "Feature", "properties": {"kind": "site", "name": "Pico de Teide", "dist_deg": 0.0318032, "dist_km": 3.536, "class": "close", "dist_source": "ks_full_grid"}, "geometry": {"type": "Point", "coordinates": [-16.6333, 28.2667]}}, {"type": "Feature", "properties": {"kind": "site", "name": "Chott el Djerid", "dist_deg": 0.0296935, "dist_km": 3.302, "class": "close", "dist_source": "ks_full_grid"}, "geometry": {"type": "Point", "coordinates": [9.5375, 33.8869]}}, {"type": "Feature", "properties": {"kind": "site", "name": "Teatro Amazonas", "dist_deg": 0.0003918, "dist_km": 0.044, "class": "close", "dist_source": "ks_full_grid"}, "geometry": {"type": "Point", "coordinates": [-60.0231, -3.1306]}}, {"type": "Feature", "properties": {"kind": "site", "name": "Angel Falls", "dist_deg": 0.017754, "dist_km": 1.974, "class": "close", "dist_source": "ks_full_grid"}, "geometry": {"type": "Point", "coordinates": [-62.5356, 5.9675]}}, {"type": "Feature", "properties": {"kind": "site", "name": "Lago Arari", "dist_deg": 0.0081642, "dist_km": 0.908, "class": "close", "dist_source": "ks_full_grid"}, "geometry": {"type": "Point", "coordinates": [-58.75, -3.4167]}}, {"type": "Feature", "properties": {"kind": "site", "name": "Christ the Redeemer", "dist_deg": 0.0226703, "dist_km": 2.521, "class": "close", "dist_source": "ks_full_grid"}, "geometry": {"type": "Point", "coordinates": [-43.2106, -22.9519]}}, {"type": "Feature", "properties": {"kind": "site", "name": "Praca dos Tres Poderes", "dist_deg": 8.09e-05, "dist_km": 0.009, "class": "close", "dist_source": "ks_full_grid"}, "geometry": {"type": "Point", "coordinates": [-47.8611, -15.7997]}}, {"type": "Feature", "properties": {"kind": "site", "name": "Terreiro de Jesus", "dist_deg": 0.0219993, "dist_km": 2.446, "class": "close", "dist_source": "ks_full_grid"}, "geometry": {"type": "Point", "coordinates": [-38.51, -12.9733]}}, {"type": "Feature", "properties": {"kind": "site", "name": "High Tatra", "dist_deg": 0.0084417, "dist_km": 0.939, "class": "close", "dist_source": "ks_full_grid"}, "geometry": {"type": "Point", "coordinates": [20.0, 49.1667]}}, {"type": "Feature", "properties": {"kind": "site", "name": "Stortorget Stockholm", "dist_deg": 0.0798241, "dist_km": 8.876, "class": "close", "dist_source": "ks_full_grid"}, "geometry": {"type": "Point", "coordinates": [18.0708, 59.325]}}, {"type": "Feature", "properties": {"kind": "site", "name": "Mount Olympus", "dist_deg": 0.0289177, "dist_km": 3.216, "class": "close", "dist_source": "ks_full_grid"}, "geometry": {"type": "Point", "coordinates": [22.35, 40.0833]}}, {"type": "Feature", "properties": {"kind": "site", "name": "Arunachala Hill", "dist_deg": 0.0034076, "dist_km": 0.379, "class": "close", "dist_source": "ks_full_grid"}, "geometry": {"type": "Point", "coordinates": [79.0517, 12.2406]}}, {"type": "Feature", "properties": {"kind": "site", "name": "Piram Island", "dist_deg": 0.0830913, "dist_km": 9.239, "class": "close", "dist_source": "ks_full_grid"}, "geometry": {"type": "Point", "coordinates": [72.35, 21.6]}}, {"type": "Feature", "properties": {"kind": "site", "name": "Adam’s Peak", "dist_deg": 0.0364525, "dist_km": 4.053, "class": "close", "dist_source": "ks_full_grid"}, "geometry": {"type": "Point", "coordinates": [80.4997, 6.8092]}}, {"type": "Feature", "properties": {"kind": "site", "name": "Uhuru Peak Kilimanjaro", "dist_deg": 0.0665239, "dist_km": 7.397, "class": "close", "dist_source": "ks_full_grid"}, "geometry": {"type": "Point", "coordinates": [37.3533, -3.0758]}}, {"type": "Feature", "properties": {"kind": "site", "name": "Lake Victoria (Ukerewe Island)", "dist_deg": 0.0970295, "dist_km": 10.789, "class": "close", "dist_source": "ks_full_grid"}, "geometry": {"type": "Point", "coordinates": [32.9, -0.9833]}}, {"type": "Feature", "properties": {"kind": "site", "name": "Mount Nkungwe", "dist_deg": 0.0096111, "dist_km": 1.069, "class": "close", "dist_source": "ks_full_grid"}, "geometry": {"type": "Point", "coordinates": [29.8, -6.1167]}}, {"type": "Feature", "properties": {"kind": "site", "name": "Mount Belukha", "dist_deg": 0.0204967, "dist_km": 2.279, "class": "close", "dist_source": "ks_full_grid"}, "geometry": {"type": "Point", "coordinates": [88.9, 48.5]}}, {"type": "Feature", "properties": {"kind": "site", "name": "Uzynaral Strait", "dist_deg": 0.0653153, "dist_km": 7.263, "class": "close", "dist_source": "ks_full_grid"}, "geometry": {"type": "Point", "coordinates": [75.5, 46.6]}}, {"type": "Feature", "properties": {"kind": "site", "name": "Lake Baikal (Cape Khoboy)", "dist_deg": 0.0574373, "dist_km": 6.387, "class": "close", "dist_source": "ks_full_grid"}, "geometry": {"type": "Point", "coordinates": [107.6667, 53.1667]}}, {"type": "Feature", "properties": {"kind": "site", "name": "Forbidden City Beijing", "dist_deg": 0.0658064, "dist_km": 7.317, "class": "close", "dist_source": "ks_full_grid"}, "geometry": {"type": "Point", "coordinates": [116.4075, 39.9042]}}, {"type": "Feature", "properties": {"kind": "site", "name": "Tai Shan", "dist_deg": 0.0400729, "dist_km": 4.456, "class": "close", "dist_source": "ks_full_grid"}, "geometry": {"type": "Point", "coordinates": [117.3333, 36.5]}}, {"type": "Feature", "properties": {"kind": "site", "name": "Karakorum", "dist_deg": 0.0775878, "dist_km": 8.627, "class": "close", "dist_source": "ks_full_grid"}, "geometry": {"type": "Point", "coordinates": [102.8239, 47.1972]}}, {"type": "Feature", "properties": {"kind": "site", "name": "Boulder Colorado", "dist_deg": 0.0205867, "dist_km": 2.289, "class": "close", "dist_source": "ks_full_grid"}, "geometry": {"type": "Point", "coordinates": [-105.2706, 40.015]}}, {"type": "Feature", "properties": {"kind": "site", "name": "Mount Whitney", "dist_deg": 0.029256, "dist_km": 3.253, "class": "close", "dist_source": "ks_full_grid"}, "geometry": {"type": "Point", "coordinates": [-118.292, 36.5786]}}, {"type": "Feature", "properties": {"kind": "site", "name": "Cahokia Mounds", "dist_deg": 0.0716184, "dist_km": 7.964, "class": "close", "dist_source": "ks_full_grid"}, "geometry": {"type": "Point", "coordinates": [-90.0678, 38.6503]}}, {"type": "Feature", "properties": {"kind": "site", "name": "Three Sisters Blue Mountains", "dist_deg": 0.0373887, "dist_km": 4.157, "class": "close", "dist_source": "ks_full_grid"}, "geometry": {"type": "Point", "coordinates": [150.5, -33.75]}}, {"type": "Feature", "properties": {"kind": "site", "name": "Mount Picton Tasmania", "dist_deg": 0.0377163, "dist_km": 4.194, "class": "close", "dist_source": "ks_full_grid"}, "geometry": {"type": "Point", "coordinates": [146.6075, -43.1575]}}, {"type": "Feature", "properties": {"kind": "site", "name": "Fraser Island", "dist_deg": 0.0017051, "dist_km": 0.19, "class": "close", "dist_source": "ks_full_grid"}, "geometry": {"type": "Point", "coordinates": [153.0294, -25.3925]}}, {"type": "Feature", "properties": {"kind": "site", "name": "Cerro de Puntas", "dist_deg": 0.0121629, "dist_km": 1.352, "class": "close", "dist_source": "ks_full_grid"}, "geometry": {"type": "Point", "coordinates": [-67.2639, 18.3561]}}, {"type": "Feature", "properties": {"kind": "site", "name": "Great Exuma Island", "dist_deg": 0.0033756, "dist_km": 0.375, "class": "close", "dist_source": "ks_full_grid"}, "geometry": {"type": "Point", "coordinates": [-75.8167, 23.5167]}}, {"type": "Feature", "properties": {"kind": "site", "name": "Montego Bay", "dist_deg": 0.0152957, "dist_km": 1.701, "class": "close", "dist_source": "ks_full_grid"}, "geometry": {"type": "Point", "coordinates": [-77.9167, 18.4667]}}, {"type": "Feature", "properties": {"kind": "site", "name": "Mount Simpson PNG", "dist_deg": 0.0467758, "dist_km": 5.201, "class": "close", "dist_source": "ks_full_grid"}, "geometry": {"type": "Point", "coordinates": [148.0, -9.5]}}, {"type": "Feature", "properties": {"kind": "site", "name": "Popomanaseu", "dist_deg": 0.1167063, "dist_km": 12.977, "class": "medium", "dist_source": "ks_full_grid"}, "geometry": {"type": "Point", "coordinates": [160.0667, -9.7]}}, {"type": "Feature", "properties": {"kind": "site", "name": "Puncak Jaya", "dist_deg": 0.0572915, "dist_km": 6.37, "class": "close", "dist_source": "ks_full_grid"}, "geometry": {"type": "Point", "coordinates": [138.5, -4.5]}}, {"type": "Feature", "properties": {"kind": "site", "name": "Dakar", "dist_deg": 0.0133551, "dist_km": 1.485, "class": "close", "dist_source": "ks_full_grid"}, "geometry": {"type": "Point", "coordinates": [-17.3333, 14.75]}}, {"type": "Feature", "properties": {"kind": "site", "name": "Timbuktu", "dist_deg": 0.0144467, "dist_km": 1.606, "class": "close", "dist_source": "ks_full_grid"}, "geometry": {"type": "Point", "coordinates": [-3.5, 15.0]}}, {"type": "Feature", "properties": {"kind": "site", "name": "Fogo Cape Verde", "dist_deg": 0.0223251, "dist_km": 2.482, "class": "close", "dist_source": "ks_full_grid"}, "geometry": {"type": "Point", "coordinates": [-24.3817, 14.9133]}}, {"type": "Feature", "properties": {"kind": "site", "name": "Tsodilo Hill", "dist_deg": 0.1222731, "dist_km": 13.596, "class": "medium", "dist_source": "ks_full_grid"}, "geometry": {"type": "Point", "coordinates": [21.7667, -18.75]}}, {"type": "Feature", "properties": {"kind": "site", "name": "Kgalagadi Transfrontier Park", "dist_deg": 0.1296449, "dist_km": 14.416, "class": "medium", "dist_source": "ks_full_grid"}, "geometry": {"type": "Point", "coordinates": [20.7122, -25.2872]}}, {"type": "Feature", "properties": {"kind": "site", "name": "Great Zimbabwe", "dist_deg": 0.0451514, "dist_km": 5.021, "class": "close", "dist_source": "ks_full_grid"}, "geometry": {"type": "Point", "coordinates": [30.9275, -20.2672]}}, {"type": "Feature", "properties": {"kind": "site", "name": "Khao Nan Mia", "dist_deg": 0.0227445, "dist_km": 2.529, "class": "close", "dist_source": "ks_full_grid"}, "geometry": {"type": "Point", "coordinates": [99.5941, 8.8594]}}, {"type": "Feature", "properties": {"kind": "site", "name": "Lake Toba", "dist_deg": 0.0208627, "dist_km": 2.32, "class": "close", "dist_source": "ks_full_grid"}, "geometry": {"type": "Point", "coordinates": [98.8756, 2.6845]}}, {"type": "Feature", "properties": {"kind": "site", "name": "Angkor Wat", "dist_deg": 0.0020277, "dist_km": 0.226, "class": "close", "dist_source": "ks_full_grid"}, "geometry": {"type": "Point", "coordinates": [103.86, 13.4256]}}, {"type": "Feature", "properties": {"kind": "site", "name": "Mount Tomaniivi", "dist_deg": 0.0142144, "dist_km": 1.581, "class": "close", "dist_source": "ks_full_grid"}, "geometry": {"type": "Point", "coordinates": [178.0167, -17.6167]}}, {"type": "Feature", "properties": {"kind": "site", "name": "Tarawa Island", "dist_deg": 0.0363413, "dist_km": 4.041, "class": "close", "dist_source": "ks_full_grid"}, "geometry": {"type": "Point", "coordinates": [173.0764, 1.4403]}}, {"type": "Feature", "properties": {"kind": "site", "name": "Mount Silisili", "dist_deg": 0.0153069, "dist_km": 1.702, "class": "close", "dist_source": "ks_full_grid"}, "geometry": {"type": "Point", "coordinates": [-172.4858, -13.6183]}}, {"type": "Feature", "properties": {"kind": "site", "name": "Denali (Mount McKinley)", "dist_deg": 0.0041444, "dist_km": 0.461, "class": "close", "dist_source": "ks_full_grid"}, "geometry": {"type": "Point", "coordinates": [-149.4289, 63.0694]}}, {"type": "Feature", "properties": {"kind": "site", "name": "Great Bear Lake", "dist_deg": 0.0805069, "dist_km": 8.952, "class": "close", "dist_source": "ks_full_grid"}, "geometry": {"type": "Point", "coordinates": [-120.3833, 66.1197]}}, {"type": "Feature", "properties": {"kind": "site", "name": "Fox Islands Aleutian", "dist_deg": 0.0748901, "dist_km": 8.327, "class": "close", "dist_source": "ks_full_grid"}, "geometry": {"type": "Point", "coordinates": [-166.5833, 53.7667]}}, {"type": "Feature", "properties": {"kind": "site", "name": "Mount Maromokotro", "dist_deg": 0.0332494, "dist_km": 3.697, "class": "close", "dist_source": "ks_full_grid"}, "geometry": {"type": "Point", "coordinates": [49.4847, -13.0183]}}, {"type": "Feature", "properties": {"kind": "site", "name": "Piton des Neiges", "dist_deg": 0.0243218, "dist_km": 2.704, "class": "close", "dist_source": "ks_full_grid"}, "geometry": {"type": "Point", "coordinates": [55.7333, -21.3167]}}, {"type": "Feature", "properties": {"kind": "site", "name": "Morne Seychellois", "dist_deg": 0.0195122, "dist_km": 2.17, "class": "close", "dist_source": "ks_full_grid"}, "geometry": {"type": "Point", "coordinates": [55.45, -4.6167]}}, {"type": "Feature", "properties": {"kind": "site", "name": "Mount Damavand", "dist_deg": 0.0618049, "dist_km": 6.872, "class": "close", "dist_source": "ks_full_grid"}, "geometry": {"type": "Point", "coordinates": [52.1097, 35.9547]}}, {"type": "Feature", "properties": {"kind": "site", "name": "Vozrozhdeniya Island", "dist_deg": 0.0200061, "dist_km": 2.225, "class": "close", "dist_source": "ks_full_grid"}, "geometry": {"type": "Point", "coordinates": [59.1419, 45.0917]}}, {"type": "Feature", "properties": {"kind": "site", "name": "Malek Siah Kuh", "dist_deg": 0.0517312, "dist_km": 5.752, "class": "close", "dist_source": "ks_full_grid"}, "geometry": {"type": "Point", "coordinates": [60.8636, 29.4892]}}, {"type": "Feature", "properties": {"kind": "site", "name": "Klyuchevskaya Sopka", "dist_deg": 0.0171755, "dist_km": 1.91, "class": "close", "dist_source": "ks_full_grid"}, "geometry": {"type": "Point", "coordinates": [160.6428, 56.0581]}}, {"type": "Feature", "properties": {"kind": "site", "name": "Sakhalin Island", "dist_deg": 0.0360664, "dist_km": 4.01, "class": "close", "dist_source": "ks_full_grid"}, "geometry": {"type": "Point", "coordinates": [143.0028, 50.2247]}}, {"type": "Feature", "properties": {"kind": "site", "name": "Cherskiy", "dist_deg": 0.0238029, "dist_km": 2.647, "class": "close", "dist_source": "ks_full_grid"}, "geometry": {"type": "Point", "coordinates": [-115.9872, 34.6272]}}, {"type": "Feature", "properties": {"kind": "site", "name": "Easter Island", "dist_deg": 0.0648094, "dist_km": 7.207, "class": "close", "dist_source": "ks_full_grid"}, "geometry": {"type": "Point", "coordinates": [-109.3664, -27.1211]}}, {"type": "Feature", "properties": {"kind": "site", "name": "Reykjavik-Thingvellir", "dist_deg": 0.058453, "dist_km": 6.5, "class": "close", "dist_source": "ks_full_grid"}, "geometry": {"type": "Point", "coordinates": [-21.8953, 64.1353]}}, {"type": "Feature", "properties": {"kind": "site", "name": "Callanish", "dist_deg": 0.0312602, "dist_km": 3.476, "class": "close", "dist_source": "ks_full_grid"}, "geometry": {"type": "Point", "coordinates": [-6.7367, 58.1997]}}, {"type": "Feature", "properties": {"kind": "site", "name": "Nuuk Greenland", "dist_deg": 0.0328558, "dist_km": 3.653, "class": "close", "dist_source": "ks_full_grid"}, "geometry": {"type": "Point", "coordinates": [-51.7214, 64.1836]}}, {"type": "Feature", "properties": {"kind": "site", "name": "Port Stanley", "dist_deg": 0.0280233, "dist_km": 3.116, "class": "close", "dist_source": "ks_full_grid"}, "geometry": {"type": "Point", "coordinates": [-57.8492, -51.7011]}}, {"type": "Feature", "properties": {"kind": "site", "name": "South Georgia Island", "dist_deg": 0.0361382, "dist_km": 4.018, "class": "close", "dist_source": "ks_full_grid"}, "geometry": {"type": "Point", "coordinates": [-36.75, -54.25]}}, {"type": "Feature", "properties": {"kind": "site", "name": "Lake Buenos Aires", "dist_deg": 0.0449918, "dist_km": 5.003, "class": "close", "dist_source": "ks_full_grid"}, "geometry": {"type": "Point", "coordinates": [-71.3675, -46.5033]}}, {"type": "Feature", "properties": {"kind": "site", "name": "Wood Buffalo National Park", "dist_deg": 0.0537266, "dist_km": 5.974, "class": "close", "dist_source": "ks_full_grid"}, "geometry": {"type": "Point", "coordinates": [-112.8542, 58.9239]}}, {"type": "Feature", "properties": {"kind": "site", "name": "Adelaide Peninsula", "dist_deg": 0.1187987, "dist_km": 13.21, "class": "medium", "dist_source": "ks_full_grid"}, "geometry": {"type": "Point", "coordinates": [-97.8, 68.0833]}}, {"type": "Feature", "properties": {"kind": "site", "name": "Bay of God’s Mercy", "dist_deg": 0.0703717, "dist_km": 7.825, "class": "close", "dist_source": "ks_full_grid"}, "geometry": {"type": "Point", "coordinates": [-84.1333, 64.6]}}, {"type": "Feature", "properties": {"kind": "site", "name": "Ascension Island", "dist_deg": 0.0464578, "dist_km": 5.166, "class": "close", "dist_source": "ks_full_grid"}, "geometry": {"type": "Point", "coordinates": [-14.3558, -7.9467]}}, {"type": "Feature", "properties": {"kind": "site", "name": "St. Helena Island", "dist_deg": 0.0448452, "dist_km": 4.987, "class": "close", "dist_source": "ks_full_grid"}, "geometry": {"type": "Point", "coordinates": [-5.7167, -15.9333]}}, {"type": "Feature", "properties": {"kind": "site", "name": "Mount Loma", "dist_deg": 0.0847544, "dist_km": 9.424, "class": "close", "dist_source": "ks_full_grid"}, "geometry": {"type": "Point", "coordinates": [-11.117, 9.217]}}, {"type": "Feature", "properties": {"kind": "site", "name": "Lena-Muna juncture", "dist_deg": 0.0345592, "dist_km": 3.843, "class": "close", "dist_source": "ks_full_grid"}, "geometry": {"type": "Point", "coordinates": [123.2833, 68.0167]}}, {"type": "Feature", "properties": {"kind": "site", "name": "Lake Ozero Taymyr", "dist_deg": 0.0690195, "dist_km": 7.675, "class": "close", "dist_source": "ks_full_grid"}, "geometry": {"type": "Point", "coordinates": [101.7167, 74.5167]}}, {"type": "Feature", "properties": {"kind": "site", "name": "Tunguska", "dist_deg": 0.0020904, "dist_km": 0.232, "class": "close", "dist_source": "ks_full_grid"}, "geometry": {"type": "Point", "coordinates": [102.7861, 52.6528]}}, {"type": "Feature", "properties": {"kind": "site", "name": "Mount Ross Kerguelen", "dist_deg": 0.0097312, "dist_km": 1.082, "class": "close", "dist_source": "ks_full_grid"}, "geometry": {"type": "Point", "coordinates": [69.5, -49.5833]}}, {"type": "Feature", "properties": {"kind": "site", "name": "Big Ben Heard Island", "dist_deg": 0.01426, "dist_km": 1.586, "class": "close", "dist_source": "ks_full_grid"}, "geometry": {"type": "Point", "coordinates": [73.525, -53.1083]}}, {"type": "Feature", "properties": {"kind": "site", "name": "Prydz Bay", "dist_deg": 0.0729565, "dist_km": 8.112, "class": "close", "dist_source": "ks_full_grid"}, "geometry": {"type": "Point", "coordinates": [75.0, -69.0]}}, {"type": "Feature", "properties": {"kind": "site", "name": "Mount Lamlam Guam", "dist_deg": 0.0071231, "dist_km": 0.792, "class": "close", "dist_source": "ks_full_grid"}, "geometry": {"type": "Point", "coordinates": [144.6628, 13.3386]}}, {"type": "Feature", "properties": {"kind": "site", "name": "Yap Island", "dist_deg": 0.0017586, "dist_km": 0.196, "class": "close", "dist_source": "ks_full_grid"}, "geometry": {"type": "Point", "coordinates": [134.3833, -2.55]}}, {"type": "Feature", "properties": {"kind": "site", "name": "Nan Madol", "dist_deg": 0.0335646, "dist_km": 3.732, "class": "close", "dist_source": "ks_full_grid"}, "geometry": {"type": "Point", "coordinates": [158.3358, 6.8444]}}, {"type": "Feature", "properties": {"kind": "site", "name": "Mount Orohena", "dist_deg": 0.0211635, "dist_km": 2.353, "class": "close", "dist_source": "ks_full_grid"}, "geometry": {"type": "Point", "coordinates": [-149.4842, -17.6197]}}, {"type": "Feature", "properties": {"kind": "site", "name": "Hivaoa Island", "dist_deg": 0.0151893, "dist_km": 1.689, "class": "close", "dist_source": "ks_full_grid"}, "geometry": {"type": "Point", "coordinates": [-139.0211, -9.7547]}}, {"type": "Feature", "properties": {"kind": "site", "name": "Kiritimati (Christmas Island)", "dist_deg": 0.0941977, "dist_km": 10.474, "class": "close", "dist_source": "ks_full_grid"}, "geometry": {"type": "Point", "coordinates": [-157.4278, 1.8722]}}, {"type": "Feature", "properties": {"kind": "site", "name": "Graciosa Azores", "dist_deg": 0.0318133, "dist_km": 3.538, "class": "close", "dist_source": "ks_full_grid"}, "geometry": {"type": "Point", "coordinates": [-28.0069, 39.0525]}}, {"type": "Feature", "properties": {"kind": "site", "name": "St. George’s Island Bermuda", "dist_deg": 0.0582749, "dist_km": 6.48, "class": "close", "dist_source": "ks_full_grid"}, "geometry": {"type": "Point", "coordinates": [-64.7786, 32.2811]}}, {"type": "Feature", "properties": {"kind": "site", "name": "Lisbon Portugal", "dist_deg": 0.0094822, "dist_km": 1.054, "class": "close", "dist_source": "ks_full_grid"}, "geometry": {"type": "Point", "coordinates": [-9.1356, 38.7069]}}, {"type": "Feature", "properties": {"kind": "site", "name": "Longyearbyen Spitsbergen", "dist_deg": 0.0285901, "dist_km": 3.179, "class": "close", "dist_source": "ks_full_grid"}, "geometry": {"type": "Point", "coordinates": [18.1642, 78.6481]}}, {"type": "Feature", "properties": {"kind": "site", "name": "Independence Fjord", "dist_deg": 0.0003342, "dist_km": 0.037, "class": "close", "dist_source": "ks_full_grid"}, "geometry": {"type": "Point", "coordinates": [-28.2725, 81.9247]}}, {"type": "Feature", "properties": {"kind": "site", "name": "Yuzhny Novaya Zemlya", "dist_deg": 0.0188183, "dist_km": 2.092, "class": "close", "dist_source": "ks_full_grid"}, "geometry": {"type": "Point", "coordinates": [80.3667, 73.4833]}}, {"type": "Feature", "properties": {"kind": "site", "name": "Mount Hope Antarctica", "dist_deg": 0.0638705, "dist_km": 7.102, "class": "close", "dist_source": "ks_full_grid"}, "geometry": {"type": "Point", "coordinates": [171.0, -83.75]}}, {"type": "Feature", "properties": {"kind": "site", "name": "Bear Island Antarctica", "dist_deg": 0.0464391, "dist_km": 5.164, "class": "close", "dist_source": "ks_full_grid"}, "geometry": {"type": "Point", "coordinates": [-67.06, -68.18]}}, {"type": "Feature", "properties": {"kind": "site", "name": "Elephant Island", "dist_deg": 0.0989373, "dist_km": 11.001, "class": "medium", "dist_source": "ks_full_grid"}, "geometry": {"type": "Point", "coordinates": [-55.1167, -61.1333]}}, {"type": "Feature", "properties": {"kind": "site", "name": "South Pole", "dist_deg": 0.0290851, "dist_km": 3.234, "class": "close", "dist_source": "ks_full_grid"}, "geometry": {"type": "Point", "coordinates": [0.0, -90.0]}}, {"type": "Feature", "properties": {"kind": "site", "name": "South Magnetic Pole", "dist_deg": 0.0147737, "dist_km": 1.643, "class": "close", "dist_source": "ks_full_grid"}, "geometry": {"type": "Point", "coordinates": [138.0, -67.0]}}, {"type": "Feature", "properties": {"kind": "site", "name": "Sanae Antarctica", "dist_deg": 0.0024121, "dist_km": 0.268, "class": "close", "dist_source": "ks_full_grid"}, "geometry": {"type": "Point", "coordinates": [127.5233, -71.6728]}}, {"type": "Feature", "properties": {"kind": "site", "name": "Halifax Nova Scotia", "dist_deg": 0.0874812, "dist_km": 9.727, "class": "close", "dist_source": "ks_full_grid"}, "geometry": {"type": "Point", "coordinates": [-63.5753, 44.6489]}}, {"type": "Feature", "properties": {"kind": "site", "name": "Washington DC", "dist_deg": 0.0154635, "dist_km": 1.72, "class": "close", "dist_source": "ks_full_grid"}, "geometry": {"type": "Point", "coordinates": [-77.0364, 38.895]}}]}