{"type": "FeatureCollection", "name": "E8_proj_seed1409 grid", "properties": {"shape": "E8_proj_seed1409", "lock_lat": 35.0, "lock_lon": 25.0, "bearing": 260.0}, "features": [{"type": "Feature", "properties": {"kind": "grid_vertices", "shape": "E8_proj_seed1409", "count": 240, "ids": ["V1", "V2", "V3", "V4", "V5", "V6", "V7", "V8", "V9", "V10", "V11", "V12", "V13", "V14", "V15", "V16", "V17", "V18", "V19", "V20", "V21", "V22", "V23", "V24", "V25", "V26", "V27", "V28", "V29", "V30", "V31", "V32", "V33", "V34", "V35", "V36", "V37", "V38", "V39", "V40", "V41", "V42", "V43", "V44", "V45", "V46", "V47", "V48", "V49", "V50", "V51", "V52", "V53", "V54", "V55", "V56", "V57", "V58", "V59", "V60", "V61", "V62", "V63", "V64", "V65", "V66", "V67", "V68", "V69", "V70", "V71", "V72", "V73", "V74", "V75", "V76", "V77", "V78", "V79", "V80", "V81", "V82", "V83", "V84", "V85", "V86", "V87", "V88", "V89", "V90", "V91", "V92", "V93", "V94", "V95", "V96", "V97", "V98", "V99", "V100", "V101", "V102", "V103", "V104", "V105", "V106", "V107", "V108", "V109", "V110", "V111", "V112", "V113", "V114", "V115", "V116", "V117", "V118", "V119", "V120", "V121", "V122", "V123", "V124", "V125", "V126", "V127", "V128", "V129", "V130", "V131", "V132", "V133", "V134", "V135", "V136", "V137", "V138", "V139", "V140", "V141", "V142", "V143", "V144", "V145", "V146", "V147", "V148", "V149", "V150", "V151", "V152", "V153", "V154", "V155", "V156", "V157", "V158", "V159", "V160", "V161", "V162", "V163", "V164", "V165", "V166", "V167", "V168", "V169", "V170", "V171", "V172", "V173", "V174", "V175", "V176", "V177", "V178", "V179", "V180", "V181", "V182", "V183", "V184", "V185", "V186", "V187", "V188", "V189", "V190", "V191", "V192", "V193", "V194", "V195", "V196", "V197", "V198", "V199", "V200", "V201", "V202", "V203", "V204", "V205", "V206", "V207", "V208", "V209", "V210", "V211", "V212", "V213", "V214", "V215", "V216", "V217", "V218", "V219", "V220", "V221", "V222", "V223", "V224", "V225", "V226", "V227", "V228", "V229", "V230", "V231", "V232", "V233", "V234", "V235", "V236", "V237", "V238", "V239", "V240"]}, "geometry": {"type": "MultiPoint", "coordinates": [[176.7214984525593, 23.746215364151027], [-116.69739684001541, -55.03977972728932], [63.302603159984606, 55.03977972728932], [-3.278501547440704, -23.746215364151027], [-176.08324911578532, -35.699134766871715], [-145.06832533788756, -9.975546444386241], [34.931674662112464, 9.975546444386241], [3.9167508842146828, 35.699134766871715], [-136.9896463663628, 4.486339448408325], [167.31002885481533, -47.83583416770353], [-12.689971145184677, 47.83583416770353], [43.01035363363719, -4.486339448408325], [-131.83330310890256, 10.747943845788363], [155.79892593983863, -50.84056034931427], [-24.201074060161396, 50.84056034931427], [48.16669689109747, -10.747943845788363], [-163.6930382957565, 11.465194586353487], [-150.17063291555942, -42.79919304064741], [29.829367084440594, 42.79919304064741], [16.306961704243484, -11.465194586353487], [-68.84726593250562, -9.964243979802092], [-166.53443167366882, -19.74388954542157], [13.465568326331173, 19.74388954542157], [111.15273406749438, 9.964243979802092], [156.5700377583672, -9.994797597333491], [-109.49816809091864, -19.79173220934435], [70.50183190908137, 19.79173220934435], [-23.429962241632822, 9.994797597333491], [112.11780632175164, 43.543110331601234], [167.93763222966396, 61.515802286930594], [-12.062367770336024, -61.515802286930594], [-67.88219367824836, -43.543110331601234], [-170.72764364903054, 67.98794799557778], [108.51652804233144, 24.37342113506993], [-71.48347195766856, -24.37342113506993], [9.272356350969478, -67.98794799557778], [-154.73326488382628, 68.80932058557528], [106.3348203920934, 13.99881006481045], [-73.6651796079066, -13.99881006481045], [25.266735116173727, -68.80932058557528], [128.29715683150474, 64.15904620765222], [143.86756165486332, 35.45505335082103], [-36.132438345136705, -35.45505335082103], [-51.702843168495264, -64.15904620765222], [44.17925865474343, 59.502278818382116], [165.09666606700452, 23.2444700979079], [-14.903333932995485, -23.2444700979079], [-135.82074134525658, -59.502278818382116], [121.89474794671487, 33.599239892190354], [-95.47530790041135, 59.91305924725356], [84.52469209958866, -59.91305924725356], [-58.105252053285135, -33.599239892190354], [-85.36549403086714, 55.65069098102316], [73.68126459516643, -34.915329428859785], [-106.31873540483359, 34.915329428859785], [94.63450596913286, -55.65069098102316], [-86.12253898860563, 51.567153202369646], [76.71818221924823, -36.94436974284865], [-103.28181778075177, 36.94436974284865], [93.87746101139437, -51.567153202369646], [73.11470532083653, 40.47935752263294], [56.166038035008015, -70.93564556364232], [-123.83396196499199, 70.93564556364232], [-106.88529467916348, -40.47935752263294], [19.332603587249867, 7.540145422843518], [163.1740038262403, -27.828338276449816], [-16.825996173759716, 27.828338276449816], [-160.66739641275015, -7.540145422843518], [102.15883852789752, -1.3094945492661163], [-47.98688221026263, -19.19613260974624], [132.01311778973738, 19.19613260974624], [-77.8411614721025, 1.3094945492661163], [-100.2603509125796, 41.31859961082231], [92.91229886262256, -45.02958023187609], [-87.08770113737745, 45.02958023187609], [79.7396490874204, -41.31859961082231], [-105.71577229113596, 66.94063651905049], [-100.047782967773, -6.549008258929265], [79.95221703222701, 6.549008258929265], [74.28422770886404, -66.94063651905049], [-28.734457130988414, 38.59412482766941], [-150.9935162864757, 7.3816879929139505], [29.006483713524275, -7.3816879929139505], [151.2655428690116, -38.59412482766941], [143.8468356982559, 42.87678208305451], [-78.93926247331419, 13.153134066988297], [101.06073752668583, -13.153134066988297], [-36.15316430174411, -42.87678208305451], [-100.49807314220185, 63.3267579837982], [-97.42859736952263, 6.395219657137921], [82.57140263047738, -6.395219657137921], [79.50192685779817, -63.3267579837982], [-36.46077042772854, 41.43907805921534], [-144.40744169750064, 13.996603237999773], [35.59255830249937, -13.996603237999773], [143.53922957227147, -41.43907805921534], [157.71935589886513, 54.29198948794303], [-79.77633092700927, 17.37983665544538], [100.22366907299073, -17.37983665544538], [-22.28064410113488, -54.29198948794303], [10.906441785297737, 40.83136836017487], [176.91122879747283, 13.720418345136428], [-3.088771202527178, -13.720418345136428], [-169.09355821470226, -40.83136836017487], [111.18501539366956, 31.179477396861465], [-63.28013556149672, 25.381683615559727], [116.7198644385033, -25.381683615559727], [-68.81498460633046, -31.179477396861465], [59.7725257688859, 20.876113974272517], [-31.673223091667246, 6.511816602857028], [148.32677690833276, -6.511816602857028], [-120.2274742311141, -20.876113974272517], [162.7522886119295, 71.11835680338409], [-138.96826742122263, 32.25583196592446], [-90.56989258633226, 32.75715178355166], [-177.5124421774308, 16.109688617208054], [-39.42488445118074, 75.39712645199565], [148.99076447713472, 11.635699280429007], [112.89502257556155, 5.036496731065126], [-162.91580703770146, -21.78313036496018], [-66.82390188684928, 67.56165045481441], [154.76795864111574, 18.79064488655529], [118.28321784968584, 21.084943500290855], [-153.14151436227954, -11.38814283009005], [97.69003083821933, 5.97954217876982], [152.86164825358395, -18.739276842413744], [57.23960706151752, -52.84325264636425], [134.37365126459918, -23.24492475938875], [-97.39152459392632, 48.96549282667097], [-170.23472574707887, 35.54787630045238], [-150.02997890275716, 53.934389249600265], [-130.7403197673014, 14.067049817164392], [130.39345413688605, 48.79469102217349], [-155.0313007222485, 16.76666912450356], [-93.85063945282087, 10.519936985439644], [166.99764531648415, -3.4452272518331672], [141.25709812790686, 59.71570504969551], [-147.41111732177475, 23.0574956564246], [-92.19537564169538, 21.103195086130444], [173.65413680011508, 3.369339239981811], [58.892791651079946, 47.86049904318933], [142.76861225743957, -0.369495235522207], [108.93712064274504, -14.189524503233299], [-176.61127387719623, -37.377555283677765], [-70.51243075562098, 8.328427845105514], [-157.6670165723509, 0.40548101219016974], [-85.2953228414016, -27.73122074512468], [-110.69251887902075, -23.64118079270258], [69.70513124161812, -38.036308843115904], [-125.83124688090174, -45.988269764269425], [-49.86014527803702, -49.67924553150882], [166.34398973145744, -54.14390560655043], [55.1877038341777, -30.02453579335407], [-118.82388681732013, -34.013884562784554], [-55.84208924599555, -39.95702818232225], [177.7817213009646, -50.905123749332716], [0.9247883998662164, -54.2699886485504], [129.69764066850237, -44.69571982838343], [72.04489450850859, -57.73738177729873], [-150.4173707521932, -78.59901920359641], [-98.790994905236, 36.00595661871041], [-112.49023929527002, 1.1778642932811887], [-79.7607407186824, -6.771724111330556], [-142.36306114275683, -15.931637794648113], [-64.17258187511902, -17.421398135488346], [179.98429449296168, -26.46039368011087], [-79.27788300074293, -85.76056153056895], [-118.53100858078226, -44.350178167248814], [-67.61969874449638, -6.504112929852516], [-169.94504711735343, -17.704638196344604], [-85.22708700924585, -67.87639841581579], [-114.69902688291062, -36.51218354641425], [78.20189193210126, -46.06725236854442], [-139.73763540959285, -61.454196454980455], [-39.21549485761999, -62.591284904002315], [153.7605092608359, -57.77678765227458], [-26.239490739164104, 57.77678765227458], [140.78450514238003, 62.591284904002315], [40.26236459040716, 61.454196454980455], [-101.79810806789875, 46.06725236854442], [65.3009731170894, 36.51218354641425], [94.77291299075415, 67.87639841581579], [10.054952882646564, 17.704638196344604], [112.38030125550364, 6.504112929852516], [61.468991419217744, 44.350178167248814], [100.72211699925707, 85.76056153056895], [-0.015705507038333365, 26.46039368011087], [115.82741812488098, 17.421398135488346], [37.63693885724318, 15.931637794648113], [100.2392592813176, 6.771724111330556], [67.50976070473, -1.1778642932811887], [81.20900509476401, -36.00595661871041], [29.58262924780683, 78.59901920359641], [-107.95510549149141, 57.73738177729873], [-50.302359331497634, 44.69571982838343], [-179.0752116001338, 54.2699886485504], [-2.2182786990354093, 50.905123749332716], [124.15791075400445, 39.95702818232225], [61.17611318267989, 34.013884562784554], [-124.8122961658223, 30.02453579335407], [-13.656010268542579, 54.14390560655043], [130.139854721963, 49.67924553150882], [54.168753119098255, 45.988269764269425], [-110.2948687583819, 38.036308843115904], [69.30748112097926, 23.64118079270258], [94.70467715859841, 27.73122074512468], [22.332983427649122, -0.40548101219016974], [109.48756924437902, -8.328427845105514], [3.388726122803798, 37.377555283677765], [-71.06287935725497, 14.189524503233299], [-37.231387742560436, 0.369495235522207], [-121.10720834892005, -47.86049904318933], [-6.34586319988493, -3.369339239981811], [87.80462435830462, -21.103195086130444], [32.58888267822523, -23.0574956564246], [-38.74290187209316, -59.71570504969551], [-13.002354683515858, 3.4452272518331672], [86.14936054717913, -10.519936985439644], [24.968699277751504, -16.76666912450356], [-49.60654586311394, -48.79469102217349], [49.2596802326986, -14.067049817164392], [29.970021097242856, -53.934389249600265], [9.765274252921152, -35.54787630045238], [82.60847540607368, -48.96549282667097], [-45.62634873540084, 23.24492475938875], [-122.7603929384825, 52.84325264636425], [-27.13835174641604, 18.739276842413744], [-82.30996916178067, -5.97954217876982], [26.858485637720484, 11.38814283009005], [-61.71678215031416, -21.084943500290855], [-25.23204135888428, -18.79064488655529], [113.17609811315072, -67.56165045481441], [17.08419296229856, 21.78313036496018], [-67.10497742443845, -5.036496731065126], [-31.009235522865286, -11.635699280429007], [140.57511554881927, -75.39712645199565], [2.4875578225692, -16.109688617208054], [89.43010741366774, -32.75715178355166], [41.03173257877737, -32.25583196592446], [-17.247711388070528, -71.11835680338409]]}}, {"type": "Feature", "properties": {"kind": "grid_edges", "shape": "E8_proj_seed1409", "count": 396, "ids": ["E1", "E2", "E3", "E4", "E5", "E6", "E7", "E8", "E9", "E10", "E11", "E12", "E13", "E14", "E15", "E16", "E17", "E18", "E19", "E20", "E21", "E22", "E23", "E24", "E25", "E26", "E27", "E28", "E29", "E30", "E31", "E32", "E33", "E34", "E35", "E36", "E37", "E38", "E39", "E40", "E41", "E42", "E43", "E44", "E45", "E46", "E47", "E48", "E49", "E50", "E51", "E52", "E53", "E54", "E55", "E56", "E57", "E58", "E59", "E60", "E61", "E62", "E63", "E64", "E65", "E66", "E67", "E68", "E69", "E70", "E71", "E72", "E73", "E74", "E75", "E76", "E77", "E78", "E79", "E80", "E81", "E82", "E83", "E84", "E85", "E86", "E87", "E88", "E89", "E90", "E91", "E92", "E93", "E94", "E95", "E96", "E97", "E98", "E99", "E100", "E101", "E102", "E103", "E104", "E105", "E106", "E107", "E108", "E109", "E110", "E111", "E112", "E113", "E114", "E115", "E116", "E117", "E118", "E119", "E120", "E121", "E122", "E123", "E124", "E125", "E126", "E127", "E128", "E129", "E130", "E131", "E132", "E133", "E134", "E135", "E136", "E137", "E138", "E139", "E140", "E141", "E142", "E143", "E144", "E145", "E146", "E147", "E148", "E149", "E150", "E151", "E152", "E153", "E154", "E155", "E156", "E157", "E158", "E159", "E160", "E161", "E162", "E163", "E164", "E165", "E166", "E167", "E168", "E169", "E170", "E171", "E172", "E173", "E174", "E175", "E176", "E177", "E178", "E179", "E180", "E181", "E182", "E183", "E184", "E185", "E186", "E187", "E188", "E189", "E190", "E191", "E192", "E193", "E194", "E195", "E196", "E197", "E198", "E199", "E200", "E201", "E202", "E203", "E204", "E205", "E206", "E207", "E208", "E209", "E210", "E211", "E212", "E213", "E214", "E215", "E216", "E217", "E218", "E219", "E220", "E221", "E222", "E223", "E224", "E225", "E226", "E227", "E228", "E229", "E230", "E231", "E232", "E233", "E234", "E235", "E236", "E237", "E238", "E239", "E240", "E241", "E242", "E243", "E244", "E245", "E246", "E247", "E248", "E249", "E250", "E251", "E252", "E253", "E254", "E255", "E256", "E257", "E258", "E259", "E260", "E261", "E262", "E263", "E264", "E265", "E266", "E267", "E268", "E269", "E270", "E271", "E272", "E273", "E274", "E275", "E276", "E277", "E278", "E279", "E280", "E281", "E282", "E283", "E284", "E285", "E286", "E287", "E288", "E289", "E290", "E291", "E292", "E293", "E294", "E295", "E296", "E297", "E298", "E299", "E300", "E301", "E302", "E303", "E304", "E305", "E306", "E307", "E308", "E309", "E310", "E311", "E312", "E313", "E314", "E315", "E316", "E317", "E318", "E319", "E320", "E321", "E322", "E323", "E324", "E325", "E326", "E327", "E328", "E329", "E330", "E331", "E332", "E333", "E334", "E335", "E336", "E337", "E338", "E339", "E340", "E341", "E342", "E343", "E344", "E345", "E346", "E347", "E348", "E349", "E350", "E351", "E352", "E353", "E354", "E355", "E356", "E357", "E358", "E359", "E360", "E361", "E362", "E363", "E364", "E365", "E366", "E367", "E368", "E369", "E370", "E371", "E372", "E373", "E374", "E375", "E376", "E377", "E378", "E379", "E380", "E381", "E382", "E383", "E384", "E385", "E386", "E387", "E388", "E389", "E390", "E391", "E392", "E393", "E394", "E395", "E396"], "pairs": [[0, 126], [1, 24], [1, 148], [1, 158], [2, 6], [2, 15], [2, 188], [2, 196], [3, 23], [3, 217], [4, 69], [4, 157], [5, 59], [5, 66], [6, 28], [6, 52], [6, 177], [7, 67], [7, 196], [8, 84], [8, 116], [9, 33], [9, 141], [9, 175], [10, 73], [10, 76], [10, 80], [10, 84], [10, 196], [10, 198], [10, 211], [10, 214], [11, 75], [13, 21], [13, 140], [14, 18], [14, 23], [14, 26], [14, 96], [14, 97], [14, 178], [14, 217], [15, 196], [15, 223], [18, 23], [18, 196], [18, 221], [18, 236], [19, 22], [19, 199], [19, 227], [20, 24], [20, 82], [22, 192], [22, 196], [23, 103], [23, 209], [24, 86], [24, 118], [24, 160], [26, 192], [26, 201], [27, 186], [27, 196], [28, 52], [28, 65], [29, 44], [29, 59], [29, 196], [29, 207], [30, 52], [30, 144], [31, 50], [31, 62], [31, 67], [31, 70], [32, 41], [32, 133], [32, 196], [33, 53], [33, 75], [33, 141], [34, 43], [34, 160], [35, 168], [36, 58], [37, 116], [37, 119], [37, 134], [37, 196], [38, 43], [38, 226], [40, 78], [40, 196], [40, 200], [40, 204], [41, 48], [41, 63], [41, 130], [44, 82], [44, 102], [44, 109], [44, 182], [44, 196], [45, 103], [45, 131], [45, 207], [46, 64], [46, 102], [47, 231], [48, 130], [49, 138], [49, 140], [49, 188], [49, 196], [50, 152], [51, 71], [51, 159], [51, 173], [51, 234], [52, 57], [52, 183], [52, 209], [52, 214], [53, 56], [53, 65], [53, 120], [53, 218], [54, 192], [54, 196], [55, 138], [55, 139], [55, 170], [55, 173], [55, 203], [56, 65], [56, 68], [56, 96], [56, 115], [57, 158], [58, 92], [59, 196], [59, 197], [60, 78], [60, 90], [60, 117], [62, 70], [62, 196], [63, 67], [63, 102], [64, 92], [64, 114], [64, 144], [64, 182], [64, 186], [65, 68], [65, 81], [65, 101], [66, 70], [66, 132], [66, 136], [66, 192], [66, 196], [66, 206], [66, 238], [68, 180], [69, 116], [69, 185], [69, 186], [70, 160], [70, 166], [70, 226], [71, 128], [71, 140], [71, 196], [72, 92], [72, 192], [72, 194], [73, 76], [73, 85], [73, 196], [74, 79], [74, 82], [74, 83], [74, 96], [74, 152], [74, 154], [74, 169], [74, 203], [75, 127], [75, 141], [75, 189], [76, 176], [76, 196], [77, 183], [78, 88], [78, 120], [78, 121], [78, 137], [78, 200], [79, 159], [79, 171], [79, 203], [80, 118], [80, 180], [80, 196], [81, 181], [81, 195], [82, 136], [83, 187], [83, 189], [84, 98], [84, 177], [85, 116], [85, 128], [85, 193], [85, 196], [86, 201], [87, 120], [87, 138], [87, 205], [88, 100], [88, 113], [88, 121], [88, 152], [88, 168], [88, 217], [89, 102], [89, 211], [90, 100], [90, 180], [90, 196], [91, 167], [92, 170], [92, 186], [94, 99], [94, 116], [94, 140], [94, 196], [95, 110], [95, 149], [95, 167], [96, 108], [96, 218], [97, 105], [97, 176], [97, 193], [98, 135], [98, 166], [99, 196], [100, 196], [100, 204], [100, 236], [102, 106], [102, 154], [102, 202], [102, 206], [103, 179], [103, 207], [103, 231], [104, 160], [104, 172], [104, 192], [105, 113], [105, 173], [105, 193], [105, 196], [105, 205], [105, 229], [106, 130], [106, 238], [108, 158], [108, 160], [108, 220], [109, 168], [109, 182], [109, 196], [110, 223], [110, 225], [110, 235], [114, 115], [114, 122], [114, 144], [114, 162], [114, 194], [115, 118], [115, 183], [116, 196], [117, 181], [118, 151], [119, 126], [119, 183], [120, 188], [121, 184], [123, 185], [125, 140], [128, 168], [128, 192], [128, 196], [130, 160], [132, 196], [133, 164], [133, 196], [134, 196], [136, 172], [137, 139], [138, 170], [138, 202], [138, 206], [139, 143], [140, 156], [140, 173], [140, 196], [140, 236], [141, 207], [142, 143], [145, 146], [146, 208], [146, 218], [148, 228], [153, 157], [154, 168], [159, 221], [160, 172], [160, 232], [161, 164], [161, 225], [162, 210], [164, 196], [165, 225], [166, 198], [168, 236], [173, 229], [174, 234], [176, 180], [176, 196], [177, 217], [178, 218], [180, 196], [180, 197], [180, 213], [180, 220], [181, 188], [181, 193], [181, 196], [182, 196], [182, 214], [182, 230], [184, 218], [184, 220], [186, 191], [188, 196], [192, 196], [193, 195], [193, 196], [194, 196], [194, 199], [194, 203], [196, 197], [196, 198], [196, 199], [196, 200], [196, 204], [196, 205], [196, 206], [196, 212], [196, 224], [196, 228], [196, 229], [196, 230], [196, 236], [197, 228], [197, 229], [197, 237], [198, 207], [198, 226], [198, 230], [199, 206], [199, 207], [202, 218], [202, 235], [203, 206], [203, 207], [204, 207], [205, 233], [208, 210], [208, 218], [210, 227], [225, 232], [227, 229], [227, 231], [232, 236], [233, 236], [233, 237], [236, 237], [236, 238]], "support_counts": [1, 1, 1, 1, 1, 1, 1, 1, 1, 1, 1, 1, 1, 1, 1, 1, 1, 1, 1, 1, 1, 1, 1, 1, 1, 1, 1, 1, 1, 1, 1, 1, 1, 1, 1, 2, 1, 1, 1, 1, 1, 2, 1, 1, 1, 1, 1, 1, 1, 1, 1, 1, 1, 1, 1, 1, 1, 1, 1, 1, 1, 1, 1, 1, 1, 1, 1, 1, 1, 1, 1, 1, 1, 1, 1, 1, 1, 1, 1, 1, 1, 1, 1, 1, 1, 1, 1, 1, 1, 1, 1, 1, 1, 1, 1, 1, 1, 1, 1, 1, 1, 1, 1, 1, 1, 1, 1, 1, 1, 1, 1, 1, 1, 1, 1, 2, 1, 1, 1, 1, 1, 1, 1, 1, 1, 1, 1, 1, 1, 2, 1, 1, 1, 1, 1, 1, 1, 1, 1, 1, 1, 1, 1, 2, 1, 1, 1, 1, 1, 1, 1, 1, 1, 1, 1, 1, 1, 1, 2, 2, 1, 2, 2, 1, 1, 1, 1, 1, 1, 1, 1, 1, 1, 1, 1, 1, 1, 1, 1, 1, 1, 1, 1, 1, 1, 1, 1, 1, 1, 1, 1, 1, 1, 2, 1, 1, 1, 2, 1, 1, 1, 1, 1, 1, 1, 2, 1, 1, 1, 1, 1, 1, 1, 1, 1, 1, 1, 1, 1, 1, 1, 1, 1, 1, 1, 1, 1, 2, 1, 1, 1, 1, 1, 1, 1, 2, 1, 1, 1, 1, 1, 1, 1, 1, 1, 1, 1, 1, 1, 1, 1, 1, 1, 1, 1, 1, 1, 1, 1, 1, 1, 1, 1, 1, 1, 1, 1, 1, 1, 1, 1, 1, 1, 1, 1, 1, 1, 1, 1, 1, 1, 1, 1, 1, 1, 1, 1, 2, 1, 1, 1, 1, 1, 1, 1, 1, 1, 1, 1, 1, 1, 1, 1, 2, 1, 1, 1, 1, 1, 1, 1, 1, 1, 1, 1, 1, 1, 1, 1, 1, 1, 1, 1, 1, 1, 1, 1, 1, 1, 1, 1, 1, 1, 1, 1, 2, 1, 2, 1, 1, 1, 1, 2, 1, 1, 1, 1, 1, 1, 1, 1, 1, 1, 1, 1, 2, 1, 1, 1, 1, 1, 2, 2, 1, 1, 1, 2, 1, 1, 1, 1, 1, 1, 1, 1, 1, 1, 1, 1, 1, 1, 2, 1, 1, 1, 1, 1, 1, 1, 1, 1, 1, 1, 1, 1, 1], "support_class": ["single", "single", "single", "single", "single", "single", "single", "single", "single", "single", "single", "single", "single", "single", "single", "single", "single", "single", "single", "single", "single", "single", "single", "single", "single", "single", "single", "single", "single", "single", "single", "single", "single", "single", "single", "shared", "single", "single", "single", "single", "single", "shared", "single", "single", "single", "single", "single", "single", "single", "single", "single", "single", "single", "single", "single", "single", "single", "single", "single", "single", "single", "single", "single", "single", "single", "single", "single", "single", "single", "single", "single", "single", "single", "single", "single", "single", "single", "single", "single", "single", "single", "single", "single", "single", "single", "single", "single", "single", "single", "single", "single", "single", "single", "single", "single", "single", "single", "single", "single", "single", "single", "single", "single", "single", "single", "single", "single", "single", "single", "single", "single", "single", "single", "single", "single", "shared", "single", "single", "single", "single", "single", "single", "single", "single", "single", "single", "single", "single", "single", "shared", "single", "single", "single", "single", "single", "single", "single", "single", "single", "single", "single", "single", "single", "shared", "single", "single", "single", "single", "single", "single", "single", "single", "single", "single", "single", "single", "single", "single", "shared", "shared", "single", "shared", "shared", "single", "single", "single", "single", "single", "single", "single", "single", "single", "single", "single", "single", "single", "single", "single", "single", "single", "single", "single", "single", "single", "single", "single", "single", "single", "single", "single", "single", "single", "single", "shared", "single", "single", "single", "shared", "single", "single", "single", "single", "single", "single", "single", "shared", "single", "single", "single", "single", "single", "single", "single", "single", "single", "single", "single", "single", "single", "single", "single", "single", "single", "single", "single", "single", "single", "shared", "single", "single", "single", "single", "single", "single", "single", "shared", "single", "single", "single", "single", "single", "single", "single", "single", "single", "single", "single", "single", "single", "single", "single", "single", "single", "single", "single", "single", "single", "single", "single", "single", "single", "single", "single", "single", "single", "single", "single", "single", "single", "single", "single", "single", "single", "single", "single", "single", "single", "single", "single", "single", "single", "single", "single", "single", "single", "single", "single", "shared", "single", "single", "single", "single", "single", "single", "single", "single", "single", "single", "single", "single", "single", "single", "single", "shared", "single", "single", "single", "single", "single", "single", "single", "single", "single", "single", "single", "single", "single", "single", "single", "single", "single", "single", "single", "single", "single", "single", "single", "single", "single", "single", "single", "single", "single", "single", "single", "shared", "single", "shared", "single", "single", "single", "single", "shared", "single", "single", "single", "single", "single", "single", "single", "single", "single", "single", "single", "single", "shared", "single", "single", "single", "single", "single", "shared", "shared", "single", "single", "single", "shared", "single", "single", "single", "single", "single", "single", "single", "single", "single", "single", "single", "single", "single", "single", "shared", "single", "single", "single", "single", "single", "single", "single", "single", "single", "single", "single", "single", "single", "single"]}, "geometry": {"type": "MultiLineString", "coordinates": [[[176.7214984525593, 23.746215364151027], [57.23960706151752, -52.84325264636425]], [[-116.69739684001541, -55.03977972728932], [156.5700377583672, -9.994797597333491]], [[-116.69739684001541, -55.03977972728932], [69.70513124161812, -38.036308843115904]], [[-116.69739684001541, -55.03977972728932], [72.04489450850859, -57.73738177729873]], [[63.302603159984606, 55.03977972728932], [34.931674662112464, 9.975546444386241]], [[63.302603159984606, 55.03977972728932], [48.16669689109747, -10.747943845788363]], [[63.302603159984606, 55.03977972728932], [37.63693885724318, 15.931637794648113]], [[63.302603159984606, 55.03977972728932], [-2.2182786990354093, 50.905123749332716]], [[-3.278501547440704, -23.746215364151027], [111.15273406749438, 9.964243979802092]], [[-3.278501547440704, -23.746215364151027], [86.14936054717913, -10.519936985439644]], [[-176.08324911578532, -35.699134766871715], [-47.98688221026263, -19.19613260974624]], [[-176.08324911578532, -35.699134766871715], [129.69764066850237, -44.69571982838343]], [[-145.06832533788756, -9.975546444386241], [93.87746101139437, -51.567153202369646]], [[-145.06832533788756, -9.975546444386241], [-16.825996173759716, 27.828338276449816]], [[34.931674662112464, 9.975546444386241], [112.11780632175164, 43.543110331601234]], [[34.931674662112464, 9.975546444386241], [-85.36549403086714, 55.65069098102316]], [[34.931674662112464, 9.975546444386241], [140.78450514238003, 62.591284904002315]], [[3.9167508842146828, 35.699134766871715], [-160.66739641275015, -7.540145422843518]], [[3.9167508842146828, 35.699134766871715], [-2.2182786990354093, 50.905123749332716]], [[-136.9896463663628, 4.486339448408325], [143.8468356982559, 42.87678208305451]], [[-136.9896463663628, 4.486339448408325], [-39.42488445118074, 75.39712645199565]], [[167.31002885481533, -47.83583416770353], [108.51652804233144, 24.37342113506993]], [[167.31002885481533, -47.83583416770353], [142.76861225743957, -0.369495235522207]], [[167.31002885481533, -47.83583416770353], [153.7605092608359, -57.77678765227458]], [[-12.689971145184677, 47.83583416770353], [92.91229886262256, -45.02958023187609]], [[-12.689971145184677, 47.83583416770353], [-105.71577229113596, 66.94063651905049]], [[-12.689971145184677, 47.83583416770353], [-28.734457130988414, 38.59412482766941]], [[-12.689971145184677, 47.83583416770353], [143.8468356982559, 42.87678208305451]], [[-12.689971145184677, 47.83583416770353], [-2.2182786990354093, 50.905123749332716]], [[-12.689971145184677, 47.83583416770353], [61.17611318267989, 34.013884562784554]], [[-12.689971145184677, 47.83583416770353], [-121.10720834892005, -47.86049904318933]], [[-12.689971145184677, 47.83583416770353], [32.58888267822523, -23.0574956564246]], [[43.01035363363719, -4.486339448408325], [79.7396490874204, -41.31859961082231]], [[155.79892593983863, -50.84056034931427], [-166.53443167366882, -19.74388954542157]], [[155.79892593983863, -50.84056034931427], [58.892791651079946, 47.86049904318933]], [[-24.201074060161396, 50.84056034931427], [29.829367084440594, 42.79919304064741]], [[-24.201074060161396, 50.84056034931427], [111.15273406749438, 9.964243979802092]], [[-24.201074060161396, 50.84056034931427], [70.50183190908137, 19.79173220934435]], [[-24.201074060161396, 50.84056034931427], [157.71935589886513, 54.29198948794303]], [[-24.201074060161396, 50.84056034931427], [-79.77633092700927, 17.37983665544538]], [[-24.201074060161396, 50.84056034931427], [40.26236459040716, 61.454196454980455]], [[-24.201074060161396, 50.84056034931427], [86.14936054717913, -10.519936985439644]], [[48.16669689109747, -10.747943845788363], [-2.2182786990354093, 50.905123749332716]], [[48.16669689109747, -10.747943845788363], [82.60847540607368, -48.96549282667097]], [[29.829367084440594, 42.79919304064741], [111.15273406749438, 9.964243979802092]], [[29.829367084440594, 42.79919304064741], [-2.2182786990354093, 50.905123749332716]], [[29.829367084440594, 42.79919304064741], [29.970021097242856, -53.934389249600265]], [[29.829367084440594, 42.79919304064741], [2.4875578225692, -16.109688617208054]], [[16.306961704243484, -11.465194586353487], [13.465568326331173, 19.74388954542157]], [[16.306961704243484, -11.465194586353487], [-124.8122961658223, 30.02453579335407]], [[16.306961704243484, -11.465194586353487], [-82.30996916178067, -5.97954217876982]], [[-68.84726593250562, -9.964243979802092], [156.5700377583672, -9.994797597333491]], [[-68.84726593250562, -9.964243979802092], [29.006483713524275, -7.3816879929139505]], [[13.465568326331173, 19.74388954542157], [29.58262924780683, 78.59901920359641]], [[13.465568326331173, 19.74388954542157], [-2.2182786990354093, 50.905123749332716]], [[111.15273406749438, 9.964243979802092], [-169.09355821470226, -40.83136836017487]], [[111.15273406749438, 9.964243979802092], [-71.06287935725497, 14.189524503233299]], [[156.5700377583672, -9.994797597333491], [101.06073752668583, -13.153134066988297]], [[156.5700377583672, -9.994797597333491], [112.89502257556155, 5.036496731065126]], [[156.5700377583672, -9.994797597333491], [-98.790994905236, 36.00595661871041]], [[70.50183190908137, 19.79173220934435], [29.58262924780683, 78.59901920359641]], [[70.50183190908137, 19.79173220934435], [130.139854721963, 49.67924553150882]], [[-23.429962241632822, 9.994797597333491], [-0.015705507038333365, 26.46039368011087]], [[-23.429962241632822, 9.994797597333491], [-2.2182786990354093, 50.905123749332716]], [[112.11780632175164, 43.543110331601234], [-85.36549403086714, 55.65069098102316]], [[112.11780632175164, 43.543110331601234], [163.1740038262403, -27.828338276449816]], [[167.93763222966396, 61.515802286930594], [44.17925865474343, 59.502278818382116]], [[167.93763222966396, 61.515802286930594], [93.87746101139437, -51.567153202369646]], [[167.93763222966396, 61.515802286930594], [-2.2182786990354093, 50.905123749332716]], [[167.93763222966396, 61.515802286930594], [109.48756924437902, -8.328427845105514]], [[-12.062367770336024, -61.515802286930594], [-85.36549403086714, 55.65069098102316]], [[-12.062367770336024, -61.515802286930594], [-70.51243075562098, 8.328427845105514]], [[-67.88219367824836, -43.543110331601234], [84.52469209958866, -59.91305924725356]], [[-67.88219367824836, -43.543110331601234], [-123.83396196499199, 70.93564556364232]], [[-67.88219367824836, -43.543110331601234], [-160.66739641275015, -7.540145422843518]], [[-67.88219367824836, -43.543110331601234], [132.01311778973738, 19.19613260974624]], [[-170.72764364903054, 67.98794799557778], [143.86756165486332, 35.45505335082103]], [[-170.72764364903054, 67.98794799557778], [-155.0313007222485, 16.76666912450356]], [[-170.72764364903054, 67.98794799557778], [-2.2182786990354093, 50.905123749332716]], [[108.51652804233144, 24.37342113506993], [73.68126459516643, -34.915329428859785]], [[108.51652804233144, 24.37342113506993], [79.7396490874204, -41.31859961082231]], [[108.51652804233144, 24.37342113506993], [142.76861225743957, -0.369495235522207]], [[-71.48347195766856, -24.37342113506993], [-51.702843168495264, -64.15904620765222]], [[-71.48347195766856, -24.37342113506993], [-98.790994905236, 36.00595661871041]], [[9.272356350969478, -67.98794799557778], [-67.61969874449638, -6.504112929852516]], [[-154.73326488382628, 68.80932058557528], [-103.28181778075177, 36.94436974284865]], [[106.3348203920934, 13.99881006481045], [-39.42488445118074, 75.39712645199565]], [[106.3348203920934, 13.99881006481045], [-162.91580703770146, -21.78313036496018]], [[106.3348203920934, 13.99881006481045], [-93.85063945282087, 10.519936985439644]], [[106.3348203920934, 13.99881006481045], [-2.2182786990354093, 50.905123749332716]], [[-73.6651796079066, -13.99881006481045], [-51.702843168495264, -64.15904620765222]], [[-73.6651796079066, -13.99881006481045], [-27.13835174641604, 18.739276842413744]], [[128.29715683150474, 64.15904620765222], [79.95221703222701, 6.549008258929265]], [[128.29715683150474, 64.15904620765222], [-2.2182786990354093, 50.905123749332716]], [[128.29715683150474, 64.15904620765222], [-13.656010268542579, 54.14390560655043]], [[128.29715683150474, 64.15904620765222], [69.30748112097926, 23.64118079270258]], [[143.86756165486332, 35.45505335082103], [121.89474794671487, 33.599239892190354]], [[143.86756165486332, 35.45505335082103], [-106.88529467916348, -40.47935752263294]], [[143.86756165486332, 35.45505335082103], [-150.02997890275716, 53.934389249600265]], [[44.17925865474343, 59.502278818382116], [29.006483713524275, -7.3816879929139505]], [[44.17925865474343, 59.502278818382116], [-3.088771202527178, -13.720418345136428]], [[44.17925865474343, 59.502278818382116], [-31.673223091667246, 6.511816602857028]], [[44.17925865474343, 59.502278818382116], [10.054952882646564, 17.704638196344604]], [[44.17925865474343, 59.502278818382116], [-2.2182786990354093, 50.905123749332716]], [[165.09666606700452, 23.2444700979079], [-169.09355821470226, -40.83136836017487]], [[165.09666606700452, 23.2444700979079], [-130.7403197673014, 14.067049817164392]], [[165.09666606700452, 23.2444700979079], [109.48756924437902, -8.328427845105514]], [[-14.903333932995485, -23.2444700979079], [19.332603587249867, 7.540145422843518]], [[-14.903333932995485, -23.2444700979079], [-3.088771202527178, -13.720418345136428]], [[-135.82074134525658, -59.502278818382116], [113.17609811315072, -67.56165045481441]], [[121.89474794671487, 33.599239892190354], [-150.02997890275716, 53.934389249600265]], [[-95.47530790041135, 59.91305924725356], [-92.19537564169538, 21.103195086130444]], [[-95.47530790041135, 59.91305924725356], [58.892791651079946, 47.86049904318933]], [[-95.47530790041135, 59.91305924725356], [37.63693885724318, 15.931637794648113]], [[-95.47530790041135, 59.91305924725356], [-2.2182786990354093, 50.905123749332716]], [[84.52469209958866, -59.91305924725356], [55.1877038341777, -30.02453579335407]], [[-58.105252053285135, -33.599239892190354], [-77.8411614721025, 1.3094945492661163]], [[-58.105252053285135, -33.599239892190354], [-150.4173707521932, -78.59901920359641]], [[-58.105252053285135, -33.599239892190354], [-139.73763540959285, -61.454196454980455]], [[-58.105252053285135, -33.599239892190354], [-31.009235522865286, -11.635699280429007]], [[-85.36549403086714, 55.65069098102316], [76.71818221924823, -36.94436974284865]], [[-85.36549403086714, 55.65069098102316], [112.38030125550364, 6.504112929852516]], [[-85.36549403086714, 55.65069098102316], [-71.06287935725497, 14.189524503233299]], [[-85.36549403086714, 55.65069098102316], [32.58888267822523, -23.0574956564246]], [[73.68126459516643, -34.915329428859785], [-86.12253898860563, 51.567153202369646]], [[73.68126459516643, -34.915329428859785], [163.1740038262403, -27.828338276449816]], [[73.68126459516643, -34.915329428859785], [-66.82390188684928, 67.56165045481441]], [[73.68126459516643, -34.915329428859785], [24.968699277751504, -16.76666912450356]], [[-106.31873540483359, 34.915329428859785], [29.58262924780683, 78.59901920359641]], [[-106.31873540483359, 34.915329428859785], [-2.2182786990354093, 50.905123749332716]], [[94.63450596913286, -55.65069098102316], [-92.19537564169538, 21.103195086130444]], [[94.63450596913286, -55.65069098102316], [173.65413680011508, 3.369339239981811]], [[94.63450596913286, -55.65069098102316], [-85.22708700924585, -67.87639841581579]], [[94.63450596913286, -55.65069098102316], [-139.73763540959285, -61.454196454980455]], [[94.63450596913286, -55.65069098102316], [-110.2948687583819, 38.036308843115904]], [[-86.12253898860563, 51.567153202369646], [163.1740038262403, -27.828338276449816]], [[-86.12253898860563, 51.567153202369646], [102.15883852789752, -1.3094945492661163]], [[-86.12253898860563, 51.567153202369646], [157.71935589886513, 54.29198948794303]], [[-86.12253898860563, 51.567153202369646], [-177.5124421774308, 16.109688617208054]], [[76.71818221924823, -36.94436974284865], [72.04489450850859, -57.73738177729873]], [[-103.28181778075177, 36.94436974284865], [-36.46077042772854, 41.43907805921534]], [[93.87746101139437, -51.567153202369646], [-2.2182786990354093, 50.905123749332716]], [[93.87746101139437, -51.567153202369646], [124.15791075400445, 39.95702818232225]], [[73.11470532083653, 40.47935752263294], [79.95221703222701, 6.549008258929265]], [[73.11470532083653, 40.47935752263294], [82.57140263047738, -6.395219657137921]], [[73.11470532083653, 40.47935752263294], [148.99076447713472, 11.635699280429007]], [[-123.83396196499199, 70.93564556364232], [132.01311778973738, 19.19613260974624]], [[-123.83396196499199, 70.93564556364232], [-2.2182786990354093, 50.905123749332716]], [[-106.88529467916348, -40.47935752263294], [-160.66739641275015, -7.540145422843518]], [[-106.88529467916348, -40.47935752263294], [-3.088771202527178, -13.720418345136428]], [[19.332603587249867, 7.540145422843518], [-36.46077042772854, 41.43907805921534]], [[19.332603587249867, 7.540145422843518], [-90.56989258633226, 32.75715178355166]], [[19.332603587249867, 7.540145422843518], [-70.51243075562098, 8.328427845105514]], [[19.332603587249867, 7.540145422843518], [10.054952882646564, 17.704638196344604]], [[19.332603587249867, 7.540145422843518], [-0.015705507038333365, 26.46039368011087]], [[163.1740038262403, -27.828338276449816], [102.15883852789752, -1.3094945492661163]], [[163.1740038262403, -27.828338276449816], [-150.9935162864757, 7.3816879929139505]], [[163.1740038262403, -27.828338276449816], [176.91122879747283, 13.720418345136428]], [[-16.825996173759716, 27.828338276449816], [132.01311778973738, 19.19613260974624]], [[-16.825996173759716, 27.828338276449816], [130.39345413688605, 48.79469102217349]], [[-16.825996173759716, 27.828338276449816], [141.25709812790686, 59.71570504969551]], [[-16.825996173759716, 27.828338276449816], [29.58262924780683, 78.59901920359641]], [[-16.825996173759716, 27.828338276449816], [-2.2182786990354093, 50.905123749332716]], [[-16.825996173759716, 27.828338276449816], [22.332983427649122, -0.40548101219016974]], [[-16.825996173759716, 27.828338276449816], [41.03173257877737, -32.25583196592446]], [[102.15883852789752, -1.3094945492661163], [65.3009731170894, 36.51218354641425]], [[-47.98688221026263, -19.19613260974624], [-39.42488445118074, 75.39712645199565]], [[-47.98688221026263, -19.19613260974624], [100.72211699925707, 85.76056153056895]], [[-47.98688221026263, -19.19613260974624], [-0.015705507038333365, 26.46039368011087]], [[132.01311778973738, 19.19613260974624], [-98.790994905236, 36.00595661871041]], [[132.01311778973738, 19.19613260974624], [-79.27788300074293, -85.76056153056895]], [[132.01311778973738, 19.19613260974624], [-27.13835174641604, 18.739276842413744]], [[-77.8411614721025, 1.3094945492661163], [-97.39152459392632, 48.96549282667097]], [[-77.8411614721025, 1.3094945492661163], [58.892791651079946, 47.86049904318933]], [[-77.8411614721025, 1.3094945492661163], [-2.2182786990354093, 50.905123749332716]], [[-100.2603509125796, 41.31859961082231], [-36.46077042772854, 41.43907805921534]], [[-100.2603509125796, 41.31859961082231], [29.58262924780683, 78.59901920359641]], [[-100.2603509125796, 41.31859961082231], [-50.302359331497634, 44.69571982838343]], [[92.91229886262256, -45.02958023187609], [-105.71577229113596, 66.94063651905049]], [[92.91229886262256, -45.02958023187609], [-78.93926247331419, 13.153134066988297]], [[92.91229886262256, -45.02958023187609], [-2.2182786990354093, 50.905123749332716]], [[-87.08770113737745, 45.02958023187609], [74.28422770886404, -66.94063651905049]], [[-87.08770113737745, 45.02958023187609], [29.006483713524275, -7.3816879929139505]], [[-87.08770113737745, 45.02958023187609], [151.2655428690116, -38.59412482766941]], [[-87.08770113737745, 45.02958023187609], [157.71935589886513, 54.29198948794303]], [[-87.08770113737745, 45.02958023187609], [55.1877038341777, -30.02453579335407]], [[-87.08770113737745, 45.02958023187609], [-55.84208924599555, -39.95702818232225]], [[-87.08770113737745, 45.02958023187609], [-169.94504711735343, -17.704638196344604]], [[-87.08770113737745, 45.02958023187609], [-110.2948687583819, 38.036308843115904]], [[79.7396490874204, -41.31859961082231], [134.37365126459918, -23.24492475938875]], [[79.7396490874204, -41.31859961082231], [142.76861225743957, -0.369495235522207]], [[79.7396490874204, -41.31859961082231], [100.2392592813176, 6.771724111330556]], [[-105.71577229113596, 66.94063651905049], [-26.239490739164104, 57.77678765227458]], [[-105.71577229113596, 66.94063651905049], [-2.2182786990354093, 50.905123749332716]], [[-100.047782967773, -6.549008258929265], [112.38030125550364, 6.504112929852516]], [[79.95221703222701, 6.549008258929265], [-100.49807314220185, 63.3267579837982]], [[79.95221703222701, 6.549008258929265], [-66.82390188684928, 67.56165045481441]], [[79.95221703222701, 6.549008258929265], [154.76795864111574, 18.79064488655529]], [[79.95221703222701, 6.549008258929265], [-147.41111732177475, 23.0574956564246]], [[79.95221703222701, 6.549008258929265], [-13.656010268542579, 54.14390560655043]], [[74.28422770886404, -66.94063651905049], [-150.4173707521932, -78.59901920359641]], [[74.28422770886404, -66.94063651905049], [-114.69902688291062, -36.51218354641425]], [[74.28422770886404, -66.94063651905049], [-110.2948687583819, 38.036308843115904]], [[-28.734457130988414, 38.59412482766941], [112.89502257556155, 5.036496731065126]], [[-28.734457130988414, 38.59412482766941], [65.3009731170894, 36.51218354641425]], [[-28.734457130988414, 38.59412482766941], [-2.2182786990354093, 50.905123749332716]], [[-150.9935162864757, 7.3816879929139505], [94.77291299075415, 67.87639841581579]], [[-150.9935162864757, 7.3816879929139505], [-179.0752116001338, 54.2699886485504]], [[29.006483713524275, -7.3816879929139505], [141.25709812790686, 59.71570504969551]], [[151.2655428690116, -38.59412482766941], [115.82741812488098, 17.421398135488346]], [[151.2655428690116, -38.59412482766941], [100.2392592813176, 6.771724111330556]], [[143.8468356982559, 42.87678208305451], [100.22366907299073, -17.37983665544538]], [[143.8468356982559, 42.87678208305451], [140.78450514238003, 62.591284904002315]], [[-78.93926247331419, 13.153134066988297], [-39.42488445118074, 75.39712645199565]], [[-78.93926247331419, 13.153134066988297], [-97.39152459392632, 48.96549282667097]], [[-78.93926247331419, 13.153134066988297], [-107.95510549149141, 57.73738177729873]], [[-78.93926247331419, 13.153134066988297], [-2.2182786990354093, 50.905123749332716]], [[101.06073752668583, -13.153134066988297], [130.139854721963, 49.67924553150882]], [[-36.15316430174411, -42.87678208305451], [-66.82390188684928, 67.56165045481441]], [[-36.15316430174411, -42.87678208305451], [-92.19537564169538, 21.103195086130444]], [[-36.15316430174411, -42.87678208305451], [94.70467715859841, 27.73122074512468]], [[-100.49807314220185, 63.3267579837982], [10.906441785297737, 40.83136836017487]], [[-100.49807314220185, 63.3267579837982], [-138.96826742122263, 32.25583196592446]], [[-100.49807314220185, 63.3267579837982], [154.76795864111574, 18.79064488655529]], [[-100.49807314220185, 63.3267579837982], [55.1877038341777, -30.02453579335407]], [[-100.49807314220185, 63.3267579837982], [-67.61969874449638, -6.504112929852516]], [[-100.49807314220185, 63.3267579837982], [86.14936054717913, -10.519936985439644]], [[-97.42859736952263, 6.395219657137921], [-3.088771202527178, -13.720418345136428]], [[-97.42859736952263, 6.395219657137921], [-121.10720834892005, -47.86049904318933]], [[82.57140263047738, -6.395219657137921], [10.906441785297737, 40.83136836017487]], [[82.57140263047738, -6.395219657137921], [65.3009731170894, 36.51218354641425]], [[82.57140263047738, -6.395219657137921], [-2.2182786990354093, 50.905123749332716]], [[79.50192685779817, -63.3267579837982], [-118.53100858078226, -44.350178167248814]], [[-36.46077042772854, 41.43907805921534], [-85.22708700924585, -67.87639841581579]], [[-36.46077042772854, 41.43907805921534], [-0.015705507038333365, 26.46039368011087]], [[35.59255830249937, -13.996603237999773], [-22.28064410113488, -54.29198948794303]], [[35.59255830249937, -13.996603237999773], [-39.42488445118074, 75.39712645199565]], [[35.59255830249937, -13.996603237999773], [58.892791651079946, 47.86049904318933]], [[35.59255830249937, -13.996603237999773], [-2.2182786990354093, 50.905123749332716]], [[143.53922957227147, -41.43907805921534], [148.32677690833276, -6.511816602857028]], [[143.53922957227147, -41.43907805921534], [-125.83124688090174, -45.988269764269425]], [[143.53922957227147, -41.43907805921534], [-118.53100858078226, -44.350178167248814]], [[157.71935589886513, 54.29198948794303], [59.7725257688859, 20.876113974272517]], [[157.71935589886513, 54.29198948794303], [24.968699277751504, -16.76666912450356]], [[-79.77633092700927, 17.37983665544538], [-63.28013556149672, 25.381683615559727]], [[-79.77633092700927, 17.37983665544538], [-26.239490739164104, 57.77678765227458]], [[-79.77633092700927, 17.37983665544538], [-107.95510549149141, 57.73738177729873]], [[100.22366907299073, -17.37983665544538], [166.99764531648415, -3.4452272518331672]], [[100.22366907299073, -17.37983665544538], [-79.27788300074293, -85.76056153056895]], [[-22.28064410113488, -54.29198948794303], [-2.2182786990354093, 50.905123749332716]], [[10.906441785297737, 40.83136836017487], [-2.2182786990354093, 50.905123749332716]], [[10.906441785297737, 40.83136836017487], [69.30748112097926, 23.64118079270258]], [[10.906441785297737, 40.83136836017487], [2.4875578225692, -16.109688617208054]], [[-3.088771202527178, -13.720418345136428], [116.7198644385033, -25.381683615559727]], [[-3.088771202527178, -13.720418345136428], [-55.84208924599555, -39.95702818232225]], [[-3.088771202527178, -13.720418345136428], [54.168753119098255, 45.988269764269425]], [[-3.088771202527178, -13.720418345136428], [22.332983427649122, -0.40548101219016974]], [[-169.09355821470226, -40.83136836017487], [-101.79810806789875, 46.06725236854442]], [[-169.09355821470226, -40.83136836017487], [109.48756924437902, -8.328427845105514]], [[-169.09355821470226, -40.83136836017487], [113.17609811315072, -67.56165045481441]], [[111.18501539366956, 31.179477396861465], [-98.790994905236, 36.00595661871041]], [[111.18501539366956, 31.179477396861465], [78.20189193210126, -46.06725236854442]], [[111.18501539366956, 31.179477396861465], [29.58262924780683, 78.59901920359641]], [[-63.28013556149672, 25.381683615559727], [-138.96826742122263, 32.25583196592446]], [[-63.28013556149672, 25.381683615559727], [-139.73763540959285, -61.454196454980455]], [[-63.28013556149672, 25.381683615559727], [-107.95510549149141, 57.73738177729873]], [[-63.28013556149672, 25.381683615559727], [-2.2182786990354093, 50.905123749332716]], [[-63.28013556149672, 25.381683615559727], [94.70467715859841, 27.73122074512468]], [[-63.28013556149672, 25.381683615559727], [-61.71678215031416, -21.084943500290855]], [[116.7198644385033, -25.381683615559727], [-150.02997890275716, 53.934389249600265]], [[116.7198644385033, -25.381683615559727], [41.03173257877737, -32.25583196592446]], [[59.7725257688859, 20.876113974272517], [72.04489450850859, -57.73738177729873]], [[59.7725257688859, 20.876113974272517], [-98.790994905236, 36.00595661871041]], [[59.7725257688859, 20.876113974272517], [49.2596802326986, -14.067049817164392]], [[-31.673223091667246, 6.511816602857028], [-67.61969874449638, -6.504112929852516]], [[-31.673223091667246, 6.511816602857028], [10.054952882646564, 17.704638196344604]], [[-31.673223091667246, 6.511816602857028], [-2.2182786990354093, 50.905123749332716]], [[148.32677690833276, -6.511816602857028], [82.60847540607368, -48.96549282667097]], [[148.32677690833276, -6.511816602857028], [-122.7603929384825, 52.84325264636425]], [[148.32677690833276, -6.511816602857028], [140.57511554881927, -75.39712645199565]], [[-90.56989258633226, 32.75715178355166], [-177.5124421774308, 16.109688617208054]], [[-90.56989258633226, 32.75715178355166], [118.28321784968584, 21.084943500290855]], [[-90.56989258633226, 32.75715178355166], [-70.51243075562098, 8.328427845105514]], [[-90.56989258633226, 32.75715178355166], [-79.7607407186824, -6.771724111330556]], [[-90.56989258633226, 32.75715178355166], [-50.302359331497634, 44.69571982838343]], [[-177.5124421774308, 16.109688617208054], [112.89502257556155, 5.036496731065126]], [[-177.5124421774308, 16.109688617208054], [112.38030125550364, 6.504112929852516]], [[-39.42488445118074, 75.39712645199565], [-2.2182786990354093, 50.905123749332716]], [[148.99076447713472, 11.635699280429007], [94.77291299075415, 67.87639841581579]], [[112.89502257556155, 5.036496731065126], [166.34398973145744, -54.14390560655043]], [[-162.91580703770146, -21.78313036496018], [57.23960706151752, -52.84325264636425]], [[-162.91580703770146, -21.78313036496018], [112.38030125550364, 6.504112929852516]], [[-66.82390188684928, 67.56165045481441], [37.63693885724318, 15.931637794648113]], [[154.76795864111574, 18.79064488655529], [61.468991419217744, 44.350178167248814]], [[-153.14151436227954, -11.38814283009005], [100.72211699925707, 85.76056153056895]], [[152.86164825358395, -18.739276842413744], [58.892791651079946, 47.86049904318933]], [[-97.39152459392632, 48.96549282667097], [-67.61969874449638, -6.504112929852516]], [[-97.39152459392632, 48.96549282667097], [29.58262924780683, 78.59901920359641]], [[-97.39152459392632, 48.96549282667097], [-2.2182786990354093, 50.905123749332716]], [[-150.02997890275716, 53.934389249600265], [-98.790994905236, 36.00595661871041]], [[130.39345413688605, 48.79469102217349], [-2.2182786990354093, 50.905123749332716]], [[-155.0313007222485, 16.76666912450356], [-64.17258187511902, -17.421398135488346]], [[-155.0313007222485, 16.76666912450356], [-2.2182786990354093, 50.905123749332716]], [[-93.85063945282087, 10.519936985439644], [-2.2182786990354093, 50.905123749332716]], [[141.25709812790686, 59.71570504969551], [78.20189193210126, -46.06725236854442]], [[-147.41111732177475, 23.0574956564246], [173.65413680011508, 3.369339239981811]], [[-92.19537564169538, 21.103195086130444], [-85.22708700924585, -67.87639841581579]], [[-92.19537564169538, 21.103195086130444], [54.168753119098255, 45.988269764269425]], [[-92.19537564169538, 21.103195086130444], [22.332983427649122, -0.40548101219016974]], [[173.65413680011508, 3.369339239981811], [-176.61127387719623, -37.377555283677765]], [[58.892791651079946, 47.86049904318933], [0.9247883998662164, -54.2699886485504]], [[58.892791651079946, 47.86049904318933], [-139.73763540959285, -61.454196454980455]], [[58.892791651079946, 47.86049904318933], [-2.2182786990354093, 50.905123749332716]], [[58.892791651079946, 47.86049904318933], [2.4875578225692, -16.109688617208054]], [[142.76861225743957, -0.369495235522207], [109.48756924437902, -8.328427845105514]], [[108.93712064274504, -14.189524503233299], [-176.61127387719623, -37.377555283677765]], [[-157.6670165723509, 0.40548101219016974], [-85.2953228414016, -27.73122074512468]], [[-85.2953228414016, -27.73122074512468], [3.388726122803798, 37.377555283677765]], [[-85.2953228414016, -27.73122074512468], [24.968699277751504, -16.76666912450356]], [[69.70513124161812, -38.036308843115904], [26.858485637720484, 11.38814283009005]], [[-118.82388681732013, -34.013884562784554], [129.69764066850237, -44.69571982838343]], [[-55.84208924599555, -39.95702818232225], [-67.61969874449638, -6.504112929852516]], [[-150.4173707521932, -78.59901920359641], [29.970021097242856, -53.934389249600265]], [[-98.790994905236, 36.00595661871041], [78.20189193210126, -46.06725236854442]], [[-98.790994905236, 36.00595661871041], [17.08419296229856, 21.78313036496018]], [[-112.49023929527002, 1.1778642932811887], [-64.17258187511902, -17.421398135488346]], [[-112.49023929527002, 1.1778642932811887], [-122.7603929384825, 52.84325264636425]], [[-79.7607407186824, -6.771724111330556], [-37.231387742560436, 0.369495235522207]], [[-64.17258187511902, -17.421398135488346], [-2.2182786990354093, 50.905123749332716]], [[179.98429449296168, -26.46039368011087], [-122.7603929384825, 52.84325264636425]], [[-79.27788300074293, -85.76056153056895], [61.17611318267989, 34.013884562784554]], [[-67.61969874449638, -6.504112929852516], [2.4875578225692, -16.109688617208054]], [[-139.73763540959285, -61.454196454980455], [-61.71678215031416, -21.084943500290855]], [[-39.21549485761999, -62.591284904002315], [-31.009235522865286, -11.635699280429007]], [[-26.239490739164104, 57.77678765227458], [65.3009731170894, 36.51218354641425]], [[-26.239490739164104, 57.77678765227458], [-2.2182786990354093, 50.905123749332716]], [[140.78450514238003, 62.591284904002315], [86.14936054717913, -10.519936985439644]], [[40.26236459040716, 61.454196454980455], [24.968699277751504, -16.76666912450356]], [[65.3009731170894, 36.51218354641425], [-2.2182786990354093, 50.905123749332716]], [[65.3009731170894, 36.51218354641425], [124.15791075400445, 39.95702818232225]], [[65.3009731170894, 36.51218354641425], [87.80462435830462, -21.103195086130444]], [[65.3009731170894, 36.51218354641425], [49.2596802326986, -14.067049817164392]], [[94.77291299075415, 67.87639841581579], [37.63693885724318, 15.931637794648113]], [[94.77291299075415, 67.87639841581579], [-107.95510549149141, 57.73738177729873]], [[94.77291299075415, 67.87639841581579], [-2.2182786990354093, 50.905123749332716]], [[10.054952882646564, 17.704638196344604], [-2.2182786990354093, 50.905123749332716]], [[10.054952882646564, 17.704638196344604], [32.58888267822523, -23.0574956564246]], [[10.054952882646564, 17.704638196344604], [-25.23204135888428, -18.79064488655529]], [[61.468991419217744, 44.350178167248814], [24.968699277751504, -16.76666912450356]], [[61.468991419217744, 44.350178167248814], [49.2596802326986, -14.067049817164392]], [[-0.015705507038333365, 26.46039368011087], [81.20900509476401, -36.00595661871041]], [[37.63693885724318, 15.931637794648113], [-2.2182786990354093, 50.905123749332716]], [[29.58262924780683, 78.59901920359641], [-2.2182786990354093, 50.905123749332716]], [[-107.95510549149141, 57.73738177729873], [-179.0752116001338, 54.2699886485504]], [[-107.95510549149141, 57.73738177729873], [-2.2182786990354093, 50.905123749332716]], [[-50.302359331497634, 44.69571982838343], [-2.2182786990354093, 50.905123749332716]], [[-50.302359331497634, 44.69571982838343], [-124.8122961658223, 30.02453579335407]], [[-50.302359331497634, 44.69571982838343], [-110.2948687583819, 38.036308843115904]], [[-2.2182786990354093, 50.905123749332716], [124.15791075400445, 39.95702818232225]], [[-2.2182786990354093, 50.905123749332716], [61.17611318267989, 34.013884562784554]], [[-2.2182786990354093, 50.905123749332716], [-124.8122961658223, 30.02453579335407]], [[-2.2182786990354093, 50.905123749332716], [-13.656010268542579, 54.14390560655043]], [[-2.2182786990354093, 50.905123749332716], [69.30748112097926, 23.64118079270258]], [[-2.2182786990354093, 50.905123749332716], [94.70467715859841, 27.73122074512468]], [[-2.2182786990354093, 50.905123749332716], [22.332983427649122, -0.40548101219016974]], [[-2.2182786990354093, 50.905123749332716], [-6.34586319988493, -3.369339239981811]], [[-2.2182786990354093, 50.905123749332716], [-45.62634873540084, 23.24492475938875]], [[-2.2182786990354093, 50.905123749332716], [26.858485637720484, 11.38814283009005]], [[-2.2182786990354093, 50.905123749332716], [-61.71678215031416, -21.084943500290855]], [[-2.2182786990354093, 50.905123749332716], [-25.23204135888428, -18.79064488655529]], [[-2.2182786990354093, 50.905123749332716], [2.4875578225692, -16.109688617208054]], [[124.15791075400445, 39.95702818232225], [26.858485637720484, 11.38814283009005]], [[124.15791075400445, 39.95702818232225], [-61.71678215031416, -21.084943500290855]], [[124.15791075400445, 39.95702818232225], [89.43010741366774, -32.75715178355166]], [[61.17611318267989, 34.013884562784554], [109.48756924437902, -8.328427845105514]], [[61.17611318267989, 34.013884562784554], [-27.13835174641604, 18.739276842413744]], [[61.17611318267989, 34.013884562784554], [-25.23204135888428, -18.79064488655529]], [[-124.8122961658223, 30.02453579335407], [22.332983427649122, -0.40548101219016974]], [[-124.8122961658223, 30.02453579335407], [109.48756924437902, -8.328427845105514]], [[54.168753119098255, 45.988269764269425], [24.968699277751504, -16.76666912450356]], [[54.168753119098255, 45.988269764269425], [140.57511554881927, -75.39712645199565]], [[-110.2948687583819, 38.036308843115904], [22.332983427649122, -0.40548101219016974]], [[-110.2948687583819, 38.036308843115904], [109.48756924437902, -8.328427845105514]], [[69.30748112097926, 23.64118079270258], [109.48756924437902, -8.328427845105514]], [[94.70467715859841, 27.73122074512468], [-67.10497742443845, -5.036496731065126]], [[3.388726122803798, 37.377555283677765], [-37.231387742560436, 0.369495235522207]], [[3.388726122803798, 37.377555283677765], [24.968699277751504, -16.76666912450356]], [[-37.231387742560436, 0.369495235522207], [-82.30996916178067, -5.97954217876982]], [[-122.7603929384825, 52.84325264636425], [17.08419296229856, 21.78313036496018]], [[-82.30996916178067, -5.97954217876982], [-61.71678215031416, -21.084943500290855]], [[-82.30996916178067, -5.97954217876982], [113.17609811315072, -67.56165045481441]], [[17.08419296229856, 21.78313036496018], [2.4875578225692, -16.109688617208054]], [[-67.10497742443845, -5.036496731065126], [2.4875578225692, -16.109688617208054]], [[-67.10497742443845, -5.036496731065126], [89.43010741366774, -32.75715178355166]], [[2.4875578225692, -16.109688617208054], [89.43010741366774, -32.75715178355166]], [[2.4875578225692, -16.109688617208054], [41.03173257877737, -32.25583196592446]]]}}]}