{"type": "FeatureCollection", "name": "E8_proj_seed1085 grid", "properties": {"shape": "E8_proj_seed1085", "lock_lat": 75.0, "lock_lon": -5.0, "bearing": 210.0}, "features": [{"type": "Feature", "properties": {"kind": "grid_vertices", "shape": "E8_proj_seed1085", "count": 240, "ids": ["V1", "V2", "V3", "V4", "V5", "V6", "V7", "V8", "V9", "V10", "V11", "V12", "V13", "V14", "V15", "V16", "V17", "V18", "V19", "V20", "V21", "V22", "V23", "V24", "V25", "V26", "V27", "V28", "V29", "V30", "V31", "V32", "V33", "V34", "V35", "V36", "V37", "V38", "V39", "V40", "V41", "V42", "V43", "V44", "V45", "V46", "V47", "V48", "V49", "V50", "V51", "V52", "V53", "V54", "V55", "V56", "V57", "V58", "V59", "V60", "V61", "V62", "V63", "V64", "V65", "V66", "V67", "V68", "V69", "V70", "V71", "V72", "V73", "V74", "V75", "V76", "V77", "V78", "V79", "V80", "V81", "V82", "V83", "V84", "V85", "V86", "V87", "V88", "V89", "V90", "V91", "V92", "V93", "V94", "V95", "V96", "V97", "V98", "V99", "V100", "V101", "V102", "V103", "V104", "V105", "V106", "V107", "V108", "V109", "V110", "V111", "V112", "V113", "V114", "V115", "V116", "V117", "V118", "V119", "V120", "V121", "V122", "V123", "V124", "V125", "V126", "V127", "V128", "V129", "V130", "V131", "V132", "V133", "V134", "V135", "V136", "V137", "V138", "V139", "V140", "V141", "V142", "V143", "V144", "V145", "V146", "V147", "V148", "V149", "V150", "V151", "V152", "V153", "V154", "V155", "V156", "V157", "V158", "V159", "V160", "V161", "V162", "V163", "V164", "V165", "V166", "V167", "V168", "V169", "V170", "V171", "V172", "V173", "V174", "V175", "V176", "V177", "V178", "V179", "V180", "V181", "V182", "V183", "V184", "V185", "V186", "V187", "V188", "V189", "V190", "V191", "V192", "V193", "V194", "V195", "V196", "V197", "V198", "V199", "V200", "V201", "V202", "V203", "V204", "V205", "V206", "V207", "V208", "V209", "V210", "V211", "V212", "V213", "V214", "V215", "V216", "V217", "V218", "V219", "V220", "V221", "V222", "V223", "V224", "V225", "V226", "V227", "V228", "V229", "V230", "V231", "V232", "V233", "V234", "V235", "V236", "V237", "V238", "V239", "V240"]}, "geometry": {"type": "MultiPoint", "coordinates": [[87.82209412413684, 22.901705836370702], [-77.5429669870788, -26.960481708863135], [102.4570330129212, 26.960481708863135], [-92.17790587586316, -22.901705836370702], [29.448285294454774, 7.426749714921451], [157.23985727437886, 13.480594140730213], [-22.76014272562114, -13.480594140730213], [-150.55171470554524, -7.426749714921451], [107.02003459240065, 41.314342640927634], [60.01975064448793, -13.26259797587399], [-119.98024935551209, 13.26259797587399], [-72.97996540759935, -41.314342640927634], [105.5637156384022, 78.10527256732547], [81.94623977368352, -26.262449788704004], [-98.0537602263165, 26.262449788704004], [-74.43628436159781, -78.10527256732547], [93.84621771966808, 60.62546423935503], [77.74136302275843, -45.3627244501803], [-102.25863697724157, 45.3627244501803], [-86.15378228033192, -60.62546423935503], [84.74047531727675, 14.70693545361624], [-103.80951788697459, 38.39538225820654], [76.19048211302542, -38.39538225820654], [-95.25952468272327, -14.70693545361624], [116.67622351023539, -13.17467363900386], [15.40872369056227, 50.5791697939618], [-164.59127630943775, -50.5791697939618], [-63.323776489764604, 13.17467363900386], [35.22159615586005, 10.158841713606794], [151.84087366440187, 15.712239472594073], [-28.15912633559816, -15.712239472594073], [-144.77840384413994, -10.158841713606794], [106.20109029806656, 39.10582447401006], [68.54650482290323, -4.750642367452239], [-111.45349517709678, 4.750642367452239], [-73.79890970193345, -39.10582447401006], [104.22794896018465, 71.13101957574348], [84.67529822196207, -19.846368833191466], [-95.32470177803795, 19.846368833191466], [-75.77205103981537, -71.13101957574348], [95.59116503868434, 56.69289744194052], [82.8188762829756, -35.23616058424885], [-97.1811237170244, 35.23616058424885], [-84.40883496131568, -56.69289744194052], [86.54613923918684, 16.125851706588744], [-172.8075190616442, 70.7037328176863], [7.192480938355822, -70.7037328176863], [-93.45386076081317, -16.125851706588744], [114.98525813120767, -8.284808130972444], [29.30037530118106, 52.17778765646826], [-150.69962469881895, -52.17778765646826], [-65.01474186879234, 8.284808130972444], [11.553795622687973, 18.481744461537172], [0.8487915568855979, -16.838132895670256], [-179.15120844311443, 16.838132895670256], [-168.44620437731203, -18.481744461537172], [-14.591783725393633, 30.777998768118792], [21.173166319521414, -29.69287675448427], [-158.8268336804786, 29.69287675448427], [165.4082162746064, -30.777998768118792], [6.328931083029528, 34.92052685915412], [4.090048461916054, -34.95943729332985], [-175.90995153808396, 34.95943729332985], [-173.67106891697048, -34.92052685915412], [33.935916888456546, 2.0168954897822915], [-30.05266032687029, -7.472149527426664], [149.9473396731297, 7.472149527426664], [-146.06408311154345, -2.0168954897822915], [39.79061204650479, -34.155308687002005], [-10.356712947747864, 14.263030225764622], [169.64328705225213, -14.263030225764622], [-140.2093879534952, 34.155308687002005], [-138.44264187563004, 67.40642751510292], [107.61517932716826, -35.079301908604826], [-72.38482067283175, 35.079301908604826], [41.557358124369976, -67.40642751510292], [162.93922091591105, 74.08090402713091], [157.19542008529095, -68.50873895029699], [-22.80457991470905, 68.50873895029699], [-17.060779084088953, -74.08090402713091], [101.32831707905949, 29.90812768498384], [-116.42937187486218, 19.856567462655928], [63.57062812513782, -19.856567462655928], [-78.67168292094051, -29.90812768498384], [147.42872695205907, -7.725058385489371], [-48.25890366085481, 62.7977873996589], [131.7410963391452, -62.7977873996589], [-32.57127304794095, 7.725058385489371], [-115.52200309274326, 75.10537811925944], [-92.00338068323963, -14.455071311458106], [87.99661931676037, 14.455071311458106], [64.47799690725674, -75.10537811925944], [92.50267105133388, 66.97877982281152], [-98.87360535091788, 28.208474698680618], [81.12639464908213, -28.208474698680618], [-87.49732894866614, -66.97877982281152], [177.03001974526342, 18.95486600535659], [-60.90558391612467, 52.9254349414855], [119.09441608387533, -52.9254349414855], [-2.9699802547365746, -18.95486600535659], [90.10114734349777, 51.05967448841859], [-102.59871618445999, 43.96462196024689], [77.40128381554003, -43.96462196024689], [-89.89885265650223, -51.05967448841859], [145.1648798991504, 23.012651754407994], [-41.12448192261436, 65.12539377015402], [138.87551807738564, -65.12539377015402], [-34.83512010084961, -23.012651754407994], [111.82663251729386, -17.393063497373404], [27.078772268954534, 41.02588772028767], [-152.9212277310455, -41.02588772028767], [-68.17336748270615, 17.393063497373404], [81.58731887968533, 41.19664810519744], [-1.284357023257217, 65.71020627860545], [41.729768293546144, 32.89196105775573], [66.36457941550142, 10.4882209436199], [53.94461101303031, 29.970240862799805], [76.87642088054822, 12.649196779655686], [77.12665656965218, -18.901808291019826], [23.75295641504039, -9.064598973577992], [33.73809553919899, 44.67533100178078], [43.84459064371563, 48.81353826664409], [64.59869302726975, -9.099489462647233], [-6.798118938943472, 12.019610666951973], [70.58057521272389, -3.037745511661745], [16.46247761173722, 16.952266956417912], [41.67814396335608, -14.921163179433034], [53.53504078780665, -49.72610696404067], [126.69321135555457, 63.80327096916372], [164.55595069848226, 40.421286137405254], [132.0879879899595, 10.062200134797239], [-163.59301071204814, 52.96397814712071], [122.55598490333563, 11.64094683854435], [149.11438559412574, 54.89705811653004], [106.02612818569034, 1.3699078649176955], [143.5668722348617, -27.401026759210882], [128.54941144055928, 29.6794244211036], [-145.43065922902812, 71.66697302327104], [104.561435093087, 34.73225111612563], [165.25949080710976, -16.894422971228646], [97.46667280217218, 27.10163777453917], [141.06429662085537, -8.002404452095947], [113.76275449443943, -30.397153203099446], [125.63772335931614, -65.91526696458104], [-0.419022301755631, 59.510924939345685], [-76.04425701992274, 60.35284047383266], [58.726872389899206, -15.283843119923421], [-47.089953672063146, 14.249555159555472], [72.25737841017795, -1.6184962388353836], [-26.397624546661095, 24.5412591937675], [22.517495037562796, -20.001090695068413], [10.219011825553974, -74.71024209539934], [39.11696574181895, 31.717015035539006], [-43.60611641998406, 30.73324518808839], [-5.833227921405132, -0.025685082150687703], [-46.19735223811262, -46.06480138737574], [15.849173170201817, 5.428270670945878], [-3.0372306927646897, -50.226982108308526], [50.24890457622806, -53.268187296339924], [-23.617351543367178, -36.013146879594814], [163.05337093341663, 35.38933781174781], [-122.9190138659724, 48.5012998995542], [-161.970479400959, 46.42629677520099], [-156.24987952224262, -9.27970273700402], [143.61708783207953, 48.90351391260156], [-177.5122497578409, -4.40672684545622], [140.91818310666784, -36.28816821527225], [-127.91910051548824, -33.438620274496884], [-139.02566481072094, 71.31126379373242], [-148.79138788241622, 15.215889838688538], [163.10764751115005, -31.754825315815122], [-103.2378191559888, -3.1520078642293883], [137.7817275978375, -20.553791017388285], [-110.92401048504742, 4.876306467251398], [105.21064285551907, -74.6909907774964], [-167.93778528220082, -61.67081842712918], [12.062214717799192, 61.67081842712918], [-74.78935714448093, 74.6909907774964], [69.0759895149526, -4.876306467251398], [-42.21827240216253, 20.553791017388285], [76.7621808440112, 3.1520078642293883], [-16.892352488849948, 31.754825315815122], [31.208612117583797, -15.215889838688538], [40.97433518927907, -71.31126379373242], [52.08089948451178, 33.438620274496884], [-39.08181689333215, 36.28816821527225], [2.487750242159126, 4.40672684545622], [-36.38291216792046, -48.90351391260156], [23.750120477757385, 9.27970273700402], [18.029520599041028, -46.42629677520099], [57.080986134027604, -48.5012998995542], [-16.946629066583377, -35.38933781174781], [156.38264845663284, 36.013146879594814], [-129.75109542377194, 53.268187296339924], [176.9627693072353, 50.226982108308526], [-164.1508268297982, -5.428270670945878], [133.80264776188739, 46.06480138737574], [174.16677207859487, 0.025685082150687703], [136.39388358001594, -30.73324518808839], [-140.88303425818106, -31.717015035539006], [-169.78098817444604, 74.71024209539934], [-157.4825049624372, 20.001090695068413], [153.6023754533389, -24.5412591937675], [-107.74262158982205, 1.6184962388353836], [132.91004632793687, -14.249555159555472], [-121.2731276101008, 15.283843119923421], [103.95574298007726, -60.35284047383266], [179.58097769824437, -59.510924939345685], [-54.36227664068386, 65.91526696458104], [-66.23724550556058, 30.397153203099446], [-38.93570337914462, 8.002404452095947], [-82.53332719782782, -27.10163777453917], [-14.740509192890245, 16.894422971228646], [-75.43856490691302, -34.73225111612563], [34.569340770971884, -71.66697302327104], [-51.450588559440746, -29.6794244211036], [-36.43312776513831, 27.401026759210882], [-73.97387181430967, -1.3699078649176955], [-30.88561440587427, -54.89705811653004], [-57.44401509666437, -11.64094683854435], [16.40698928795185, -52.96397814712071], [-47.912012010040534, -10.062200134797239], [-15.444049301517744, -40.421286137405254], [-53.30678864444544, -63.80327096916372], [-126.46495921219336, 49.72610696404067], [-138.3218560366439, 14.921163179433034], [-163.53752238826277, -16.952266956417912], [-109.41942478727611, 3.037745511661745], [173.20188106105655, -12.019610666951973], [-115.40130697273025, 9.099489462647233], [-136.15540935628437, -48.81353826664409], [-146.26190446080102, -44.67533100178078], [-156.2470435849596, 9.064598973577992], [-102.87334343034783, 18.901808291019826], [-103.12357911945179, -12.649196779655686], [-126.0553889869697, -29.970240862799805], [-113.63542058449858, -10.4882209436199], [-138.27023170645387, -32.89196105775573], [178.7156429767428, -65.71020627860545], [-98.41268112031467, -41.19664810519744]]}}, {"type": "Feature", "properties": {"kind": "grid_edges", "shape": "E8_proj_seed1085", "count": 286, "ids": ["E1", "E2", "E3", "E4", "E5", "E6", "E7", "E8", "E9", "E10", "E11", "E12", "E13", "E14", "E15", "E16", "E17", "E18", "E19", "E20", "E21", "E22", "E23", "E24", "E25", "E26", "E27", "E28", "E29", "E30", "E31", "E32", "E33", "E34", "E35", "E36", "E37", "E38", "E39", "E40", "E41", "E42", "E43", "E44", "E45", "E46", "E47", "E48", "E49", "E50", "E51", "E52", "E53", "E54", "E55", "E56", "E57", "E58", "E59", "E60", "E61", "E62", "E63", "E64", "E65", "E66", "E67", "E68", "E69", "E70", "E71", "E72", "E73", "E74", "E75", "E76", "E77", "E78", "E79", "E80", "E81", "E82", "E83", "E84", "E85", "E86", "E87", "E88", "E89", "E90", "E91", "E92", "E93", "E94", "E95", "E96", "E97", "E98", "E99", "E100", "E101", "E102", "E103", "E104", "E105", "E106", "E107", "E108", "E109", "E110", "E111", "E112", "E113", "E114", "E115", "E116", "E117", "E118", "E119", "E120", "E121", "E122", "E123", "E124", "E125", "E126", "E127", "E128", "E129", "E130", "E131", "E132", "E133", "E134", "E135", "E136", "E137", "E138", "E139", "E140", "E141", "E142", "E143", "E144", "E145", "E146", "E147", "E148", "E149", "E150", "E151", "E152", "E153", "E154", "E155", "E156", "E157", "E158", "E159", "E160", "E161", "E162", "E163", "E164", "E165", "E166", "E167", "E168", "E169", "E170", "E171", "E172", "E173", "E174", "E175", "E176", "E177", "E178", "E179", "E180", "E181", "E182", "E183", "E184", "E185", "E186", "E187", "E188", "E189", "E190", "E191", "E192", "E193", "E194", "E195", "E196", "E197", "E198", "E199", "E200", "E201", "E202", "E203", "E204", "E205", "E206", "E207", "E208", "E209", "E210", "E211", "E212", "E213", "E214", "E215", "E216", "E217", "E218", "E219", "E220", "E221", "E222", "E223", "E224", "E225", "E226", "E227", "E228", "E229", "E230", "E231", "E232", "E233", "E234", "E235", "E236", "E237", "E238", "E239", "E240", "E241", "E242", "E243", "E244", "E245", "E246", "E247", "E248", "E249", "E250", "E251", "E252", "E253", "E254", "E255", "E256", "E257", "E258", "E259", "E260", "E261", "E262", "E263", "E264", "E265", "E266", "E267", "E268", "E269", "E270", "E271", "E272", "E273", "E274", "E275", "E276", "E277", "E278", "E279", "E280", "E281", "E282", "E283", "E284", "E285", "E286"], "pairs": [[0, 9], [0, 24], [0, 48], [0, 131], [0, 134], [0, 135], [1, 17], [1, 20], [1, 152], [1, 165], [1, 170], [2, 14], [2, 36], [2, 45], [3, 218], [4, 8], [4, 12], [4, 21], [5, 17], [5, 59], [5, 132], [5, 167], [5, 170], [6, 14], [6, 19], [7, 23], [8, 25], [8, 131], [8, 145], [8, 149], [8, 167], [9, 25], [10, 180], [10, 212], [11, 87], [11, 188], [11, 218], [12, 128], [13, 119], [13, 164], [14, 195], [14, 202], [15, 22], [15, 180], [16, 132], [18, 60], [18, 76], [18, 184], [18, 185], [18, 209], [18, 224], [18, 228], [19, 27], [20, 24], [21, 24], [21, 111], [21, 133], [21, 159], [21, 169], [22, 188], [22, 234], [23, 231], [25, 111], [25, 126], [25, 133], [25, 161], [26, 48], [26, 108], [27, 69], [27, 203], [27, 224], [27, 239], [28, 57], [29, 67], [29, 205], [30, 221], [31, 70], [32, 131], [32, 135], [32, 181], [32, 182], [34, 224], [35, 168], [36, 97], [36, 123], [36, 130], [36, 139], [36, 187], [37, 75], [37, 99], [38, 217], [38, 219], [39, 156], [40, 49], [40, 104], [40, 105], [42, 148], [42, 168], [42, 221], [44, 82], [44, 92], [44, 182], [48, 70], [48, 135], [48, 139], [48, 177], [48, 202], [48, 204], [49, 111], [49, 113], [49, 205], [50, 169], [50, 218], [51, 144], [51, 164], [52, 68], [52, 112], [52, 213], [52, 214], [54, 81], [54, 85], [55, 138], [56, 89], [56, 115], [56, 218], [57, 64], [57, 125], [57, 149], [59, 91], [59, 164], [60, 148], [62, 140], [64, 150], [65, 149], [66, 100], [66, 102], [67, 101], [69, 116], [69, 120], [69, 144], [69, 147], [70, 96], [71, 105], [71, 107], [72, 131], [74, 89], [74, 201], [74, 219], [75, 237], [77, 115], [77, 118], [77, 179], [77, 215], [78, 141], [78, 156], [78, 172], [78, 173], [78, 205], [78, 232], [79, 106], [79, 139], [79, 170], [79, 219], [80, 164], [80, 194], [80, 210], [81, 115], [81, 133], [82, 109], [82, 136], [82, 168], [83, 121], [83, 123], [84, 117], [84, 178], [85, 131], [85, 150], [85, 162], [86, 187], [87, 109], [89, 92], [89, 107], [90, 100], [90, 105], [90, 236], [91, 118], [91, 119], [92, 184], [92, 202], [93, 235], [95, 101], [95, 135], [95, 141], [96, 152], [97, 114], [97, 194], [99, 125], [99, 196], [99, 199], [100, 164], [100, 180], [100, 228], [101, 189], [101, 213], [103, 123], [104, 145], [105, 109], [105, 125], [105, 144], [107, 109], [107, 131], [108, 132], [108, 152], [108, 170], [109, 134], [109, 164], [109, 212], [110, 155], [110, 165], [111, 131], [111, 233], [113, 117], [113, 131], [114, 130], [114, 147], [114, 162], [116, 149], [116, 164], [117, 181], [120, 140], [120, 153], [121, 127], [122, 130], [123, 187], [126, 222], [127, 175], [130, 178], [131, 133], [131, 138], [133, 199], [134, 194], [136, 204], [137, 173], [139, 170], [140, 204], [140, 205], [140, 206], [140, 236], [143, 199], [144, 164], [145, 163], [145, 213], [146, 163], [147, 162], [147, 167], [149, 165], [152, 153], [154, 234], [164, 174], [168, 174], [172, 238], [176, 178], [176, 182], [176, 209], [176, 216], [184, 186], [185, 203], [188, 189], [188, 220], [193, 227], [196, 212], [200, 206], [200, 234], [202, 206], [208, 213], [208, 218], [209, 224], [212, 229], [213, 220], [214, 228], [215, 231], [217, 223], [218, 234], [221, 236], [226, 234], [228, 231]], "support_counts": [1, 1, 1, 1, 1, 1, 1, 1, 1, 1, 1, 2, 1, 1, 1, 1, 1, 1, 1, 1, 1, 1, 1, 1, 1, 1, 1, 1, 1, 1, 1, 1, 1, 1, 1, 1, 1, 1, 1, 1, 1, 2, 1, 1, 2, 1, 1, 1, 1, 1, 1, 1, 1, 1, 1, 1, 1, 2, 1, 1, 1, 1, 1, 1, 1, 1, 1, 1, 1, 1, 1, 1, 1, 1, 1, 1, 1, 1, 1, 1, 1, 1, 1, 1, 1, 1, 1, 1, 1, 1, 1, 1, 1, 1, 1, 1, 1, 1, 1, 1, 1, 1, 1, 1, 1, 1, 1, 1, 1, 1, 1, 1, 1, 1, 1, 1, 1, 1, 1, 1, 1, 1, 1, 1, 1, 1, 1, 1, 1, 1, 1, 1, 1, 1, 1, 1, 1, 1, 1, 1, 2, 1, 1, 1, 1, 1, 1, 2, 1, 1, 1, 1, 1, 1, 1, 1, 1, 1, 1, 1, 1, 1, 1, 1, 1, 1, 1, 1, 1, 1, 2, 1, 2, 1, 1, 1, 1, 1, 1, 1, 1, 1, 1, 1, 1, 1, 1, 1, 1, 1, 1, 1, 1, 1, 1, 1, 1, 1, 1, 1, 1, 1, 1, 1, 1, 1, 1, 1, 1, 1, 1, 1, 1, 2, 1, 1, 1, 1, 1, 1, 1, 1, 1, 1, 1, 1, 1, 1, 1, 1, 1, 1, 1, 1, 1, 1, 1, 1, 1, 1, 1, 1, 1, 1, 1, 1, 1, 1, 1, 1, 1, 1, 1, 1, 1, 2, 1, 1, 2, 1, 1, 1, 1, 1, 1, 1, 1, 1, 1, 1, 1, 1, 1, 1, 1, 1, 1, 1, 1, 1, 1, 1, 1, 1, 1, 1], "support_class": ["single", "single", "single", "single", "single", "single", "single", "single", "single", "single", "single", "shared", "single", "single", "single", "single", "single", "single", "single", "single", "single", "single", "single", "single", "single", "single", "single", "single", "single", "single", "single", "single", "single", "single", "single", "single", "single", "single", "single", "single", "single", "shared", "single", "single", "shared", "single", "single", "single", "single", "single", "single", "single", "single", "single", "single", "single", "single", "shared", "single", "single", "single", "single", "single", "single", "single", "single", "single", "single", "single", "single", "single", "single", "single", "single", "single", "single", "single", "single", "single", "single", "single", "single", "single", "single", "single", "single", "single", "single", "single", "single", "single", "single", "single", "single", "single", "single", "single", "single", "single", "single", "single", "single", "single", "single", "single", "single", "single", "single", "single", "single", "single", "single", "single", "single", "single", "single", "single", "single", "single", "single", "single", "single", "single", "single", "single", "single", "single", "single", "single", "single", "single", "single", "single", "single", "single", "single", "single", "single", "single", "single", "shared", "single", "single", "single", "single", "single", "single", "shared", "single", "single", "single", "single", "single", "single", "single", "single", "single", "single", "single", "single", "single", "single", "single", "single", "single", "single", "single", "single", "single", "single", "shared", "single", "shared", "single", "single", "single", "single", "single", "single", "single", "single", "single", "single", "single", "single", "single", "single", "single", "single", "single", "single", "single", "single", "single", "single", "single", "single", "single", "single", "single", "single", "single", "single", "single", "single", "single", "single", "single", "single", "single", "single", "single", "single", "shared", "single", "single", "single", "single", "single", "single", "single", "single", "single", "single", "single", "single", "single", "single", "single", "single", "single", "single", "single", "single", "single", "single", "single", "single", "single", "single", "single", "single", "single", "single", "single", "single", "single", "single", "single", "single", "single", "single", "single", "single", "single", "shared", "single", "single", "shared", "single", "single", "single", "single", "single", "single", "single", "single", "single", "single", "single", "single", "single", "single", "single", "single", "single", "single", "single", "single", "single", "single", "single", "single", "single", "single", "single"]}, "geometry": {"type": "MultiLineString", "coordinates": [[[87.82209412413684, 22.901705836370702], [60.01975064448793, -13.26259797587399]], [[87.82209412413684, 22.901705836370702], [116.67622351023539, -13.17467363900386]], [[87.82209412413684, 22.901705836370702], [114.98525813120767, -8.284808130972444]], [[87.82209412413684, 22.901705836370702], [-163.59301071204814, 52.96397814712071]], [[87.82209412413684, 22.901705836370702], [106.02612818569034, 1.3699078649176955]], [[87.82209412413684, 22.901705836370702], [143.5668722348617, -27.401026759210882]], [[-77.5429669870788, -26.960481708863135], [77.74136302275843, -45.3627244501803]], [[-77.5429669870788, -26.960481708863135], [84.74047531727675, 14.70693545361624]], [[-77.5429669870788, -26.960481708863135], [39.11696574181895, 31.717015035539006]], [[-77.5429669870788, -26.960481708863135], [-177.5122497578409, -4.40672684545622]], [[-77.5429669870788, -26.960481708863135], [163.10764751115005, -31.754825315815122]], [[102.4570330129212, 26.960481708863135], [-98.0537602263165, 26.262449788704004]], [[102.4570330129212, 26.960481708863135], [104.22794896018465, 71.13101957574348]], [[102.4570330129212, 26.960481708863135], [-172.8075190616442, 70.7037328176863]], [[-92.17790587586316, -22.901705836370702], [-30.88561440587427, -54.89705811653004]], [[29.448285294454774, 7.426749714921451], [107.02003459240065, 41.314342640927634]], [[29.448285294454774, 7.426749714921451], [105.5637156384022, 78.10527256732547]], [[29.448285294454774, 7.426749714921451], [-103.80951788697459, 38.39538225820654]], [[157.23985727437886, 13.480594140730213], [77.74136302275843, -45.3627244501803]], [[157.23985727437886, 13.480594140730213], [165.4082162746064, -30.777998768118792]], [[157.23985727437886, 13.480594140730213], [122.55598490333563, 11.64094683854435]], [[157.23985727437886, 13.480594140730213], [-127.91910051548824, -33.438620274496884]], [[157.23985727437886, 13.480594140730213], [163.10764751115005, -31.754825315815122]], [[-22.76014272562114, -13.480594140730213], [-98.0537602263165, 26.262449788704004]], [[-22.76014272562114, -13.480594140730213], [-86.15378228033192, -60.62546423935503]], [[-150.55171470554524, -7.426749714921451], [-95.25952468272327, -14.70693545361624]], [[107.02003459240065, 41.314342640927634], [15.40872369056227, 50.5791697939618]], [[107.02003459240065, 41.314342640927634], [-163.59301071204814, 52.96397814712071]], [[107.02003459240065, 41.314342640927634], [-76.04425701992274, 60.35284047383266]], [[107.02003459240065, 41.314342640927634], [-26.397624546661095, 24.5412591937675]], [[107.02003459240065, 41.314342640927634], [-127.91910051548824, -33.438620274496884]], [[60.01975064448793, -13.26259797587399], [15.40872369056227, 50.5791697939618]], [[-119.98024935551209, 13.26259797587399], [76.7621808440112, 3.1520078642293883]], [[-119.98024935551209, 13.26259797587399], [-14.740509192890245, 16.894422971228646]], [[-72.97996540759935, -41.314342640927634], [-32.57127304794095, 7.725058385489371]], [[-72.97996540759935, -41.314342640927634], [23.750120477757385, 9.27970273700402]], [[-72.97996540759935, -41.314342640927634], [-30.88561440587427, -54.89705811653004]], [[105.5637156384022, 78.10527256732547], [126.69321135555457, 63.80327096916372]], [[81.94623977368352, -26.262449788704004], [23.75295641504039, -9.064598973577992]], [[81.94623977368352, -26.262449788704004], [143.61708783207953, 48.90351391260156]], [[-98.0537602263165, 26.262449788704004], [-164.1508268297982, -5.428270670945878]], [[-98.0537602263165, 26.262449788704004], [153.6023754533389, -24.5412591937675]], [[-74.43628436159781, -78.10527256732547], [76.19048211302542, -38.39538225820654]], [[-74.43628436159781, -78.10527256732547], [76.7621808440112, 3.1520078642293883]], [[93.84621771966808, 60.62546423935503], [122.55598490333563, 11.64094683854435]], [[-102.25863697724157, 45.3627244501803], [6.328931083029528, 34.92052685915412]], [[-102.25863697724157, 45.3627244501803], [162.93922091591105, 74.08090402713091]], [[-102.25863697724157, 45.3627244501803], [52.08089948451178, 33.438620274496884]], [[-102.25863697724157, 45.3627244501803], [-39.08181689333215, 36.28816821527225]], [[-102.25863697724157, 45.3627244501803], [-66.23724550556058, 30.397153203099446]], [[-102.25863697724157, 45.3627244501803], [-126.46495921219336, 49.72610696404067]], [[-102.25863697724157, 45.3627244501803], [173.20188106105655, -12.019610666951973]], [[-86.15378228033192, -60.62546423935503], [-63.323776489764604, 13.17467363900386]], [[84.74047531727675, 14.70693545361624], [116.67622351023539, -13.17467363900386]], [[-103.80951788697459, 38.39538225820654], [116.67622351023539, -13.17467363900386]], [[-103.80951788697459, 38.39538225820654], [-68.17336748270615, 17.393063497373404]], [[-103.80951788697459, 38.39538225820654], [149.11438559412574, 54.89705811653004]], [[-103.80951788697459, 38.39538225820654], [-23.617351543367178, -36.013146879594814]], [[-103.80951788697459, 38.39538225820654], [-148.79138788241622, 15.215889838688538]], [[76.19048211302542, -38.39538225820654], [23.750120477757385, 9.27970273700402]], [[76.19048211302542, -38.39538225820654], [-103.12357911945179, -12.649196779655686]], [[-95.25952468272327, -14.70693545361624], [-146.26190446080102, -44.67533100178078]], [[15.40872369056227, 50.5791697939618], [-68.17336748270615, 17.393063497373404]], [[15.40872369056227, 50.5791697939618], [41.67814396335608, -14.921163179433034]], [[15.40872369056227, 50.5791697939618], [149.11438559412574, 54.89705811653004]], [[15.40872369056227, 50.5791697939618], [-122.9190138659724, 48.5012998995542]], [[-164.59127630943775, -50.5791697939618], [114.98525813120767, -8.284808130972444]], [[-164.59127630943775, -50.5791697939618], [111.82663251729386, -17.393063497373404]], [[-63.323776489764604, 13.17467363900386], [-10.356712947747864, 14.263030225764622]], [[-63.323776489764604, 13.17467363900386], [-107.74262158982205, 1.6184962388353836]], [[-63.323776489764604, 13.17467363900386], [-126.46495921219336, 49.72610696404067]], [[-63.323776489764604, 13.17467363900386], [-98.41268112031467, -41.19664810519744]], [[35.22159615586005, 10.158841713606794], [21.173166319521414, -29.69287675448427]], [[151.84087366440187, 15.712239472594073], [-146.06408311154345, -2.0168954897822915]], [[151.84087366440187, 15.712239472594073], [-121.2731276101008, 15.283843119923421]], [[-28.15912633559816, -15.712239472594073], [-47.912012010040534, -10.062200134797239]], [[-144.77840384413994, -10.158841713606794], [169.64328705225213, -14.263030225764622]], [[106.20109029806656, 39.10582447401006], [-163.59301071204814, 52.96397814712071]], [[106.20109029806656, 39.10582447401006], [143.5668722348617, -27.401026759210882]], [[106.20109029806656, 39.10582447401006], [-16.892352488849948, 31.754825315815122]], [[106.20109029806656, 39.10582447401006], [31.208612117583797, -15.215889838688538]], [[-111.45349517709678, 4.750642367452239], [-126.46495921219336, 49.72610696404067]], [[-73.79890970193345, -39.10582447401006], [-139.02566481072094, 71.31126379373242]], [[104.22794896018465, 71.13101957574348], [-60.90558391612467, 52.9254349414855]], [[104.22794896018465, 71.13101957574348], [-6.798118938943472, 12.019610666951973]], [[104.22794896018465, 71.13101957574348], [132.0879879899595, 10.062200134797239]], [[104.22794896018465, 71.13101957574348], [165.25949080710976, -16.894422971228646]], [[104.22794896018465, 71.13101957574348], [-36.38291216792046, -48.90351391260156]], [[84.67529822196207, -19.846368833191466], [41.557358124369976, -67.40642751510292]], [[84.67529822196207, -19.846368833191466], [-2.9699802547365746, -18.95486600535659]], [[-95.32470177803795, 19.846368833191466], [-73.97387181430967, -1.3699078649176955]], [[-95.32470177803795, 19.846368833191466], [-57.44401509666437, -11.64094683854435]], [[-75.77205103981537, -71.13101957574348], [15.849173170201817, 5.428270670945878]], [[95.59116503868434, 56.69289744194052], [29.30037530118106, 52.17778765646826]], [[95.59116503868434, 56.69289744194052], [145.1648798991504, 23.012651754407994]], [[95.59116503868434, 56.69289744194052], [-41.12448192261436, 65.12539377015402]], [[-97.1811237170244, 35.23616058424885], [72.25737841017795, -1.6184962388353836]], [[-97.1811237170244, 35.23616058424885], [-139.02566481072094, 71.31126379373242]], [[-97.1811237170244, 35.23616058424885], [-47.912012010040534, -10.062200134797239]], [[86.54613923918684, 16.125851706588744], [63.57062812513782, -19.856567462655928]], [[86.54613923918684, 16.125851706588744], [92.50267105133388, 66.97877982281152]], [[86.54613923918684, 16.125851706588744], [31.208612117583797, -15.215889838688538]], [[114.98525813120767, -8.284808130972444], [169.64328705225213, -14.263030225764622]], [[114.98525813120767, -8.284808130972444], [143.5668722348617, -27.401026759210882]], [[114.98525813120767, -8.284808130972444], [165.25949080710976, -16.894422971228646]], [[114.98525813120767, -8.284808130972444], [-74.78935714448093, 74.6909907774964]], [[114.98525813120767, -8.284808130972444], [153.6023754533389, -24.5412591937675]], [[114.98525813120767, -8.284808130972444], [132.91004632793687, -14.249555159555472]], [[29.30037530118106, 52.17778765646826], [-68.17336748270615, 17.393063497373404]], [[29.30037530118106, 52.17778765646826], [-1.284357023257217, 65.71020627860545]], [[29.30037530118106, 52.17778765646826], [-121.2731276101008, 15.283843119923421]], [[-150.69962469881895, -52.17778765646826], [-148.79138788241622, 15.215889838688538]], [[-150.69962469881895, -52.17778765646826], [-30.88561440587427, -54.89705811653004]], [[-65.01474186879234, 8.284808130972444], [-0.419022301755631, 59.510924939345685]], [[-65.01474186879234, 8.284808130972444], [143.61708783207953, 48.90351391260156]], [[11.553795622687973, 18.481744461537172], [39.79061204650479, -34.155308687002005]], [[11.553795622687973, 18.481744461537172], [81.58731887968533, 41.19664810519744]], [[11.553795622687973, 18.481744461537172], [-75.43856490691302, -34.73225111612563]], [[11.553795622687973, 18.481744461537172], [34.569340770971884, -71.66697302327104]], [[-179.15120844311443, 16.838132895670256], [-116.42937187486218, 19.856567462655928]], [[-179.15120844311443, 16.838132895670256], [-48.25890366085481, 62.7977873996589]], [[-168.44620437731203, -18.481744461537172], [104.561435093087, 34.73225111612563]], [[-14.591783725393633, 30.777998768118792], [-92.00338068323963, -14.455071311458106]], [[-14.591783725393633, 30.777998768118792], [66.36457941550142, 10.4882209436199]], [[-14.591783725393633, 30.777998768118792], [-30.88561440587427, -54.89705811653004]], [[21.173166319521414, -29.69287675448427], [33.935916888456546, 2.0168954897822915]], [[21.173166319521414, -29.69287675448427], [16.46247761173722, 16.952266956417912]], [[21.173166319521414, -29.69287675448427], [-26.397624546661095, 24.5412591937675]], [[165.4082162746064, -30.777998768118792], [64.47799690725674, -75.10537811925944]], [[165.4082162746064, -30.777998768118792], [143.61708783207953, 48.90351391260156]], [[6.328931083029528, 34.92052685915412], [72.25737841017795, -1.6184962388353836]], [[-175.90995153808396, 34.95943729332985], [97.46667280217218, 27.10163777453917]], [[33.935916888456546, 2.0168954897822915], [22.517495037562796, -20.001090695068413]], [[-30.05266032687029, -7.472149527426664], [-26.397624546661095, 24.5412591937675]], [[149.9473396731297, 7.472149527426664], [90.10114734349777, 51.05967448841859]], [[149.9473396731297, 7.472149527426664], [77.40128381554003, -43.96462196024689]], [[-146.06408311154345, -2.0168954897822915], [-102.59871618445999, 43.96462196024689]], [[-10.356712947747864, 14.263030225764622], [53.94461101303031, 29.970240862799805]], [[-10.356712947747864, 14.263030225764622], [33.73809553919899, 44.67533100178078]], [[-10.356712947747864, 14.263030225764622], [-0.419022301755631, 59.510924939345685]], [[-10.356712947747864, 14.263030225764622], [-47.089953672063146, 14.249555159555472]], [[169.64328705225213, -14.263030225764622], [177.03001974526342, 18.95486600535659]], [[-140.2093879534952, 34.155308687002005], [-41.12448192261436, 65.12539377015402]], [[-140.2093879534952, 34.155308687002005], [-34.83512010084961, -23.012651754407994]], [[-138.44264187563004, 67.40642751510292], [-163.59301071204814, 52.96397814712071]], [[-72.38482067283175, 35.079301908604826], [-92.00338068323963, -14.455071311458106]], [[-72.38482067283175, 35.079301908604826], [-157.4825049624372, 20.001090695068413]], [[-72.38482067283175, 35.079301908604826], [-57.44401509666437, -11.64094683854435]], [[41.557358124369976, -67.40642751510292], [-138.27023170645387, -32.89196105775573]], [[157.19542008529095, -68.50873895029699], [66.36457941550142, 10.4882209436199]], [[157.19542008529095, -68.50873895029699], [77.12665656965218, -18.901808291019826]], [[157.19542008529095, -68.50873895029699], [-42.21827240216253, 20.553791017388285]], [[157.19542008529095, -68.50873895029699], [-51.450588559440746, -29.6794244211036]], [[-22.80457991470905, 68.50873895029699], [141.06429662085537, -8.002404452095947]], [[-22.80457991470905, 68.50873895029699], [15.849173170201817, 5.428270670945878]], [[-22.80457991470905, 68.50873895029699], [137.7817275978375, -20.553791017388285]], [[-22.80457991470905, 68.50873895029699], [-110.92401048504742, 4.876306467251398]], [[-22.80457991470905, 68.50873895029699], [-121.2731276101008, 15.283843119923421]], [[-22.80457991470905, 68.50873895029699], [-156.2470435849596, 9.064598973577992]], [[-17.060779084088953, -74.08090402713091], [138.87551807738564, -65.12539377015402]], [[-17.060779084088953, -74.08090402713091], [165.25949080710976, -16.894422971228646]], [[-17.060779084088953, -74.08090402713091], [163.10764751115005, -31.754825315815122]], [[-17.060779084088953, -74.08090402713091], [-57.44401509666437, -11.64094683854435]], [[101.32831707905949, 29.90812768498384], [143.61708783207953, 48.90351391260156]], [[101.32831707905949, 29.90812768498384], [176.9627693072353, 50.226982108308526]], [[101.32831707905949, 29.90812768498384], [-38.93570337914462, 8.002404452095947]], [[-116.42937187486218, 19.856567462655928], [66.36457941550142, 10.4882209436199]], [[-116.42937187486218, 19.856567462655928], [149.11438559412574, 54.89705811653004]], [[63.57062812513782, -19.856567462655928], [27.078772268954534, 41.02588772028767]], [[63.57062812513782, -19.856567462655928], [128.54941144055928, 29.6794244211036]], [[63.57062812513782, -19.856567462655928], [-139.02566481072094, 71.31126379373242]], [[-78.67168292094051, -29.90812768498384], [43.84459064371563, 48.81353826664409]], [[-78.67168292094051, -29.90812768498384], [-6.798118938943472, 12.019610666951973]], [[147.42872695205907, -7.725058385489371], [76.87642088054822, 12.649196779655686]], [[147.42872695205907, -7.725058385489371], [69.0759895149526, -4.876306467251398]], [[-48.25890366085481, 62.7977873996589], [-163.59301071204814, 52.96397814712071]], [[-48.25890366085481, 62.7977873996589], [22.517495037562796, -20.001090695068413]], [[-48.25890366085481, 62.7977873996589], [-161.970479400959, 46.42629677520099]], [[131.7410963391452, -62.7977873996589], [-36.38291216792046, -48.90351391260156]], [[-32.57127304794095, 7.725058385489371], [27.078772268954534, 41.02588772028767]], [[-92.00338068323963, -14.455071311458106], [92.50267105133388, 66.97877982281152]], [[-92.00338068323963, -14.455071311458106], [-34.83512010084961, -23.012651754407994]], [[87.99661931676037, 14.455071311458106], [90.10114734349777, 51.05967448841859]], [[87.99661931676037, 14.455071311458106], [-41.12448192261436, 65.12539377015402]], [[87.99661931676037, 14.455071311458106], [-113.63542058449858, -10.4882209436199]], [[64.47799690725674, -75.10537811925944], [77.12665656965218, -18.901808291019826]], [[64.47799690725674, -75.10537811925944], [23.75295641504039, -9.064598973577992]], [[92.50267105133388, 66.97877982281152], [52.08089948451178, 33.438620274496884]], [[92.50267105133388, 66.97877982281152], [153.6023754533389, -24.5412591937675]], [[-98.87360535091788, 28.208474698680618], [-126.0553889869697, -29.970240862799805]], [[-87.49732894866614, -66.97877982281152], [-102.59871618445999, 43.96462196024689]], [[-87.49732894866614, -66.97877982281152], [143.5668722348617, -27.401026759210882]], [[-87.49732894866614, -66.97877982281152], [141.06429662085537, -8.002404452095947]], [[177.03001974526342, 18.95486600535659], [39.11696574181895, 31.717015035539006]], [[-60.90558391612467, 52.9254349414855], [41.729768293546144, 32.89196105775573]], [[-60.90558391612467, 52.9254349414855], [176.9627693072353, 50.226982108308526]], [[-2.9699802547365746, -18.95486600535659], [16.46247761173722, 16.952266956417912]], [[-2.9699802547365746, -18.95486600535659], [133.80264776188739, 46.06480138737574]], [[-2.9699802547365746, -18.95486600535659], [-140.88303425818106, -31.717015035539006]], [[90.10114734349777, 51.05967448841859], [143.61708783207953, 48.90351391260156]], [[90.10114734349777, 51.05967448841859], [76.7621808440112, 3.1520078642293883]], [[90.10114734349777, 51.05967448841859], [173.20188106105655, -12.019610666951973]], [[-102.59871618445999, 43.96462196024689], [18.029520599041028, -46.42629677520099]], [[-102.59871618445999, 43.96462196024689], [-75.43856490691302, -34.73225111612563]], [[-89.89885265650223, -51.05967448841859], [-6.798118938943472, 12.019610666951973]], [[145.1648798991504, 23.012651754407994], [-76.04425701992274, 60.35284047383266]], [[-41.12448192261436, 65.12539377015402], [27.078772268954534, 41.02588772028767]], [[-41.12448192261436, 65.12539377015402], [16.46247761173722, 16.952266956417912]], [[-41.12448192261436, 65.12539377015402], [-0.419022301755631, 59.510924939345685]], [[-34.83512010084961, -23.012651754407994], [27.078772268954534, 41.02588772028767]], [[-34.83512010084961, -23.012651754407994], [-163.59301071204814, 52.96397814712071]], [[111.82663251729386, -17.393063497373404], [122.55598490333563, 11.64094683854435]], [[111.82663251729386, -17.393063497373404], [39.11696574181895, 31.717015035539006]], [[111.82663251729386, -17.393063497373404], [163.10764751115005, -31.754825315815122]], [[27.078772268954534, 41.02588772028767], [106.02612818569034, 1.3699078649176955]], [[27.078772268954534, 41.02588772028767], [143.61708783207953, 48.90351391260156]], [[27.078772268954534, 41.02588772028767], [-14.740509192890245, 16.894422971228646]], [[-152.9212277310455, -41.02588772028767], [-46.19735223811262, -46.06480138737574]], [[-152.9212277310455, -41.02588772028767], [-177.5122497578409, -4.40672684545622]], [[-68.17336748270615, 17.393063497373404], [-163.59301071204814, 52.96397814712071]], [[-68.17336748270615, 17.393063497373404], [-102.87334343034783, 18.901808291019826]], [[-1.284357023257217, 65.71020627860545], [76.87642088054822, 12.649196779655686]], [[-1.284357023257217, 65.71020627860545], [-163.59301071204814, 52.96397814712071]], [[41.729768293546144, 32.89196105775573], [132.0879879899595, 10.062200134797239]], [[41.729768293546144, 32.89196105775573], [-47.089953672063146, 14.249555159555472]], [[41.729768293546144, 32.89196105775573], [-161.970479400959, 46.42629677520099]], [[53.94461101303031, 29.970240862799805], [-26.397624546661095, 24.5412591937675]], [[53.94461101303031, 29.970240862799805], [143.61708783207953, 48.90351391260156]], [[76.87642088054822, 12.649196779655686], [-16.892352488849948, 31.754825315815122]], [[33.73809553919899, 44.67533100178078], [97.46667280217218, 27.10163777453917]], [[33.73809553919899, 44.67533100178078], [-43.60611641998406, 30.73324518808839]], [[43.84459064371563, 48.81353826664409], [53.53504078780665, -49.72610696404067]], [[64.59869302726975, -9.099489462647233], [132.0879879899595, 10.062200134797239]], [[-6.798118938943472, 12.019610666951973], [-36.38291216792046, -48.90351391260156]], [[41.67814396335608, -14.921163179433034], [-15.444049301517744, -40.421286137405254]], [[53.53504078780665, -49.72610696404067], [-167.93778528220082, -61.67081842712918]], [[132.0879879899595, 10.062200134797239], [69.0759895149526, -4.876306467251398]], [[-163.59301071204814, 52.96397814712071], [149.11438559412574, 54.89705811653004]], [[-163.59301071204814, 52.96397814712071], [104.561435093087, 34.73225111612563]], [[149.11438559412574, 54.89705811653004], [-140.88303425818106, -31.717015035539006]], [[106.02612818569034, 1.3699078649176955], [176.9627693072353, 50.226982108308526]], [[128.54941144055928, 29.6794244211036], [132.91004632793687, -14.249555159555472]], [[-145.43065922902812, 71.66697302327104], [-110.92401048504742, 4.876306467251398]], [[165.25949080710976, -16.894422971228646], [163.10764751115005, -31.754825315815122]], [[97.46667280217218, 27.10163777453917], [132.91004632793687, -14.249555159555472]], [[97.46667280217218, 27.10163777453917], [-121.2731276101008, 15.283843119923421]], [[97.46667280217218, 27.10163777453917], [103.95574298007726, -60.35284047383266]], [[97.46667280217218, 27.10163777453917], [-113.63542058449858, -10.4882209436199]], [[125.63772335931614, -65.91526696458104], [-140.88303425818106, -31.717015035539006]], [[-0.419022301755631, 59.510924939345685], [143.61708783207953, 48.90351391260156]], [[-76.04425701992274, 60.35284047383266], [-156.24987952224262, -9.27970273700402]], [[-76.04425701992274, 60.35284047383266], [-75.43856490691302, -34.73225111612563]], [[58.726872389899206, -15.283843119923421], [-156.24987952224262, -9.27970273700402]], [[-47.089953672063146, 14.249555159555472], [-161.970479400959, 46.42629677520099]], [[-47.089953672063146, 14.249555159555472], [-127.91910051548824, -33.438620274496884]], [[-26.397624546661095, 24.5412591937675], [-177.5122497578409, -4.40672684545622]], [[39.11696574181895, 31.717015035539006], [-43.60611641998406, 30.73324518808839]], [[-5.833227921405132, -0.025685082150687703], [-103.12357911945179, -12.649196779655686]], [[143.61708783207953, 48.90351391260156], [105.21064285551907, -74.6909907774964]], [[-139.02566481072094, 71.31126379373242], [105.21064285551907, -74.6909907774964]], [[137.7817275978375, -20.553791017388285], [178.7156429767428, -65.71020627860545]], [[12.062214717799192, 61.67081842712918], [69.0759895149526, -4.876306467251398]], [[12.062214717799192, 61.67081842712918], [31.208612117583797, -15.215889838688538]], [[12.062214717799192, 61.67081842712918], [-66.23724550556058, 30.397153203099446]], [[12.062214717799192, 61.67081842712918], [-36.43312776513831, 27.401026759210882]], [[52.08089948451178, 33.438620274496884], [2.487750242159126, 4.40672684545622]], [[-39.08181689333215, 36.28816821527225], [-107.74262158982205, 1.6184962388353836]], [[23.750120477757385, 9.27970273700402], [18.029520599041028, -46.42629677520099]], [[23.750120477757385, 9.27970273700402], [16.40698928795185, -52.96397814712071]], [[-129.75109542377194, 53.268187296339924], [-109.41942478727611, 3.037745511661745]], [[133.80264776188739, 46.06480138737574], [-14.740509192890245, 16.894422971228646]], [[-169.78098817444604, 74.71024209539934], [103.95574298007726, -60.35284047383266]], [[-169.78098817444604, 74.71024209539934], [-103.12357911945179, -12.649196779655686]], [[153.6023754533389, -24.5412591937675], [103.95574298007726, -60.35284047383266]], [[-54.36227664068386, 65.91526696458104], [-75.43856490691302, -34.73225111612563]], [[-54.36227664068386, 65.91526696458104], [-30.88561440587427, -54.89705811653004]], [[-66.23724550556058, 30.397153203099446], [-126.46495921219336, 49.72610696404067]], [[-14.740509192890245, 16.894422971228646], [-115.40130697273025, 9.099489462647233]], [[-75.43856490691302, -34.73225111612563], [16.40698928795185, -52.96397814712071]], [[34.569340770971884, -71.66697302327104], [173.20188106105655, -12.019610666951973]], [[-51.450588559440746, -29.6794244211036], [-146.26190446080102, -44.67533100178078]], [[-73.97387181430967, -1.3699078649176955], [-53.30678864444544, -63.80327096916372]], [[-30.88561440587427, -54.89705811653004], [-103.12357911945179, -12.649196779655686]], [[-47.912012010040534, -10.062200134797239], [-113.63542058449858, -10.4882209436199]], [[-163.53752238826277, -16.952266956417912], [-103.12357911945179, -12.649196779655686]], [[173.20188106105655, -12.019610666951973], [-146.26190446080102, -44.67533100178078]]]}}]}