{"type": "FeatureCollection", "name": "E8_proj_seed1535 sites", "properties": {"shape": "E8_proj_seed1535", "lock_lat": -85.0, "lock_lon": -115.0, "bearing": 310.0, "thresholds": {"close": 0.09892531138990063, "medium": 0.13489815189531904, "close_km": 11.0, "medium_km": 15.0, "dist_mode": "edge_exact"}}, "features": [{"type": "Feature", "properties": {"kind": "site", "name": "Glastonbury Tor", "dist_deg": 0.0839025, "dist_km": 9.329, "class": "close", "dist_source": "ks_full_grid"}, "geometry": {"type": "Point", "coordinates": [-2.7, 51.0]}}, {"type": "Feature", "properties": {"kind": "site", "name": "Shaftesbury", "dist_deg": 0.1475419, "dist_km": 16.406, "class": "far", "dist_source": "ks_full_grid"}, "geometry": {"type": "Point", "coordinates": [-2.195, 51.0]}}, {"type": "Feature", "properties": {"kind": "site", "name": "Brandenburg Gate", "dist_deg": 0.0482956, "dist_km": 5.37, "class": "close", "dist_source": "ks_full_grid"}, "geometry": {"type": "Point", "coordinates": [13.3778, 52.5164]}}, {"type": "Feature", "properties": {"kind": "site", "name": "Placa de Catalunya", "dist_deg": 0.0447086, "dist_km": 4.971, "class": "close", "dist_source": "ks_full_grid"}, "geometry": {"type": "Point", "coordinates": [2.17, 41.387]}}, {"type": "Feature", "properties": {"kind": "site", "name": "Island of the Sun", "dist_deg": 0.0364501, "dist_km": 4.053, "class": "close", "dist_source": "ks_full_grid"}, "geometry": {"type": "Point", "coordinates": [-69.1717, -16.0167]}}, {"type": "Feature", "properties": {"kind": "site", "name": "Plaza Mayor Lima", "dist_deg": 0.0066927, "dist_km": 0.744, "class": "close", "dist_source": "ks_full_grid"}, "geometry": {"type": "Point", "coordinates": [-77.0306, -12.0458]}}, {"type": "Feature", "properties": {"kind": "site", "name": "Rio Ucayali-Rio Maranon confluence", "dist_deg": 0.0381863, "dist_km": 4.246, "class": "close", "dist_source": "ks_full_grid"}, "geometry": {"type": "Point", "coordinates": [-73.45, -4.45]}}, {"type": "Feature", "properties": {"kind": "site", "name": "Uluru", "dist_deg": 0.0003278, "dist_km": 0.036, "class": "close", "dist_source": "ks_full_grid"}, "geometry": {"type": "Point", "coordinates": [130.9917, -25.3433]}}, {"type": "Feature", "properties": {"kind": "site", "name": "Kata Tjuta", "dist_deg": 0.0062269, "dist_km": 0.692, "class": "close", "dist_source": "ks_full_grid"}, "geometry": {"type": "Point", "coordinates": [130.7528, -25.2981]}}, {"type": "Feature", "properties": {"kind": "site", "name": "Nourlangie Rock", "dist_deg": 0.0420652, "dist_km": 4.677, "class": "close", "dist_source": "ks_full_grid"}, "geometry": {"type": "Point", "coordinates": [132.8111, -12.8669]}}, {"type": "Feature", "properties": {"kind": "site", "name": "Hamelin Pool", "dist_deg": 0.0364622, "dist_km": 4.054, "class": "close", "dist_source": "ks_full_grid"}, "geometry": {"type": "Point", "coordinates": [114.2003, -26.435]}}, {"type": "Feature", "properties": {"kind": "site", "name": "Tirta Empul", "dist_deg": 0.087234, "dist_km": 9.7, "class": "close", "dist_source": "ks_full_grid"}, "geometry": {"type": "Point", "coordinates": [115.3111, -8.4167]}}, {"type": "Feature", "properties": {"kind": "site", "name": "Borobudur", "dist_deg": 0.0058652, "dist_km": 0.652, "class": "close", "dist_source": "ks_full_grid"}, "geometry": {"type": "Point", "coordinates": [110.2042, -7.6081]}}, {"type": "Feature", "properties": {"kind": "site", "name": "Mount Kinabalu", "dist_deg": 0.0108234, "dist_km": 1.204, "class": "close", "dist_source": "ks_full_grid"}, "geometry": {"type": "Point", "coordinates": [116.5628, 6.0744]}}, {"type": "Feature", "properties": {"kind": "site", "name": "Mount Kailash", "dist_deg": 0.0140254, "dist_km": 1.56, "class": "close", "dist_source": "ks_full_grid"}, "geometry": {"type": "Point", "coordinates": [81.3125, 31.0675]}}, {"type": "Feature", "properties": {"kind": "site", "name": "Karakul Lake", "dist_deg": 0.0247112, "dist_km": 2.748, "class": "close", "dist_source": "ks_full_grid"}, "geometry": {"type": "Point", "coordinates": [73.4886, 39.0217]}}, {"type": "Feature", "properties": {"kind": "site", "name": "Sundarbans-Sagar Island", "dist_deg": 0.0068911, "dist_km": 0.766, "class": "close", "dist_source": "ks_full_grid"}, "geometry": {"type": "Point", "coordinates": [88.2953, 22.5564]}}, {"type": "Feature", "properties": {"kind": "site", "name": "Mount Shasta", "dist_deg": 0.048121, "dist_km": 5.351, "class": "close", "dist_source": "ks_full_grid"}, "geometry": {"type": "Point", "coordinates": [-122.31, 41.31]}}, {"type": "Feature", "properties": {"kind": "site", "name": "Kachina Peaks Wilderness", "dist_deg": 0.0242834, "dist_km": 2.7, "class": "close", "dist_source": "ks_full_grid"}, "geometry": {"type": "Point", "coordinates": [-111.6625, 35.3394]}}, {"type": "Feature", "properties": {"kind": "site", "name": "Golden Hinde", "dist_deg": 0.0063395, "dist_km": 0.705, "class": "close", "dist_source": "ks_full_grid"}, "geometry": {"type": "Point", "coordinates": [-125.4494, 49.6506]}}, {"type": "Feature", "properties": {"kind": "site", "name": "El Tule-Palenque", "dist_deg": 0.0036506, "dist_km": 0.406, "class": "close", "dist_source": "ks_full_grid"}, "geometry": {"type": "Point", "coordinates": [-91.9817, 17.51]}}, {"type": "Feature", "properties": {"kind": "site", "name": "Laguna Corcovado", "dist_deg": 0.0396588, "dist_km": 4.41, "class": "close", "dist_source": "ks_full_grid"}, "geometry": {"type": "Point", "coordinates": [-83.6167, 8.55]}}, {"type": "Feature", "properties": {"kind": "site", "name": "Cerro de la Silla", "dist_deg": 0.0156279, "dist_km": 1.738, "class": "close", "dist_source": "ks_full_grid"}, "geometry": {"type": "Point", "coordinates": [-100.3092, 25.6733]}}, {"type": "Feature", "properties": {"kind": "site", "name": "Mount Fuji", "dist_deg": 0.0025407, "dist_km": 0.282, "class": "close", "dist_source": "ks_full_grid"}, "geometry": {"type": "Point", "coordinates": [138.7317, 35.3628]}}, {"type": "Feature", "properties": {"kind": "site", "name": "Mani San", "dist_deg": 0.0231459, "dist_km": 2.574, "class": "close", "dist_source": "ks_full_grid"}, "geometry": {"type": "Point", "coordinates": [126.4347, 37.6117]}}, {"type": "Feature", "properties": {"kind": "site", "name": "Sefa Utaki", "dist_deg": 0.0798829, "dist_km": 8.883, "class": "close", "dist_source": "ks_full_grid"}, "geometry": {"type": "Point", "coordinates": [127.7669, 26.1444]}}, {"type": "Feature", "properties": {"kind": "site", "name": "Haleakala Crater", "dist_deg": 0.0166985, "dist_km": 1.857, "class": "close", "dist_source": "ks_full_grid"}, "geometry": {"type": "Point", "coordinates": [-156.1828, 20.7186]}}, {"type": "Feature", "properties": {"kind": "site", "name": "Midway Atoll", "dist_deg": 0.0335417, "dist_km": 3.73, "class": "close", "dist_source": "ks_full_grid"}, "geometry": {"type": "Point", "coordinates": [-177.3833, 28.25]}}, {"type": "Feature", "properties": {"kind": "site", "name": "Mauna Loa", "dist_deg": 0.0021862, "dist_km": 0.243, "class": "close", "dist_source": "ks_full_grid"}, "geometry": {"type": "Point", "coordinates": [-155.5356, 19.7569]}}, {"type": "Feature", "properties": {"kind": "site", "name": "Lake Rotopounamu", "dist_deg": 0.0826427, "dist_km": 9.19, "class": "close", "dist_source": "ks_full_grid"}, "geometry": {"type": "Point", "coordinates": [175.7372, -39.0258]}}, {"type": "Feature", "properties": {"kind": "site", "name": "Mount Panié", "dist_deg": 0.0269882, "dist_km": 3.001, "class": "close", "dist_source": "ks_full_grid"}, "geometry": {"type": "Point", "coordinates": [164.7706, -20.5894]}}, {"type": "Feature", "properties": {"kind": "site", "name": "Macquarie Island", "dist_deg": 0.0486203, "dist_km": 5.406, "class": "close", "dist_source": "ks_full_grid"}, "geometry": {"type": "Point", "coordinates": [158.8956, -54.5947]}}, {"type": "Feature", "properties": {"kind": "site", "name": "Great Pyramid of Giza", "dist_deg": 0.0008417, "dist_km": 0.094, "class": "close", "dist_source": "ks_full_grid"}, "geometry": {"type": "Point", "coordinates": [31.1342, 29.9792]}}, {"type": "Feature", "properties": {"kind": "site", "name": "Mount Sinai", "dist_deg": 0.0051738, "dist_km": 0.575, "class": "close", "dist_source": "ks_full_grid"}, "geometry": {"type": "Point", "coordinates": [33.973, 28.5394]}}, {"type": "Feature", "properties": {"kind": "site", "name": "Mount of Olives", "dist_deg": 0.0475396, "dist_km": 5.286, "class": "close", "dist_source": "ks_full_grid"}, "geometry": {"type": "Point", "coordinates": [35.2439, 31.778]}}, {"type": "Feature", "properties": {"kind": "site", "name": "Mecca", "dist_deg": 0.0138599, "dist_km": 1.541, "class": "close", "dist_source": "ks_full_grid"}, "geometry": {"type": "Point", "coordinates": [39.8147, 21.4275]}}, {"type": "Feature", "properties": {"kind": "site", "name": "Takht-e Soleiman", "dist_deg": 0.0546368, "dist_km": 6.075, "class": "close", "dist_source": "ks_full_grid"}, "geometry": {"type": "Point", "coordinates": [47.2361, 36.6033]}}, {"type": "Feature", "properties": {"kind": "site", "name": "Table Mountain", "dist_deg": 0.0329814, "dist_km": 3.667, "class": "close", "dist_source": "ks_full_grid"}, "geometry": {"type": "Point", "coordinates": [18.43, -33.9247]}}, {"type": "Feature", "properties": {"kind": "site", "name": "Pilansberg", "dist_deg": 0.0105671, "dist_km": 1.175, "class": "close", "dist_source": "ks_full_grid"}, "geometry": {"type": "Point", "coordinates": [27.0322, -25.2294]}}, {"type": "Feature", "properties": {"kind": "site", "name": "Mont-aux-Sources", "dist_deg": 0.0109886, "dist_km": 1.222, "class": "close", "dist_source": "ks_full_grid"}, "geometry": {"type": "Point", "coordinates": [28.8847, -28.7592]}}, {"type": "Feature", "properties": {"kind": "site", "name": "Sergiev Posad", "dist_deg": 0.0544339, "dist_km": 6.053, "class": "close", "dist_source": "ks_full_grid"}, "geometry": {"type": "Point", "coordinates": [37.6175, 55.7558]}}, {"type": "Feature", "properties": {"kind": "site", "name": "Mount Konzhakovsky Kamen", "dist_deg": 0.0073923, "dist_km": 0.822, "class": "close", "dist_source": "ks_full_grid"}, "geometry": {"type": "Point", "coordinates": [60.0, 59.0]}}, {"type": "Feature", "properties": {"kind": "site", "name": "Mount Elbrus", "dist_deg": 0.0359801, "dist_km": 4.001, "class": "close", "dist_source": "ks_full_grid"}, "geometry": {"type": "Point", "coordinates": [42.4392, 43.355]}}, {"type": "Feature", "properties": {"kind": "site", "name": "Po Lin Monastery", "dist_deg": 0.0946511, "dist_km": 10.525, "class": "close", "dist_source": "ks_full_grid"}, "geometry": {"type": "Point", "coordinates": [113.9078, 22.2556]}}, {"type": "Feature", "properties": {"kind": "site", "name": "Emei Shan", "dist_deg": 0.0065729, "dist_km": 0.731, "class": "close", "dist_source": "ks_full_grid"}, "geometry": {"type": "Point", "coordinates": [104.0756, 30.6511]}}, {"type": "Feature", "properties": {"kind": "site", "name": "Mount Pulag", "dist_deg": 0.006644, "dist_km": 0.739, "class": "close", "dist_source": "ks_full_grid"}, "geometry": {"type": "Point", "coordinates": [120.8836, 16.5836]}}, {"type": "Feature", "properties": {"kind": "site", "name": "Niagara Falls", "dist_deg": 0.03965, "dist_km": 4.409, "class": "close", "dist_source": "ks_full_grid"}, "geometry": {"type": "Point", "coordinates": [-79.0853, 43.0903]}}, {"type": "Feature", "properties": {"kind": "site", "name": "Pilot Knob State Park", "dist_deg": 0.0238001, "dist_km": 2.646, "class": "close", "dist_source": "ks_full_grid"}, "geometry": {"type": "Point", "coordinates": [-93.5533, 43.2528]}}, {"type": "Feature", "properties": {"kind": "site", "name": "Akimiski Island", "dist_deg": 0.0015282, "dist_km": 0.17, "class": "close", "dist_source": "ks_full_grid"}, "geometry": {"type": "Point", "coordinates": [-81.3172, 52.9872]}}, {"type": "Feature", "properties": {"kind": "site", "name": "Mount Dimlang", "dist_deg": 0.005293, "dist_km": 0.589, "class": "close", "dist_source": "ks_full_grid"}, "geometry": {"type": "Point", "coordinates": [11.75, 8.5]}}, {"type": "Feature", "properties": {"kind": "site", "name": "Lake Chad", "dist_deg": 0.0461385, "dist_km": 5.13, "class": "close", "dist_source": "ks_full_grid"}, "geometry": {"type": "Point", "coordinates": [14.1, 13.3303]}}, {"type": "Feature", "properties": {"kind": "site", "name": "Isangila Falls", "dist_deg": 0.0790896, "dist_km": 8.794, "class": "close", "dist_source": "ks_full_grid"}, "geometry": {"type": "Point", "coordinates": [12.0, -6.0]}}, {"type": "Feature", "properties": {"kind": "site", "name": "Marco Zero Recife", "dist_deg": 0.0306748, "dist_km": 3.411, "class": "close", "dist_source": "ks_full_grid"}, "geometry": {"type": "Point", "coordinates": [-34.8711, -8.0633]}}, {"type": "Feature", "properties": {"kind": "site", "name": "Peter and Paul Rocks", "dist_deg": 0.2275638, "dist_km": 25.304, "class": "far", "dist_source": "ks_full_grid"}, "geometry": {"type": "Point", "coordinates": [-29.3353, -0.9169]}}, {"type": "Feature", "properties": {"kind": "site", "name": "Parnaiba River Headwaters", "dist_deg": 0.0152788, "dist_km": 1.699, "class": "close", "dist_source": "ks_full_grid"}, "geometry": {"type": "Point", "coordinates": [-43.1747, -8.3231]}}, {"type": "Feature", "properties": {"kind": "site", "name": "Plaza de Mayo", "dist_deg": 0.0014792, "dist_km": 0.165, "class": "close", "dist_source": "ks_full_grid"}, "geometry": {"type": "Point", "coordinates": [-58.3722, -34.6083]}}, {"type": "Feature", "properties": {"kind": "site", "name": "Iguazu Falls", "dist_deg": 0.0444796, "dist_km": 4.946, "class": "close", "dist_source": "ks_full_grid"}, "geometry": {"type": "Point", "coordinates": [-54.4453, -25.6803]}}, {"type": "Feature", "properties": {"kind": "site", "name": "Plaza de Armas Santiago", "dist_deg": 0.0230055, "dist_km": 2.558, "class": "close", "dist_source": "ks_full_grid"}, "geometry": {"type": "Point", "coordinates": [-70.6519, -33.4431]}}, {"type": "Feature", "properties": {"kind": "site", "name": "Jebel Toubkal", "dist_deg": 0.0086328, "dist_km": 0.96, "class": "close", "dist_source": "ks_full_grid"}, "geometry": {"type": "Point", "coordinates": [-7.9161, 31.0619]}}, {"type": "Feature", "properties": {"kind": "site", "name": "Pico de Teide", "dist_deg": 0.0075764, "dist_km": 0.843, "class": "close", "dist_source": "ks_full_grid"}, "geometry": {"type": "Point", "coordinates": [-16.6333, 28.2667]}}, {"type": "Feature", "properties": {"kind": "site", "name": "Chott el Djerid", "dist_deg": 0.0498074, "dist_km": 5.538, "class": "close", "dist_source": "ks_full_grid"}, "geometry": {"type": "Point", "coordinates": [9.5375, 33.8869]}}, {"type": "Feature", "properties": {"kind": "site", "name": "Teatro Amazonas", "dist_deg": 0.0345107, "dist_km": 3.837, "class": "close", "dist_source": "ks_full_grid"}, "geometry": {"type": "Point", "coordinates": [-60.0231, -3.1306]}}, {"type": "Feature", "properties": {"kind": "site", "name": "Angel Falls", "dist_deg": 0.0388758, "dist_km": 4.323, "class": "close", "dist_source": "ks_full_grid"}, "geometry": {"type": "Point", "coordinates": [-62.5356, 5.9675]}}, {"type": "Feature", "properties": {"kind": "site", "name": "Lago Arari", "dist_deg": 0.0081511, "dist_km": 0.906, "class": "close", "dist_source": "ks_full_grid"}, "geometry": {"type": "Point", "coordinates": [-58.75, -3.4167]}}, {"type": "Feature", "properties": {"kind": "site", "name": "Christ the Redeemer", "dist_deg": 0.0020758, "dist_km": 0.231, "class": "close", "dist_source": "ks_full_grid"}, "geometry": {"type": "Point", "coordinates": [-43.2106, -22.9519]}}, {"type": "Feature", "properties": {"kind": "site", "name": "Praca dos Tres Poderes", "dist_deg": 0.0656879, "dist_km": 7.304, "class": "close", "dist_source": "ks_full_grid"}, "geometry": {"type": "Point", "coordinates": [-47.8611, -15.7997]}}, {"type": "Feature", "properties": {"kind": "site", "name": "Terreiro de Jesus", "dist_deg": 0.0209635, "dist_km": 2.331, "class": "close", "dist_source": "ks_full_grid"}, "geometry": {"type": "Point", "coordinates": [-38.51, -12.9733]}}, {"type": "Feature", "properties": {"kind": "site", "name": "High Tatra", "dist_deg": 0.1287583, "dist_km": 14.317, "class": "medium", "dist_source": "ks_full_grid"}, "geometry": {"type": "Point", "coordinates": [20.0, 49.1667]}}, {"type": "Feature", "properties": {"kind": "site", "name": "Stortorget Stockholm", "dist_deg": 0.0287336, "dist_km": 3.195, "class": "close", "dist_source": "ks_full_grid"}, "geometry": {"type": "Point", "coordinates": [18.0708, 59.325]}}, {"type": "Feature", "properties": {"kind": "site", "name": "Mount Olympus", "dist_deg": 0.081926, "dist_km": 9.11, "class": "close", "dist_source": "ks_full_grid"}, "geometry": {"type": "Point", "coordinates": [22.35, 40.0833]}}, {"type": "Feature", "properties": {"kind": "site", "name": "Arunachala Hill", "dist_deg": 0.0364544, "dist_km": 4.053, "class": "close", "dist_source": "ks_full_grid"}, "geometry": {"type": "Point", "coordinates": [79.0517, 12.2406]}}, {"type": "Feature", "properties": {"kind": "site", "name": "Piram Island", "dist_deg": 0.0488902, "dist_km": 5.436, "class": "close", "dist_source": "ks_full_grid"}, "geometry": {"type": "Point", "coordinates": [72.35, 21.6]}}, {"type": "Feature", "properties": {"kind": "site", "name": "Adam’s Peak", "dist_deg": 0.0525779, "dist_km": 5.846, "class": "close", "dist_source": "ks_full_grid"}, "geometry": {"type": "Point", "coordinates": [80.4997, 6.8092]}}, {"type": "Feature", "properties": {"kind": "site", "name": "Uhuru Peak Kilimanjaro", "dist_deg": 0.0473419, "dist_km": 5.264, "class": "close", "dist_source": "ks_full_grid"}, "geometry": {"type": "Point", "coordinates": [37.3533, -3.0758]}}, {"type": "Feature", "properties": {"kind": "site", "name": "Lake Victoria (Ukerewe Island)", "dist_deg": 0.0021215, "dist_km": 0.236, "class": "close", "dist_source": "ks_full_grid"}, "geometry": {"type": "Point", "coordinates": [32.9, -0.9833]}}, {"type": "Feature", "properties": {"kind": "site", "name": "Mount Nkungwe", "dist_deg": 0.0230987, "dist_km": 2.568, "class": "close", "dist_source": "ks_full_grid"}, "geometry": {"type": "Point", "coordinates": [29.8, -6.1167]}}, {"type": "Feature", "properties": {"kind": "site", "name": "Mount Belukha", "dist_deg": 0.052103, "dist_km": 5.794, "class": "close", "dist_source": "ks_full_grid"}, "geometry": {"type": "Point", "coordinates": [88.9, 48.5]}}, {"type": "Feature", "properties": {"kind": "site", "name": "Uzynaral Strait", "dist_deg": 0.0442933, "dist_km": 4.925, "class": "close", "dist_source": "ks_full_grid"}, "geometry": {"type": "Point", "coordinates": [75.5, 46.6]}}, {"type": "Feature", "properties": {"kind": "site", "name": "Lake Baikal (Cape Khoboy)", "dist_deg": 0.0209787, "dist_km": 2.333, "class": "close", "dist_source": "ks_full_grid"}, "geometry": {"type": "Point", "coordinates": [107.6667, 53.1667]}}, {"type": "Feature", "properties": {"kind": "site", "name": "Forbidden City Beijing", "dist_deg": 0.0283384, "dist_km": 3.151, "class": "close", "dist_source": "ks_full_grid"}, "geometry": {"type": "Point", "coordinates": [116.4075, 39.9042]}}, {"type": "Feature", "properties": {"kind": "site", "name": "Tai Shan", "dist_deg": 0.0085465, "dist_km": 0.95, "class": "close", "dist_source": "ks_full_grid"}, "geometry": {"type": "Point", "coordinates": [117.3333, 36.5]}}, {"type": "Feature", "properties": {"kind": "site", "name": "Karakorum", "dist_deg": 0.0473461, "dist_km": 5.265, "class": "close", "dist_source": "ks_full_grid"}, "geometry": {"type": "Point", "coordinates": [102.8239, 47.1972]}}, {"type": "Feature", "properties": {"kind": "site", "name": "Boulder Colorado", "dist_deg": 0.0833355, "dist_km": 9.267, "class": "close", "dist_source": "ks_full_grid"}, "geometry": {"type": "Point", "coordinates": [-105.2706, 40.015]}}, {"type": "Feature", "properties": {"kind": "site", "name": "Mount Whitney", "dist_deg": 0.0053744, "dist_km": 0.598, "class": "close", "dist_source": "ks_full_grid"}, "geometry": {"type": "Point", "coordinates": [-118.292, 36.5786]}}, {"type": "Feature", "properties": {"kind": "site", "name": "Cahokia Mounds", "dist_deg": 0.0503508, "dist_km": 5.599, "class": "close", "dist_source": "ks_full_grid"}, "geometry": {"type": "Point", "coordinates": [-90.0678, 38.6503]}}, {"type": "Feature", "properties": {"kind": "site", "name": "Three Sisters Blue Mountains", "dist_deg": 0.0227018, "dist_km": 2.524, "class": "close", "dist_source": "ks_full_grid"}, "geometry": {"type": "Point", "coordinates": [150.5, -33.75]}}, {"type": "Feature", "properties": {"kind": "site", "name": "Mount Picton Tasmania", "dist_deg": 0.0141288, "dist_km": 1.571, "class": "close", "dist_source": "ks_full_grid"}, "geometry": {"type": "Point", "coordinates": [146.6075, -43.1575]}}, {"type": "Feature", "properties": {"kind": "site", "name": "Fraser Island", "dist_deg": 0.0303014, "dist_km": 3.369, "class": "close", "dist_source": "ks_full_grid"}, "geometry": {"type": "Point", "coordinates": [153.0294, -25.3925]}}, {"type": "Feature", "properties": {"kind": "site", "name": "Cerro de Puntas", "dist_deg": 0.0374807, "dist_km": 4.168, "class": "close", "dist_source": "ks_full_grid"}, "geometry": {"type": "Point", "coordinates": [-67.2639, 18.3561]}}, {"type": "Feature", "properties": {"kind": "site", "name": "Great Exuma Island", "dist_deg": 0.008197, "dist_km": 0.911, "class": "close", "dist_source": "ks_full_grid"}, "geometry": {"type": "Point", "coordinates": [-75.8167, 23.5167]}}, {"type": "Feature", "properties": {"kind": "site", "name": "Montego Bay", "dist_deg": 0.0253372, "dist_km": 2.817, "class": "close", "dist_source": "ks_full_grid"}, "geometry": {"type": "Point", "coordinates": [-77.9167, 18.4667]}}, {"type": "Feature", "properties": {"kind": "site", "name": "Mount Simpson PNG", "dist_deg": 0.0507295, "dist_km": 5.641, "class": "close", "dist_source": "ks_full_grid"}, "geometry": {"type": "Point", "coordinates": [148.0, -9.5]}}, {"type": "Feature", "properties": {"kind": "site", "name": "Popomanaseu", "dist_deg": 0.0085831, "dist_km": 0.954, "class": "close", "dist_source": "ks_full_grid"}, "geometry": {"type": "Point", "coordinates": [160.0667, -9.7]}}, {"type": "Feature", "properties": {"kind": "site", "name": "Puncak Jaya", "dist_deg": 0.0035978, "dist_km": 0.4, "class": "close", "dist_source": "ks_full_grid"}, "geometry": {"type": "Point", "coordinates": [138.5, -4.5]}}, {"type": "Feature", "properties": {"kind": "site", "name": "Dakar", "dist_deg": 0.0639523, "dist_km": 7.111, "class": "close", "dist_source": "ks_full_grid"}, "geometry": {"type": "Point", "coordinates": [-17.3333, 14.75]}}, {"type": "Feature", "properties": {"kind": "site", "name": "Timbuktu", "dist_deg": 0.034319, "dist_km": 3.816, "class": "close", "dist_source": "ks_full_grid"}, "geometry": {"type": "Point", "coordinates": [-3.5, 15.0]}}, {"type": "Feature", "properties": {"kind": "site", "name": "Fogo Cape Verde", "dist_deg": 0.0263266, "dist_km": 2.927, "class": "close", "dist_source": "ks_full_grid"}, "geometry": {"type": "Point", "coordinates": [-24.3817, 14.9133]}}, {"type": "Feature", "properties": {"kind": "site", "name": "Tsodilo Hill", "dist_deg": 0.002673, "dist_km": 0.297, "class": "close", "dist_source": "ks_full_grid"}, "geometry": {"type": "Point", "coordinates": [21.7667, -18.75]}}, {"type": "Feature", "properties": {"kind": "site", "name": "Kgalagadi Transfrontier Park", "dist_deg": 0.033033, "dist_km": 3.673, "class": "close", "dist_source": "ks_full_grid"}, "geometry": {"type": "Point", "coordinates": [20.7122, -25.2872]}}, {"type": "Feature", "properties": {"kind": "site", "name": "Great Zimbabwe", "dist_deg": 0.0091757, "dist_km": 1.02, "class": "close", "dist_source": "ks_full_grid"}, "geometry": {"type": "Point", "coordinates": [30.9275, -20.2672]}}, {"type": "Feature", "properties": {"kind": "site", "name": "Khao Nan Mia", "dist_deg": 0.1215088, "dist_km": 13.511, "class": "medium", "dist_source": "ks_full_grid"}, "geometry": {"type": "Point", "coordinates": [99.5941, 8.8594]}}, {"type": "Feature", "properties": {"kind": "site", "name": "Lake Toba", "dist_deg": 0.0157599, "dist_km": 1.752, "class": "close", "dist_source": "ks_full_grid"}, "geometry": {"type": "Point", "coordinates": [98.8756, 2.6845]}}, {"type": "Feature", "properties": {"kind": "site", "name": "Angkor Wat", "dist_deg": 0.0285561, "dist_km": 3.175, "class": "close", "dist_source": "ks_full_grid"}, "geometry": {"type": "Point", "coordinates": [103.86, 13.4256]}}, {"type": "Feature", "properties": {"kind": "site", "name": "Mount Tomaniivi", "dist_deg": 0.0122854, "dist_km": 1.366, "class": "close", "dist_source": "ks_full_grid"}, "geometry": {"type": "Point", "coordinates": [178.0167, -17.6167]}}, {"type": "Feature", "properties": {"kind": "site", "name": "Tarawa Island", "dist_deg": 0.0198411, "dist_km": 2.206, "class": "close", "dist_source": "ks_full_grid"}, "geometry": {"type": "Point", "coordinates": [173.0764, 1.4403]}}, {"type": "Feature", "properties": {"kind": "site", "name": "Mount Silisili", "dist_deg": 0.0390457, "dist_km": 4.342, "class": "close", "dist_source": "ks_full_grid"}, "geometry": {"type": "Point", "coordinates": [-172.4858, -13.6183]}}, {"type": "Feature", "properties": {"kind": "site", "name": "Denali (Mount McKinley)", "dist_deg": 0.0698883, "dist_km": 7.771, "class": "close", "dist_source": "ks_full_grid"}, "geometry": {"type": "Point", "coordinates": [-149.4289, 63.0694]}}, {"type": "Feature", "properties": {"kind": "site", "name": "Great Bear Lake", "dist_deg": 0.0078709, "dist_km": 0.875, "class": "close", "dist_source": "ks_full_grid"}, "geometry": {"type": "Point", "coordinates": [-120.3833, 66.1197]}}, {"type": "Feature", "properties": {"kind": "site", "name": "Fox Islands Aleutian", "dist_deg": 0.0858259, "dist_km": 9.543, "class": "close", "dist_source": "ks_full_grid"}, "geometry": {"type": "Point", "coordinates": [-166.5833, 53.7667]}}, {"type": "Feature", "properties": {"kind": "site", "name": "Mount Maromokotro", "dist_deg": 0.0284186, "dist_km": 3.16, "class": "close", "dist_source": "ks_full_grid"}, "geometry": {"type": "Point", "coordinates": [49.4847, -13.0183]}}, {"type": "Feature", "properties": {"kind": "site", "name": "Piton des Neiges", "dist_deg": 0.0147472, "dist_km": 1.64, "class": "close", "dist_source": "ks_full_grid"}, "geometry": {"type": "Point", "coordinates": [55.7333, -21.3167]}}, {"type": "Feature", "properties": {"kind": "site", "name": "Morne Seychellois", "dist_deg": 0.0411716, "dist_km": 4.578, "class": "close", "dist_source": "ks_full_grid"}, "geometry": {"type": "Point", "coordinates": [55.45, -4.6167]}}, {"type": "Feature", "properties": {"kind": "site", "name": "Mount Damavand", "dist_deg": 0.001012, "dist_km": 0.113, "class": "close", "dist_source": "ks_full_grid"}, "geometry": {"type": "Point", "coordinates": [52.1097, 35.9547]}}, {"type": "Feature", "properties": {"kind": "site", "name": "Vozrozhdeniya Island", "dist_deg": 0.1381806, "dist_km": 15.365, "class": "far", "dist_source": "ks_full_grid"}, "geometry": {"type": "Point", "coordinates": [59.1419, 45.0917]}}, {"type": "Feature", "properties": {"kind": "site", "name": "Malek Siah Kuh", "dist_deg": 0.0422737, "dist_km": 4.701, "class": "close", "dist_source": "ks_full_grid"}, "geometry": {"type": "Point", "coordinates": [60.8636, 29.4892]}}, {"type": "Feature", "properties": {"kind": "site", "name": "Klyuchevskaya Sopka", "dist_deg": 0.0439789, "dist_km": 4.89, "class": "close", "dist_source": "ks_full_grid"}, "geometry": {"type": "Point", "coordinates": [160.6428, 56.0581]}}, {"type": "Feature", "properties": {"kind": "site", "name": "Sakhalin Island", "dist_deg": 0.0016618, "dist_km": 0.185, "class": "close", "dist_source": "ks_full_grid"}, "geometry": {"type": "Point", "coordinates": [143.0028, 50.2247]}}, {"type": "Feature", "properties": {"kind": "site", "name": "Cherskiy", "dist_deg": 0.0542904, "dist_km": 6.037, "class": "close", "dist_source": "ks_full_grid"}, "geometry": {"type": "Point", "coordinates": [-115.9872, 34.6272]}}, {"type": "Feature", "properties": {"kind": "site", "name": "Easter Island", "dist_deg": 0.0214218, "dist_km": 2.382, "class": "close", "dist_source": "ks_full_grid"}, "geometry": {"type": "Point", "coordinates": [-109.3664, -27.1211]}}, {"type": "Feature", "properties": {"kind": "site", "name": "Reykjavik-Thingvellir", "dist_deg": 0.0579059, "dist_km": 6.439, "class": "close", "dist_source": "ks_full_grid"}, "geometry": {"type": "Point", "coordinates": [-21.8953, 64.1353]}}, {"type": "Feature", "properties": {"kind": "site", "name": "Callanish", "dist_deg": 0.0232999, "dist_km": 2.591, "class": "close", "dist_source": "ks_full_grid"}, "geometry": {"type": "Point", "coordinates": [-6.7367, 58.1997]}}, {"type": "Feature", "properties": {"kind": "site", "name": "Nuuk Greenland", "dist_deg": 0.05569, "dist_km": 6.192, "class": "close", "dist_source": "ks_full_grid"}, "geometry": {"type": "Point", "coordinates": [-51.7214, 64.1836]}}, {"type": "Feature", "properties": {"kind": "site", "name": "Port Stanley", "dist_deg": 0.052398, "dist_km": 5.826, "class": "close", "dist_source": "ks_full_grid"}, "geometry": {"type": "Point", "coordinates": [-57.8492, -51.7011]}}, {"type": "Feature", "properties": {"kind": "site", "name": "South Georgia Island", "dist_deg": 0.0013726, "dist_km": 0.153, "class": "close", "dist_source": "ks_full_grid"}, "geometry": {"type": "Point", "coordinates": [-36.75, -54.25]}}, {"type": "Feature", "properties": {"kind": "site", "name": "Lake Buenos Aires", "dist_deg": 0.0032102, "dist_km": 0.357, "class": "close", "dist_source": "ks_full_grid"}, "geometry": {"type": "Point", "coordinates": [-71.3675, -46.5033]}}, {"type": "Feature", "properties": {"kind": "site", "name": "Wood Buffalo National Park", "dist_deg": 0.0360307, "dist_km": 4.006, "class": "close", "dist_source": "ks_full_grid"}, "geometry": {"type": "Point", "coordinates": [-112.8542, 58.9239]}}, {"type": "Feature", "properties": {"kind": "site", "name": "Adelaide Peninsula", "dist_deg": 0.0282032, "dist_km": 3.136, "class": "close", "dist_source": "ks_full_grid"}, "geometry": {"type": "Point", "coordinates": [-97.8, 68.0833]}}, {"type": "Feature", "properties": {"kind": "site", "name": "Bay of God’s Mercy", "dist_deg": 0.0097531, "dist_km": 1.085, "class": "close", "dist_source": "ks_full_grid"}, "geometry": {"type": "Point", "coordinates": [-84.1333, 64.6]}}, {"type": "Feature", "properties": {"kind": "site", "name": "Ascension Island", "dist_deg": 0.0468084, "dist_km": 5.205, "class": "close", "dist_source": "ks_full_grid"}, "geometry": {"type": "Point", "coordinates": [-14.3558, -7.9467]}}, {"type": "Feature", "properties": {"kind": "site", "name": "St. Helena Island", "dist_deg": 0.0366983, "dist_km": 4.081, "class": "close", "dist_source": "ks_full_grid"}, "geometry": {"type": "Point", "coordinates": [-5.7167, -15.9333]}}, {"type": "Feature", "properties": {"kind": "site", "name": "Mount Loma", "dist_deg": 0.0850293, "dist_km": 9.455, "class": "close", "dist_source": "ks_full_grid"}, "geometry": {"type": "Point", "coordinates": [-11.117, 9.217]}}, {"type": "Feature", "properties": {"kind": "site", "name": "Lena-Muna juncture", "dist_deg": 0.0142406, "dist_km": 1.583, "class": "close", "dist_source": "ks_full_grid"}, "geometry": {"type": "Point", "coordinates": [123.2833, 68.0167]}}, {"type": "Feature", "properties": {"kind": "site", "name": "Lake Ozero Taymyr", "dist_deg": 0.010375, "dist_km": 1.154, "class": "close", "dist_source": "ks_full_grid"}, "geometry": {"type": "Point", "coordinates": [101.7167, 74.5167]}}, {"type": "Feature", "properties": {"kind": "site", "name": "Tunguska", "dist_deg": 0.09268, "dist_km": 10.306, "class": "close", "dist_source": "ks_full_grid"}, "geometry": {"type": "Point", "coordinates": [102.7861, 52.6528]}}, {"type": "Feature", "properties": {"kind": "site", "name": "Mount Ross Kerguelen", "dist_deg": 0.0086494, "dist_km": 0.962, "class": "close", "dist_source": "ks_full_grid"}, "geometry": {"type": "Point", "coordinates": [69.5, -49.5833]}}, {"type": "Feature", "properties": {"kind": "site", "name": "Big Ben Heard Island", "dist_deg": 0.0305523, "dist_km": 3.397, "class": "close", "dist_source": "ks_full_grid"}, "geometry": {"type": "Point", "coordinates": [73.525, -53.1083]}}, {"type": "Feature", "properties": {"kind": "site", "name": "Prydz Bay", "dist_deg": 0.023475, "dist_km": 2.61, "class": "close", "dist_source": "ks_full_grid"}, "geometry": {"type": "Point", "coordinates": [75.0, -69.0]}}, {"type": "Feature", "properties": {"kind": "site", "name": "Mount Lamlam Guam", "dist_deg": 0.0409797, "dist_km": 4.557, "class": "close", "dist_source": "ks_full_grid"}, "geometry": {"type": "Point", "coordinates": [144.6628, 13.3386]}}, {"type": "Feature", "properties": {"kind": "site", "name": "Yap Island", "dist_deg": 0.0025033, "dist_km": 0.278, "class": "close", "dist_source": "ks_full_grid"}, "geometry": {"type": "Point", "coordinates": [134.3833, -2.55]}}, {"type": "Feature", "properties": {"kind": "site", "name": "Nan Madol", "dist_deg": 0.0009035, "dist_km": 0.101, "class": "close", "dist_source": "ks_full_grid"}, "geometry": {"type": "Point", "coordinates": [158.3358, 6.8444]}}, {"type": "Feature", "properties": {"kind": "site", "name": "Mount Orohena", "dist_deg": 0.0008066, "dist_km": 0.09, "class": "close", "dist_source": "ks_full_grid"}, "geometry": {"type": "Point", "coordinates": [-149.4842, -17.6197]}}, {"type": "Feature", "properties": {"kind": "site", "name": "Hivaoa Island", "dist_deg": 7.43e-05, "dist_km": 0.008, "class": "close", "dist_source": "ks_full_grid"}, "geometry": {"type": "Point", "coordinates": [-139.0211, -9.7547]}}, {"type": "Feature", "properties": {"kind": "site", "name": "Kiritimati (Christmas Island)", "dist_deg": 0.0001452, "dist_km": 0.016, "class": "close", "dist_source": "ks_full_grid"}, "geometry": {"type": "Point", "coordinates": [-157.4278, 1.8722]}}, {"type": "Feature", "properties": {"kind": "site", "name": "Graciosa Azores", "dist_deg": 0.0100112, "dist_km": 1.113, "class": "close", "dist_source": "ks_full_grid"}, "geometry": {"type": "Point", "coordinates": [-28.0069, 39.0525]}}, {"type": "Feature", "properties": {"kind": "site", "name": "St. George’s Island Bermuda", "dist_deg": 0.0083812, "dist_km": 0.932, "class": "close", "dist_source": "ks_full_grid"}, "geometry": {"type": "Point", "coordinates": [-64.7786, 32.2811]}}, {"type": "Feature", "properties": {"kind": "site", "name": "Lisbon Portugal", "dist_deg": 0.0393379, "dist_km": 4.374, "class": "close", "dist_source": "ks_full_grid"}, "geometry": {"type": "Point", "coordinates": [-9.1356, 38.7069]}}, {"type": "Feature", "properties": {"kind": "site", "name": "Longyearbyen Spitsbergen", "dist_deg": 0.0219685, "dist_km": 2.443, "class": "close", "dist_source": "ks_full_grid"}, "geometry": {"type": "Point", "coordinates": [18.1642, 78.6481]}}, {"type": "Feature", "properties": {"kind": "site", "name": "Independence Fjord", "dist_deg": 0.003493, "dist_km": 0.388, "class": "close", "dist_source": "ks_full_grid"}, "geometry": {"type": "Point", "coordinates": [-28.2725, 81.9247]}}, {"type": "Feature", "properties": {"kind": "site", "name": "Yuzhny Novaya Zemlya", "dist_deg": 0.0017954, "dist_km": 0.2, "class": "close", "dist_source": "ks_full_grid"}, "geometry": {"type": "Point", "coordinates": [80.3667, 73.4833]}}, {"type": "Feature", "properties": {"kind": "site", "name": "Mount Hope Antarctica", "dist_deg": 0.0502446, "dist_km": 5.587, "class": "close", "dist_source": "ks_full_grid"}, "geometry": {"type": "Point", "coordinates": [171.0, -83.75]}}, {"type": "Feature", "properties": {"kind": "site", "name": "Bear Island Antarctica", "dist_deg": 0.0216859, "dist_km": 2.411, "class": "close", "dist_source": "ks_full_grid"}, "geometry": {"type": "Point", "coordinates": [-67.06, -68.18]}}, {"type": "Feature", "properties": {"kind": "site", "name": "Elephant Island", "dist_deg": 0.0283085, "dist_km": 3.148, "class": "close", "dist_source": "ks_full_grid"}, "geometry": {"type": "Point", "coordinates": [-55.1167, -61.1333]}}, {"type": "Feature", "properties": {"kind": "site", "name": "South Pole", "dist_deg": 0.0333751, "dist_km": 3.711, "class": "close", "dist_source": "ks_full_grid"}, "geometry": {"type": "Point", "coordinates": [0.0, -90.0]}}, {"type": "Feature", "properties": {"kind": "site", "name": "South Magnetic Pole", "dist_deg": 0.0167029, "dist_km": 1.857, "class": "close", "dist_source": "ks_full_grid"}, "geometry": {"type": "Point", "coordinates": [138.0, -67.0]}}, {"type": "Feature", "properties": {"kind": "site", "name": "Sanae Antarctica", "dist_deg": 0.010064, "dist_km": 1.119, "class": "close", "dist_source": "ks_full_grid"}, "geometry": {"type": "Point", "coordinates": [127.5233, -71.6728]}}, {"type": "Feature", "properties": {"kind": "site", "name": "Halifax Nova Scotia", "dist_deg": 0.0256424, "dist_km": 2.851, "class": "close", "dist_source": "ks_full_grid"}, "geometry": {"type": "Point", "coordinates": [-63.5753, 44.6489]}}, {"type": "Feature", "properties": {"kind": "site", "name": "Washington DC", "dist_deg": 0.0701402, "dist_km": 7.799, "class": "close", "dist_source": "ks_full_grid"}, "geometry": {"type": "Point", "coordinates": [-77.0364, 38.895]}}]}