{"type": "FeatureCollection", "name": "E8_proj_seed1472 sites", "properties": {"shape": "E8_proj_seed1472", "lock_lat": 5.0, "lock_lon": -5.0, "bearing": 200.0, "thresholds": {"close": 0.09892531138990063, "medium": 0.13489815189531904, "close_km": 11.0, "medium_km": 15.0, "dist_mode": "edge_exact"}}, "features": [{"type": "Feature", "properties": {"kind": "site", "name": "Glastonbury Tor", "dist_deg": 0.0240562, "dist_km": 2.675, "class": "close", "dist_source": "ks_full_grid", "edges_supported": 1}, "geometry": {"type": "Point", "coordinates": [-2.7, 51.0]}}, {"type": "Feature", "properties": {"kind": "site", "name": "Shaftesbury", "dist_deg": 0.0814801, "dist_km": 9.06, "class": "close", "dist_source": "ks_full_grid", "edges_supported": 1}, "geometry": {"type": "Point", "coordinates": [-2.195, 51.0]}}, {"type": "Feature", "properties": {"kind": "site", "name": "Brandenburg Gate", "dist_deg": 0.0193126, "dist_km": 2.147, "class": "close", "dist_source": "ks_full_grid", "edges_supported": 3}, "geometry": {"type": "Point", "coordinates": [13.3778, 52.5164]}}, {"type": "Feature", "properties": {"kind": "site", "name": "Placa de Catalunya", "dist_deg": 0.0447556, "dist_km": 4.977, "class": "close", "dist_source": "ks_full_grid", "edges_supported": 1}, "geometry": {"type": "Point", "coordinates": [2.17, 41.387]}}, {"type": "Feature", "properties": {"kind": "site", "name": "Island of the Sun", "dist_deg": 0.1174211, "dist_km": 13.057, "class": "medium", "dist_source": "ks_full_grid", "edges_supported": 0}, "geometry": {"type": "Point", "coordinates": [-69.1717, -16.0167]}}, {"type": "Feature", "properties": {"kind": "site", "name": "Plaza Mayor Lima", "dist_deg": 0.0396696, "dist_km": 4.411, "class": "close", "dist_source": "ks_full_grid", "edges_supported": 2}, "geometry": {"type": "Point", "coordinates": [-77.0306, -12.0458]}}, {"type": "Feature", "properties": {"kind": "site", "name": "Rio Ucayali-Rio Maranon confluence", "dist_deg": 0.0174317, "dist_km": 1.938, "class": "close", "dist_source": "ks_full_grid", "edges_supported": 3}, "geometry": {"type": "Point", "coordinates": [-73.45, -4.45]}}, {"type": "Feature", "properties": {"kind": "site", "name": "Uluru", "dist_deg": 0.0113498, "dist_km": 1.262, "class": "close", "dist_source": "ks_full_grid", "edges_supported": 2}, "geometry": {"type": "Point", "coordinates": [130.9917, -25.3433]}}, {"type": "Feature", "properties": {"kind": "site", "name": "Kata Tjuta", "dist_deg": 0.0027246, "dist_km": 0.303, "class": "close", "dist_source": "ks_full_grid", "edges_supported": 2}, "geometry": {"type": "Point", "coordinates": [130.7528, -25.2981]}}, {"type": "Feature", "properties": {"kind": "site", "name": "Nourlangie Rock", "dist_deg": 0.0769216, "dist_km": 8.553, "class": "close", "dist_source": "ks_full_grid", "edges_supported": 1}, "geometry": {"type": "Point", "coordinates": [132.8111, -12.8669]}}, {"type": "Feature", "properties": {"kind": "site", "name": "Hamelin Pool", "dist_deg": 0.0274932, "dist_km": 3.057, "class": "close", "dist_source": "ks_full_grid", "edges_supported": 2}, "geometry": {"type": "Point", "coordinates": [114.2003, -26.435]}}, {"type": "Feature", "properties": {"kind": "site", "name": "Tirta Empul", "dist_deg": 0.0104654, "dist_km": 1.164, "class": "close", "dist_source": "ks_full_grid", "edges_supported": 3}, "geometry": {"type": "Point", "coordinates": [115.3111, -8.4167]}}, {"type": "Feature", "properties": {"kind": "site", "name": "Borobudur", "dist_deg": 0.0134363, "dist_km": 1.494, "class": "close", "dist_source": "ks_full_grid", "edges_supported": 5}, "geometry": {"type": "Point", "coordinates": [110.2042, -7.6081]}}, {"type": "Feature", "properties": {"kind": "site", "name": "Mount Kinabalu", "dist_deg": 0.0480604, "dist_km": 5.344, "class": "close", "dist_source": "ks_full_grid", "edges_supported": 1}, "geometry": {"type": "Point", "coordinates": [116.5628, 6.0744]}}, {"type": "Feature", "properties": {"kind": "site", "name": "Mount Kailash", "dist_deg": 0.0077174, "dist_km": 0.858, "class": "close", "dist_source": "ks_full_grid", "edges_supported": 2}, "geometry": {"type": "Point", "coordinates": [81.3125, 31.0675]}}, {"type": "Feature", "properties": {"kind": "site", "name": "Karakul Lake", "dist_deg": 0.0648682, "dist_km": 7.213, "class": "close", "dist_source": "ks_full_grid", "edges_supported": 1}, "geometry": {"type": "Point", "coordinates": [73.4886, 39.0217]}}, {"type": "Feature", "properties": {"kind": "site", "name": "Sundarbans-Sagar Island", "dist_deg": 0.0744834, "dist_km": 8.282, "class": "close", "dist_source": "ks_full_grid", "edges_supported": 1}, "geometry": {"type": "Point", "coordinates": [88.2953, 22.5564]}}, {"type": "Feature", "properties": {"kind": "site", "name": "Mount Shasta", "dist_deg": 0.0882681, "dist_km": 9.815, "class": "close", "dist_source": "ks_full_grid", "edges_supported": 1}, "geometry": {"type": "Point", "coordinates": [-122.31, 41.31]}}, {"type": "Feature", "properties": {"kind": "site", "name": "Kachina Peaks Wilderness", "dist_deg": 0.0172758, "dist_km": 1.921, "class": "close", "dist_source": "ks_full_grid", "edges_supported": 1}, "geometry": {"type": "Point", "coordinates": [-111.6625, 35.3394]}}, {"type": "Feature", "properties": {"kind": "site", "name": "Golden Hinde", "dist_deg": 0.025704, "dist_km": 2.858, "class": "close", "dist_source": "ks_full_grid", "edges_supported": 4}, "geometry": {"type": "Point", "coordinates": [-125.4494, 49.6506]}}, {"type": "Feature", "properties": {"kind": "site", "name": "El Tule-Palenque", "dist_deg": 0.0371927, "dist_km": 4.136, "class": "close", "dist_source": "ks_full_grid", "edges_supported": 1}, "geometry": {"type": "Point", "coordinates": [-91.9817, 17.51]}}, {"type": "Feature", "properties": {"kind": "site", "name": "Laguna Corcovado", "dist_deg": 0.0227657, "dist_km": 2.531, "class": "close", "dist_source": "ks_full_grid", "edges_supported": 3}, "geometry": {"type": "Point", "coordinates": [-83.6167, 8.55]}}, {"type": "Feature", "properties": {"kind": "site", "name": "Cerro de la Silla", "dist_deg": 0.0633056, "dist_km": 7.039, "class": "close", "dist_source": "ks_full_grid", "edges_supported": 1}, "geometry": {"type": "Point", "coordinates": [-100.3092, 25.6733]}}, {"type": "Feature", "properties": {"kind": "site", "name": "Mount Fuji", "dist_deg": 0.0197828, "dist_km": 2.2, "class": "close", "dist_source": "ks_full_grid", "edges_supported": 3}, "geometry": {"type": "Point", "coordinates": [138.7317, 35.3628]}}, {"type": "Feature", "properties": {"kind": "site", "name": "Mani San", "dist_deg": 0.0917903, "dist_km": 10.207, "class": "close", "dist_source": "ks_full_grid", "edges_supported": 1}, "geometry": {"type": "Point", "coordinates": [126.4347, 37.6117]}}, {"type": "Feature", "properties": {"kind": "site", "name": "Sefa Utaki", "dist_deg": 0.0331904, "dist_km": 3.691, "class": "close", "dist_source": "ks_full_grid", "edges_supported": 1}, "geometry": {"type": "Point", "coordinates": [127.7669, 26.1444]}}, {"type": "Feature", "properties": {"kind": "site", "name": "Haleakala Crater", "dist_deg": 0.0546895, "dist_km": 6.081, "class": "close", "dist_source": "ks_full_grid", "edges_supported": 4}, "geometry": {"type": "Point", "coordinates": [-156.1828, 20.7186]}}, {"type": "Feature", "properties": {"kind": "site", "name": "Midway Atoll", "dist_deg": 0.0934993, "dist_km": 10.397, "class": "close", "dist_source": "ks_full_grid", "edges_supported": 1}, "geometry": {"type": "Point", "coordinates": [-177.3833, 28.25]}}, {"type": "Feature", "properties": {"kind": "site", "name": "Mauna Loa", "dist_deg": 0.0108284, "dist_km": 1.204, "class": "close", "dist_source": "ks_full_grid", "edges_supported": 3}, "geometry": {"type": "Point", "coordinates": [-155.5356, 19.7569]}}, {"type": "Feature", "properties": {"kind": "site", "name": "Lake Rotopounamu", "dist_deg": 0.1031614, "dist_km": 11.471, "class": "medium", "dist_source": "ks_full_grid", "edges_supported": 0}, "geometry": {"type": "Point", "coordinates": [175.7372, -39.0258]}}, {"type": "Feature", "properties": {"kind": "site", "name": "Mount Panié", "dist_deg": 0.0175592, "dist_km": 1.952, "class": "close", "dist_source": "ks_full_grid", "edges_supported": 2}, "geometry": {"type": "Point", "coordinates": [164.7706, -20.5894]}}, {"type": "Feature", "properties": {"kind": "site", "name": "Macquarie Island", "dist_deg": 0.0005643, "dist_km": 0.063, "class": "close", "dist_source": "ks_full_grid", "edges_supported": 2}, "geometry": {"type": "Point", "coordinates": [158.8956, -54.5947]}}, {"type": "Feature", "properties": {"kind": "site", "name": "Great Pyramid of Giza", "dist_deg": 0.0147502, "dist_km": 1.64, "class": "close", "dist_source": "ks_full_grid", "edges_supported": 2}, "geometry": {"type": "Point", "coordinates": [31.1342, 29.9792]}}, {"type": "Feature", "properties": {"kind": "site", "name": "Mount Sinai", "dist_deg": 0.0061722, "dist_km": 0.686, "class": "close", "dist_source": "ks_full_grid", "edges_supported": 4}, "geometry": {"type": "Point", "coordinates": [33.973, 28.5394]}}, {"type": "Feature", "properties": {"kind": "site", "name": "Mount of Olives", "dist_deg": 0.0387718, "dist_km": 4.311, "class": "close", "dist_source": "ks_full_grid", "edges_supported": 2}, "geometry": {"type": "Point", "coordinates": [35.2439, 31.778]}}, {"type": "Feature", "properties": {"kind": "site", "name": "Mecca", "dist_deg": 0.0262885, "dist_km": 2.923, "class": "close", "dist_source": "ks_full_grid", "edges_supported": 1}, "geometry": {"type": "Point", "coordinates": [39.8147, 21.4275]}}, {"type": "Feature", "properties": {"kind": "site", "name": "Takht-e Soleiman", "dist_deg": 0.005157, "dist_km": 0.573, "class": "close", "dist_source": "ks_full_grid", "edges_supported": 2}, "geometry": {"type": "Point", "coordinates": [47.2361, 36.6033]}}, {"type": "Feature", "properties": {"kind": "site", "name": "Table Mountain", "dist_deg": 0.1179178, "dist_km": 13.112, "class": "medium", "dist_source": "ks_full_grid", "edges_supported": 0}, "geometry": {"type": "Point", "coordinates": [18.43, -33.9247]}}, {"type": "Feature", "properties": {"kind": "site", "name": "Pilansberg", "dist_deg": 0.0214225, "dist_km": 2.382, "class": "close", "dist_source": "ks_full_grid", "edges_supported": 1}, "geometry": {"type": "Point", "coordinates": [27.0322, -25.2294]}}, {"type": "Feature", "properties": {"kind": "site", "name": "Mont-aux-Sources", "dist_deg": 0.0263229, "dist_km": 2.927, "class": "close", "dist_source": "ks_full_grid", "edges_supported": 4}, "geometry": {"type": "Point", "coordinates": [28.8847, -28.7592]}}, {"type": "Feature", "properties": {"kind": "site", "name": "Sergiev Posad", "dist_deg": 0.0434539, "dist_km": 4.832, "class": "close", "dist_source": "ks_full_grid", "edges_supported": 2}, "geometry": {"type": "Point", "coordinates": [37.6175, 55.7558]}}, {"type": "Feature", "properties": {"kind": "site", "name": "Mount Konzhakovsky Kamen", "dist_deg": 0.0021329, "dist_km": 0.237, "class": "close", "dist_source": "ks_full_grid", "edges_supported": 1}, "geometry": {"type": "Point", "coordinates": [60.0, 59.0]}}, {"type": "Feature", "properties": {"kind": "site", "name": "Mount Elbrus", "dist_deg": 0.0236742, "dist_km": 2.632, "class": "close", "dist_source": "ks_full_grid", "edges_supported": 2}, "geometry": {"type": "Point", "coordinates": [42.4392, 43.355]}}, {"type": "Feature", "properties": {"kind": "site", "name": "Po Lin Monastery", "dist_deg": 0.0520466, "dist_km": 5.787, "class": "close", "dist_source": "ks_full_grid", "edges_supported": 2}, "geometry": {"type": "Point", "coordinates": [113.9078, 22.2556]}}, {"type": "Feature", "properties": {"kind": "site", "name": "Emei Shan", "dist_deg": 0.0479596, "dist_km": 5.333, "class": "close", "dist_source": "ks_full_grid", "edges_supported": 2}, "geometry": {"type": "Point", "coordinates": [104.0756, 30.6511]}}, {"type": "Feature", "properties": {"kind": "site", "name": "Mount Pulag", "dist_deg": 0.0067688, "dist_km": 0.753, "class": "close", "dist_source": "ks_full_grid", "edges_supported": 1}, "geometry": {"type": "Point", "coordinates": [120.8836, 16.5836]}}, {"type": "Feature", "properties": {"kind": "site", "name": "Niagara Falls", "dist_deg": 0.0302156, "dist_km": 3.36, "class": "close", "dist_source": "ks_full_grid", "edges_supported": 1}, "geometry": {"type": "Point", "coordinates": [-79.0853, 43.0903]}}, {"type": "Feature", "properties": {"kind": "site", "name": "Pilot Knob State Park", "dist_deg": 0.0015891, "dist_km": 0.177, "class": "close", "dist_source": "ks_full_grid", "edges_supported": 2}, "geometry": {"type": "Point", "coordinates": [-93.5533, 43.2528]}}, {"type": "Feature", "properties": {"kind": "site", "name": "Akimiski Island", "dist_deg": 0.0538075, "dist_km": 5.983, "class": "close", "dist_source": "ks_full_grid", "edges_supported": 2}, "geometry": {"type": "Point", "coordinates": [-81.3172, 52.9872]}}, {"type": "Feature", "properties": {"kind": "site", "name": "Mount Dimlang", "dist_deg": 0.0507512, "dist_km": 5.643, "class": "close", "dist_source": "ks_full_grid", "edges_supported": 2}, "geometry": {"type": "Point", "coordinates": [11.75, 8.5]}}, {"type": "Feature", "properties": {"kind": "site", "name": "Lake Chad", "dist_deg": 0.0138322, "dist_km": 1.538, "class": "close", "dist_source": "ks_full_grid", "edges_supported": 2}, "geometry": {"type": "Point", "coordinates": [14.1, 13.3303]}}, {"type": "Feature", "properties": {"kind": "site", "name": "Isangila Falls", "dist_deg": 0.0092254, "dist_km": 1.026, "class": "close", "dist_source": "ks_full_grid", "edges_supported": 3}, "geometry": {"type": "Point", "coordinates": [12.0, -6.0]}}, {"type": "Feature", "properties": {"kind": "site", "name": "Marco Zero Recife", "dist_deg": 0.0654833, "dist_km": 7.281, "class": "close", "dist_source": "ks_full_grid", "edges_supported": 5}, "geometry": {"type": "Point", "coordinates": [-34.8711, -8.0633]}}, {"type": "Feature", "properties": {"kind": "site", "name": "Peter and Paul Rocks", "dist_deg": 0.0141166, "dist_km": 1.57, "class": "close", "dist_source": "ks_full_grid", "edges_supported": 3}, "geometry": {"type": "Point", "coordinates": [-29.3353, -0.9169]}}, {"type": "Feature", "properties": {"kind": "site", "name": "Parnaiba River Headwaters", "dist_deg": 0.006292, "dist_km": 0.7, "class": "close", "dist_source": "ks_full_grid", "edges_supported": 6}, "geometry": {"type": "Point", "coordinates": [-43.1747, -8.3231]}}, {"type": "Feature", "properties": {"kind": "site", "name": "Plaza de Mayo", "dist_deg": 0.0781632, "dist_km": 8.691, "class": "close", "dist_source": "ks_full_grid", "edges_supported": 2}, "geometry": {"type": "Point", "coordinates": [-58.3722, -34.6083]}}, {"type": "Feature", "properties": {"kind": "site", "name": "Iguazu Falls", "dist_deg": 0.0882587, "dist_km": 9.814, "class": "close", "dist_source": "ks_full_grid", "edges_supported": 1}, "geometry": {"type": "Point", "coordinates": [-54.4453, -25.6803]}}, {"type": "Feature", "properties": {"kind": "site", "name": "Plaza de Armas Santiago", "dist_deg": 0.004607, "dist_km": 0.512, "class": "close", "dist_source": "ks_full_grid", "edges_supported": 3}, "geometry": {"type": "Point", "coordinates": [-70.6519, -33.4431]}}, {"type": "Feature", "properties": {"kind": "site", "name": "Jebel Toubkal", "dist_deg": 0.0432935, "dist_km": 4.814, "class": "close", "dist_source": "ks_full_grid", "edges_supported": 2}, "geometry": {"type": "Point", "coordinates": [-7.9161, 31.0619]}}, {"type": "Feature", "properties": {"kind": "site", "name": "Pico de Teide", "dist_deg": 0.0052017, "dist_km": 0.578, "class": "close", "dist_source": "ks_full_grid", "edges_supported": 3}, "geometry": {"type": "Point", "coordinates": [-16.6333, 28.2667]}}, {"type": "Feature", "properties": {"kind": "site", "name": "Chott el Djerid", "dist_deg": 0.0056825, "dist_km": 0.632, "class": "close", "dist_source": "ks_full_grid", "edges_supported": 5}, "geometry": {"type": "Point", "coordinates": [9.5375, 33.8869]}}, {"type": "Feature", "properties": {"kind": "site", "name": "Teatro Amazonas", "dist_deg": 0.012613, "dist_km": 1.403, "class": "close", "dist_source": "ks_full_grid", "edges_supported": 2}, "geometry": {"type": "Point", "coordinates": [-60.0231, -3.1306]}}, {"type": "Feature", "properties": {"kind": "site", "name": "Angel Falls", "dist_deg": 0.0088373, "dist_km": 0.983, "class": "close", "dist_source": "ks_full_grid", "edges_supported": 2}, "geometry": {"type": "Point", "coordinates": [-62.5356, 5.9675]}}, {"type": "Feature", "properties": {"kind": "site", "name": "Lago Arari", "dist_deg": 0.0247428, "dist_km": 2.751, "class": "close", "dist_source": "ks_full_grid", "edges_supported": 1}, "geometry": {"type": "Point", "coordinates": [-58.75, -3.4167]}}, {"type": "Feature", "properties": {"kind": "site", "name": "Christ the Redeemer", "dist_deg": 0.116041, "dist_km": 12.903, "class": "medium", "dist_source": "ks_full_grid", "edges_supported": 0}, "geometry": {"type": "Point", "coordinates": [-43.2106, -22.9519]}}, {"type": "Feature", "properties": {"kind": "site", "name": "Praca dos Tres Poderes", "dist_deg": 0.0208979, "dist_km": 2.324, "class": "close", "dist_source": "ks_full_grid", "edges_supported": 3}, "geometry": {"type": "Point", "coordinates": [-47.8611, -15.7997]}}, {"type": "Feature", "properties": {"kind": "site", "name": "Terreiro de Jesus", "dist_deg": 0.062106, "dist_km": 6.906, "class": "close", "dist_source": "ks_full_grid", "edges_supported": 4}, "geometry": {"type": "Point", "coordinates": [-38.51, -12.9733]}}, {"type": "Feature", "properties": {"kind": "site", "name": "High Tatra", "dist_deg": 0.0029534, "dist_km": 0.328, "class": "close", "dist_source": "ks_full_grid", "edges_supported": 2}, "geometry": {"type": "Point", "coordinates": [20.0, 49.1667]}}, {"type": "Feature", "properties": {"kind": "site", "name": "Stortorget Stockholm", "dist_deg": 0.0222129, "dist_km": 2.47, "class": "close", "dist_source": "ks_full_grid", "edges_supported": 1}, "geometry": {"type": "Point", "coordinates": [18.0708, 59.325]}}, {"type": "Feature", "properties": {"kind": "site", "name": "Mount Olympus", "dist_deg": 0.0031975, "dist_km": 0.355, "class": "close", "dist_source": "ks_full_grid", "edges_supported": 2}, "geometry": {"type": "Point", "coordinates": [22.35, 40.0833]}}, {"type": "Feature", "properties": {"kind": "site", "name": "Arunachala Hill", "dist_deg": 0.1077727, "dist_km": 11.984, "class": "medium", "dist_source": "ks_full_grid", "edges_supported": 0}, "geometry": {"type": "Point", "coordinates": [79.0517, 12.2406]}}, {"type": "Feature", "properties": {"kind": "site", "name": "Piram Island", "dist_deg": 0.0603784, "dist_km": 6.714, "class": "close", "dist_source": "ks_full_grid", "edges_supported": 1}, "geometry": {"type": "Point", "coordinates": [72.35, 21.6]}}, {"type": "Feature", "properties": {"kind": "site", "name": "Adam’s Peak", "dist_deg": 0.009009, "dist_km": 1.002, "class": "close", "dist_source": "ks_full_grid", "edges_supported": 3}, "geometry": {"type": "Point", "coordinates": [80.4997, 6.8092]}}, {"type": "Feature", "properties": {"kind": "site", "name": "Uhuru Peak Kilimanjaro", "dist_deg": 0.0229114, "dist_km": 2.548, "class": "close", "dist_source": "ks_full_grid", "edges_supported": 5}, "geometry": {"type": "Point", "coordinates": [37.3533, -3.0758]}}, {"type": "Feature", "properties": {"kind": "site", "name": "Lake Victoria (Ukerewe Island)", "dist_deg": 0.0185655, "dist_km": 2.064, "class": "close", "dist_source": "ks_full_grid", "edges_supported": 1}, "geometry": {"type": "Point", "coordinates": [32.9, -0.9833]}}, {"type": "Feature", "properties": {"kind": "site", "name": "Mount Nkungwe", "dist_deg": 0.0175352, "dist_km": 1.95, "class": "close", "dist_source": "ks_full_grid", "edges_supported": 5}, "geometry": {"type": "Point", "coordinates": [29.8, -6.1167]}}, {"type": "Feature", "properties": {"kind": "site", "name": "Mount Belukha", "dist_deg": 0.0338832, "dist_km": 3.768, "class": "close", "dist_source": "ks_full_grid", "edges_supported": 2}, "geometry": {"type": "Point", "coordinates": [88.9, 48.5]}}, {"type": "Feature", "properties": {"kind": "site", "name": "Uzynaral Strait", "dist_deg": 0.097134, "dist_km": 10.801, "class": "close", "dist_source": "ks_full_grid", "edges_supported": 1}, "geometry": {"type": "Point", "coordinates": [75.5, 46.6]}}, {"type": "Feature", "properties": {"kind": "site", "name": "Lake Baikal (Cape Khoboy)", "dist_deg": 0.1019807, "dist_km": 11.34, "class": "medium", "dist_source": "ks_full_grid", "edges_supported": 0}, "geometry": {"type": "Point", "coordinates": [107.6667, 53.1667]}}, {"type": "Feature", "properties": {"kind": "site", "name": "Forbidden City Beijing", "dist_deg": 0.0024677, "dist_km": 0.274, "class": "close", "dist_source": "ks_full_grid", "edges_supported": 1}, "geometry": {"type": "Point", "coordinates": [116.4075, 39.9042]}}, {"type": "Feature", "properties": {"kind": "site", "name": "Tai Shan", "dist_deg": 0.0126624, "dist_km": 1.408, "class": "close", "dist_source": "ks_full_grid", "edges_supported": 2}, "geometry": {"type": "Point", "coordinates": [117.3333, 36.5]}}, {"type": "Feature", "properties": {"kind": "site", "name": "Karakorum", "dist_deg": 0.0051787, "dist_km": 0.576, "class": "close", "dist_source": "ks_full_grid", "edges_supported": 2}, "geometry": {"type": "Point", "coordinates": [102.8239, 47.1972]}}, {"type": "Feature", "properties": {"kind": "site", "name": "Boulder Colorado", "dist_deg": 0.0150818, "dist_km": 1.677, "class": "close", "dist_source": "ks_full_grid", "edges_supported": 2}, "geometry": {"type": "Point", "coordinates": [-105.2706, 40.015]}}, {"type": "Feature", "properties": {"kind": "site", "name": "Mount Whitney", "dist_deg": 0.0746868, "dist_km": 8.305, "class": "close", "dist_source": "ks_full_grid", "edges_supported": 1}, "geometry": {"type": "Point", "coordinates": [-118.292, 36.5786]}}, {"type": "Feature", "properties": {"kind": "site", "name": "Cahokia Mounds", "dist_deg": 0.0532545, "dist_km": 5.922, "class": "close", "dist_source": "ks_full_grid", "edges_supported": 1}, "geometry": {"type": "Point", "coordinates": [-90.0678, 38.6503]}}, {"type": "Feature", "properties": {"kind": "site", "name": "Three Sisters Blue Mountains", "dist_deg": 0.0690633, "dist_km": 7.679, "class": "close", "dist_source": "ks_full_grid", "edges_supported": 2}, "geometry": {"type": "Point", "coordinates": [150.5, -33.75]}}, {"type": "Feature", "properties": {"kind": "site", "name": "Mount Picton Tasmania", "dist_deg": 0.0645204, "dist_km": 7.174, "class": "close", "dist_source": "ks_full_grid", "edges_supported": 1}, "geometry": {"type": "Point", "coordinates": [146.6075, -43.1575]}}, {"type": "Feature", "properties": {"kind": "site", "name": "Fraser Island", "dist_deg": 0.0703776, "dist_km": 7.826, "class": "close", "dist_source": "ks_full_grid", "edges_supported": 1}, "geometry": {"type": "Point", "coordinates": [153.0294, -25.3925]}}, {"type": "Feature", "properties": {"kind": "site", "name": "Cerro de Puntas", "dist_deg": 0.0150653, "dist_km": 1.675, "class": "close", "dist_source": "ks_full_grid", "edges_supported": 2}, "geometry": {"type": "Point", "coordinates": [-67.2639, 18.3561]}}, {"type": "Feature", "properties": {"kind": "site", "name": "Great Exuma Island", "dist_deg": 0.0495709, "dist_km": 5.512, "class": "close", "dist_source": "ks_full_grid", "edges_supported": 3}, "geometry": {"type": "Point", "coordinates": [-75.8167, 23.5167]}}, {"type": "Feature", "properties": {"kind": "site", "name": "Montego Bay", "dist_deg": 0.0091413, "dist_km": 1.016, "class": "close", "dist_source": "ks_full_grid", "edges_supported": 2}, "geometry": {"type": "Point", "coordinates": [-77.9167, 18.4667]}}, {"type": "Feature", "properties": {"kind": "site", "name": "Mount Simpson PNG", "dist_deg": 0.0227774, "dist_km": 2.533, "class": "close", "dist_source": "ks_full_grid", "edges_supported": 4}, "geometry": {"type": "Point", "coordinates": [148.0, -9.5]}}, {"type": "Feature", "properties": {"kind": "site", "name": "Popomanaseu", "dist_deg": 0.0056864, "dist_km": 0.632, "class": "close", "dist_source": "ks_full_grid", "edges_supported": 4}, "geometry": {"type": "Point", "coordinates": [160.0667, -9.7]}}, {"type": "Feature", "properties": {"kind": "site", "name": "Puncak Jaya", "dist_deg": 0.0120586, "dist_km": 1.341, "class": "close", "dist_source": "ks_full_grid", "edges_supported": 3}, "geometry": {"type": "Point", "coordinates": [138.5, -4.5]}}, {"type": "Feature", "properties": {"kind": "site", "name": "Dakar", "dist_deg": 0.0029344, "dist_km": 0.326, "class": "close", "dist_source": "ks_full_grid", "edges_supported": 3}, "geometry": {"type": "Point", "coordinates": [-17.3333, 14.75]}}, {"type": "Feature", "properties": {"kind": "site", "name": "Timbuktu", "dist_deg": 0.0037353, "dist_km": 0.415, "class": "close", "dist_source": "ks_full_grid", "edges_supported": 2}, "geometry": {"type": "Point", "coordinates": [-3.5, 15.0]}}, {"type": "Feature", "properties": {"kind": "site", "name": "Fogo Cape Verde", "dist_deg": 0.0132485, "dist_km": 1.473, "class": "close", "dist_source": "ks_full_grid", "edges_supported": 3}, "geometry": {"type": "Point", "coordinates": [-24.3817, 14.9133]}}, {"type": "Feature", "properties": {"kind": "site", "name": "Tsodilo Hill", "dist_deg": 0.0096921, "dist_km": 1.078, "class": "close", "dist_source": "ks_full_grid", "edges_supported": 4}, "geometry": {"type": "Point", "coordinates": [21.7667, -18.75]}}, {"type": "Feature", "properties": {"kind": "site", "name": "Kgalagadi Transfrontier Park", "dist_deg": 0.0088552, "dist_km": 0.985, "class": "close", "dist_source": "ks_full_grid", "edges_supported": 1}, "geometry": {"type": "Point", "coordinates": [20.7122, -25.2872]}}, {"type": "Feature", "properties": {"kind": "site", "name": "Great Zimbabwe", "dist_deg": 0.1329163, "dist_km": 14.78, "class": "medium", "dist_source": "ks_full_grid", "edges_supported": 0}, "geometry": {"type": "Point", "coordinates": [30.9275, -20.2672]}}, {"type": "Feature", "properties": {"kind": "site", "name": "Khao Nan Mia", "dist_deg": 0.0911841, "dist_km": 10.139, "class": "close", "dist_source": "ks_full_grid", "edges_supported": 1}, "geometry": {"type": "Point", "coordinates": [99.5941, 8.8594]}}, {"type": "Feature", "properties": {"kind": "site", "name": "Lake Toba", "dist_deg": 0.0487086, "dist_km": 5.416, "class": "close", "dist_source": "ks_full_grid", "edges_supported": 1}, "geometry": {"type": "Point", "coordinates": [98.8756, 2.6845]}}, {"type": "Feature", "properties": {"kind": "site", "name": "Angkor Wat", "dist_deg": 0.1447871, "dist_km": 16.1, "class": "far", "dist_source": "ks_full_grid", "edges_supported": 0}, "geometry": {"type": "Point", "coordinates": [103.86, 13.4256]}}, {"type": "Feature", "properties": {"kind": "site", "name": "Mount Tomaniivi", "dist_deg": 0.0424132, "dist_km": 4.716, "class": "close", "dist_source": "ks_full_grid", "edges_supported": 1}, "geometry": {"type": "Point", "coordinates": [178.0167, -17.6167]}}, {"type": "Feature", "properties": {"kind": "site", "name": "Tarawa Island", "dist_deg": 0.0541809, "dist_km": 6.025, "class": "close", "dist_source": "ks_full_grid", "edges_supported": 1}, "geometry": {"type": "Point", "coordinates": [173.0764, 1.4403]}}, {"type": "Feature", "properties": {"kind": "site", "name": "Mount Silisili", "dist_deg": 0.0315021, "dist_km": 3.503, "class": "close", "dist_source": "ks_full_grid", "edges_supported": 3}, "geometry": {"type": "Point", "coordinates": [-172.4858, -13.6183]}}, {"type": "Feature", "properties": {"kind": "site", "name": "Denali (Mount McKinley)", "dist_deg": 0.0654582, "dist_km": 7.279, "class": "close", "dist_source": "ks_full_grid", "edges_supported": 1}, "geometry": {"type": "Point", "coordinates": [-149.4289, 63.0694]}}, {"type": "Feature", "properties": {"kind": "site", "name": "Great Bear Lake", "dist_deg": 0.0055383, "dist_km": 0.616, "class": "close", "dist_source": "ks_full_grid", "edges_supported": 2}, "geometry": {"type": "Point", "coordinates": [-120.3833, 66.1197]}}, {"type": "Feature", "properties": {"kind": "site", "name": "Fox Islands Aleutian", "dist_deg": 0.0241271, "dist_km": 2.683, "class": "close", "dist_source": "ks_full_grid", "edges_supported": 2}, "geometry": {"type": "Point", "coordinates": [-166.5833, 53.7667]}}, {"type": "Feature", "properties": {"kind": "site", "name": "Mount Maromokotro", "dist_deg": 0.068696, "dist_km": 7.639, "class": "close", "dist_source": "ks_full_grid", "edges_supported": 3}, "geometry": {"type": "Point", "coordinates": [49.4847, -13.0183]}}, {"type": "Feature", "properties": {"kind": "site", "name": "Piton des Neiges", "dist_deg": 0.0119783, "dist_km": 1.332, "class": "close", "dist_source": "ks_full_grid", "edges_supported": 3}, "geometry": {"type": "Point", "coordinates": [55.7333, -21.3167]}}, {"type": "Feature", "properties": {"kind": "site", "name": "Morne Seychellois", "dist_deg": 0.0308089, "dist_km": 3.426, "class": "close", "dist_source": "ks_full_grid", "edges_supported": 5}, "geometry": {"type": "Point", "coordinates": [55.45, -4.6167]}}, {"type": "Feature", "properties": {"kind": "site", "name": "Mount Damavand", "dist_deg": 0.0039516, "dist_km": 0.439, "class": "close", "dist_source": "ks_full_grid", "edges_supported": 2}, "geometry": {"type": "Point", "coordinates": [52.1097, 35.9547]}}, {"type": "Feature", "properties": {"kind": "site", "name": "Vozrozhdeniya Island", "dist_deg": 0.0255124, "dist_km": 2.837, "class": "close", "dist_source": "ks_full_grid", "edges_supported": 3}, "geometry": {"type": "Point", "coordinates": [59.1419, 45.0917]}}, {"type": "Feature", "properties": {"kind": "site", "name": "Malek Siah Kuh", "dist_deg": 0.0018047, "dist_km": 0.201, "class": "close", "dist_source": "ks_full_grid", "edges_supported": 1}, "geometry": {"type": "Point", "coordinates": [60.8636, 29.4892]}}, {"type": "Feature", "properties": {"kind": "site", "name": "Klyuchevskaya Sopka", "dist_deg": 0.0152866, "dist_km": 1.7, "class": "close", "dist_source": "ks_full_grid", "edges_supported": 3}, "geometry": {"type": "Point", "coordinates": [160.6428, 56.0581]}}, {"type": "Feature", "properties": {"kind": "site", "name": "Sakhalin Island", "dist_deg": 0.0081632, "dist_km": 0.908, "class": "close", "dist_source": "ks_full_grid", "edges_supported": 2}, "geometry": {"type": "Point", "coordinates": [143.0028, 50.2247]}}, {"type": "Feature", "properties": {"kind": "site", "name": "Cherskiy", "dist_deg": 0.0258313, "dist_km": 2.872, "class": "close", "dist_source": "ks_full_grid", "edges_supported": 2}, "geometry": {"type": "Point", "coordinates": [-115.9872, 34.6272]}}, {"type": "Feature", "properties": {"kind": "site", "name": "Easter Island", "dist_deg": 0.0308238, "dist_km": 3.428, "class": "close", "dist_source": "ks_full_grid", "edges_supported": 2}, "geometry": {"type": "Point", "coordinates": [-109.3664, -27.1211]}}, {"type": "Feature", "properties": {"kind": "site", "name": "Reykjavik-Thingvellir", "dist_deg": 0.005894, "dist_km": 0.655, "class": "close", "dist_source": "ks_full_grid", "edges_supported": 4}, "geometry": {"type": "Point", "coordinates": [-21.8953, 64.1353]}}, {"type": "Feature", "properties": {"kind": "site", "name": "Callanish", "dist_deg": 0.0290901, "dist_km": 3.235, "class": "close", "dist_source": "ks_full_grid", "edges_supported": 1}, "geometry": {"type": "Point", "coordinates": [-6.7367, 58.1997]}}, {"type": "Feature", "properties": {"kind": "site", "name": "Nuuk Greenland", "dist_deg": 0.0020124, "dist_km": 0.224, "class": "close", "dist_source": "ks_full_grid", "edges_supported": 3}, "geometry": {"type": "Point", "coordinates": [-51.7214, 64.1836]}}, {"type": "Feature", "properties": {"kind": "site", "name": "Port Stanley", "dist_deg": 0.0306622, "dist_km": 3.409, "class": "close", "dist_source": "ks_full_grid", "edges_supported": 3}, "geometry": {"type": "Point", "coordinates": [-57.8492, -51.7011]}}, {"type": "Feature", "properties": {"kind": "site", "name": "South Georgia Island", "dist_deg": 0.0335316, "dist_km": 3.728, "class": "close", "dist_source": "ks_full_grid", "edges_supported": 2}, "geometry": {"type": "Point", "coordinates": [-36.75, -54.25]}}, {"type": "Feature", "properties": {"kind": "site", "name": "Lake Buenos Aires", "dist_deg": 0.0541176, "dist_km": 6.018, "class": "close", "dist_source": "ks_full_grid", "edges_supported": 1}, "geometry": {"type": "Point", "coordinates": [-71.3675, -46.5033]}}, {"type": "Feature", "properties": {"kind": "site", "name": "Wood Buffalo National Park", "dist_deg": 0.0133852, "dist_km": 1.488, "class": "close", "dist_source": "ks_full_grid", "edges_supported": 2}, "geometry": {"type": "Point", "coordinates": [-112.8542, 58.9239]}}, {"type": "Feature", "properties": {"kind": "site", "name": "Adelaide Peninsula", "dist_deg": 0.003494, "dist_km": 0.389, "class": "close", "dist_source": "ks_full_grid", "edges_supported": 1}, "geometry": {"type": "Point", "coordinates": [-97.8, 68.0833]}}, {"type": "Feature", "properties": {"kind": "site", "name": "Bay of God’s Mercy", "dist_deg": 0.1200479, "dist_km": 13.349, "class": "medium", "dist_source": "ks_full_grid", "edges_supported": 0}, "geometry": {"type": "Point", "coordinates": [-84.1333, 64.6]}}, {"type": "Feature", "properties": {"kind": "site", "name": "Ascension Island", "dist_deg": 0.0676103, "dist_km": 7.518, "class": "close", "dist_source": "ks_full_grid", "edges_supported": 2}, "geometry": {"type": "Point", "coordinates": [-14.3558, -7.9467]}}, {"type": "Feature", "properties": {"kind": "site", "name": "St. Helena Island", "dist_deg": 0.0499743, "dist_km": 5.557, "class": "close", "dist_source": "ks_full_grid", "edges_supported": 3}, "geometry": {"type": "Point", "coordinates": [-5.7167, -15.9333]}}, {"type": "Feature", "properties": {"kind": "site", "name": "Mount Loma", "dist_deg": 0.0335329, "dist_km": 3.729, "class": "close", "dist_source": "ks_full_grid", "edges_supported": 2}, "geometry": {"type": "Point", "coordinates": [-11.117, 9.217]}}, {"type": "Feature", "properties": {"kind": "site", "name": "Lena-Muna juncture", "dist_deg": 0.0673845, "dist_km": 7.493, "class": "close", "dist_source": "ks_full_grid", "edges_supported": 1}, "geometry": {"type": "Point", "coordinates": [123.2833, 68.0167]}}, {"type": "Feature", "properties": {"kind": "site", "name": "Lake Ozero Taymyr", "dist_deg": 0.0253545, "dist_km": 2.819, "class": "close", "dist_source": "ks_full_grid", "edges_supported": 2}, "geometry": {"type": "Point", "coordinates": [101.7167, 74.5167]}}, {"type": "Feature", "properties": {"kind": "site", "name": "Tunguska", "dist_deg": 0.0202169, "dist_km": 2.248, "class": "close", "dist_source": "ks_full_grid", "edges_supported": 5}, "geometry": {"type": "Point", "coordinates": [102.7861, 52.6528]}}, {"type": "Feature", "properties": {"kind": "site", "name": "Mount Ross Kerguelen", "dist_deg": 0.0501606, "dist_km": 5.578, "class": "close", "dist_source": "ks_full_grid", "edges_supported": 2}, "geometry": {"type": "Point", "coordinates": [69.5, -49.5833]}}, {"type": "Feature", "properties": {"kind": "site", "name": "Big Ben Heard Island", "dist_deg": 0.0060571, "dist_km": 0.673, "class": "close", "dist_source": "ks_full_grid", "edges_supported": 4}, "geometry": {"type": "Point", "coordinates": [73.525, -53.1083]}}, {"type": "Feature", "properties": {"kind": "site", "name": "Prydz Bay", "dist_deg": 0.0483238, "dist_km": 5.373, "class": "close", "dist_source": "ks_full_grid", "edges_supported": 3}, "geometry": {"type": "Point", "coordinates": [75.0, -69.0]}}, {"type": "Feature", "properties": {"kind": "site", "name": "Mount Lamlam Guam", "dist_deg": 0.0192937, "dist_km": 2.145, "class": "close", "dist_source": "ks_full_grid", "edges_supported": 1}, "geometry": {"type": "Point", "coordinates": [144.6628, 13.3386]}}, {"type": "Feature", "properties": {"kind": "site", "name": "Yap Island", "dist_deg": 0.0042867, "dist_km": 0.477, "class": "close", "dist_source": "ks_full_grid", "edges_supported": 2}, "geometry": {"type": "Point", "coordinates": [134.3833, -2.55]}}, {"type": "Feature", "properties": {"kind": "site", "name": "Nan Madol", "dist_deg": 0.0019742, "dist_km": 0.22, "class": "close", "dist_source": "ks_full_grid", "edges_supported": 2}, "geometry": {"type": "Point", "coordinates": [158.3358, 6.8444]}}, {"type": "Feature", "properties": {"kind": "site", "name": "Mount Orohena", "dist_deg": 0.0424751, "dist_km": 4.723, "class": "close", "dist_source": "ks_full_grid", "edges_supported": 3}, "geometry": {"type": "Point", "coordinates": [-149.4842, -17.6197]}}, {"type": "Feature", "properties": {"kind": "site", "name": "Hivaoa Island", "dist_deg": 0.0145864, "dist_km": 1.622, "class": "close", "dist_source": "ks_full_grid", "edges_supported": 4}, "geometry": {"type": "Point", "coordinates": [-139.0211, -9.7547]}}, {"type": "Feature", "properties": {"kind": "site", "name": "Kiritimati (Christmas Island)", "dist_deg": 0.0591506, "dist_km": 6.577, "class": "close", "dist_source": "ks_full_grid", "edges_supported": 5}, "geometry": {"type": "Point", "coordinates": [-157.4278, 1.8722]}}, {"type": "Feature", "properties": {"kind": "site", "name": "Graciosa Azores", "dist_deg": 0.0020451, "dist_km": 0.227, "class": "close", "dist_source": "ks_full_grid", "edges_supported": 3}, "geometry": {"type": "Point", "coordinates": [-28.0069, 39.0525]}}, {"type": "Feature", "properties": {"kind": "site", "name": "St. George’s Island Bermuda", "dist_deg": 0.0761916, "dist_km": 8.472, "class": "close", "dist_source": "ks_full_grid", "edges_supported": 1}, "geometry": {"type": "Point", "coordinates": [-64.7786, 32.2811]}}, {"type": "Feature", "properties": {"kind": "site", "name": "Lisbon Portugal", "dist_deg": 0.0784713, "dist_km": 8.726, "class": "close", "dist_source": "ks_full_grid", "edges_supported": 1}, "geometry": {"type": "Point", "coordinates": [-9.1356, 38.7069]}}, {"type": "Feature", "properties": {"kind": "site", "name": "Longyearbyen Spitsbergen", "dist_deg": 0.0309535, "dist_km": 3.442, "class": "close", "dist_source": "ks_full_grid", "edges_supported": 1}, "geometry": {"type": "Point", "coordinates": [18.1642, 78.6481]}}, {"type": "Feature", "properties": {"kind": "site", "name": "Independence Fjord", "dist_deg": 0.0463565, "dist_km": 5.155, "class": "close", "dist_source": "ks_full_grid", "edges_supported": 2}, "geometry": {"type": "Point", "coordinates": [-28.2725, 81.9247]}}, {"type": "Feature", "properties": {"kind": "site", "name": "Yuzhny Novaya Zemlya", "dist_deg": 0.0204318, "dist_km": 2.272, "class": "close", "dist_source": "ks_full_grid", "edges_supported": 1}, "geometry": {"type": "Point", "coordinates": [80.3667, 73.4833]}}, {"type": "Feature", "properties": {"kind": "site", "name": "Mount Hope Antarctica", "dist_deg": 0.1141727, "dist_km": 12.695, "class": "medium", "dist_source": "ks_full_grid", "edges_supported": 0}, "geometry": {"type": "Point", "coordinates": [171.0, -83.75]}}, {"type": "Feature", "properties": {"kind": "site", "name": "Bear Island Antarctica", "dist_deg": 0.0674181, "dist_km": 7.497, "class": "close", "dist_source": "ks_full_grid", "edges_supported": 1}, "geometry": {"type": "Point", "coordinates": [-67.06, -68.18]}}, {"type": "Feature", "properties": {"kind": "site", "name": "Elephant Island", "dist_deg": 0.0397243, "dist_km": 4.417, "class": "close", "dist_source": "ks_full_grid", "edges_supported": 1}, "geometry": {"type": "Point", "coordinates": [-55.1167, -61.1333]}}, {"type": "Feature", "properties": {"kind": "site", "name": "South Pole", "dist_deg": 0.0480396, "dist_km": 5.342, "class": "close", "dist_source": "ks_full_grid", "edges_supported": 1}, "geometry": {"type": "Point", "coordinates": [0.0, -90.0]}}, {"type": "Feature", "properties": {"kind": "site", "name": "South Magnetic Pole", "dist_deg": 0.0421394, "dist_km": 4.686, "class": "close", "dist_source": "ks_full_grid", "edges_supported": 3}, "geometry": {"type": "Point", "coordinates": [138.0, -67.0]}}, {"type": "Feature", "properties": {"kind": "site", "name": "Sanae Antarctica", "dist_deg": 0.0026053, "dist_km": 0.29, "class": "close", "dist_source": "ks_full_grid", "edges_supported": 4}, "geometry": {"type": "Point", "coordinates": [127.5233, -71.6728]}}, {"type": "Feature", "properties": {"kind": "site", "name": "Halifax Nova Scotia", "dist_deg": 0.0078771, "dist_km": 0.876, "class": "close", "dist_source": "ks_full_grid", "edges_supported": 3}, "geometry": {"type": "Point", "coordinates": [-63.5753, 44.6489]}}, {"type": "Feature", "properties": {"kind": "site", "name": "Washington DC", "dist_deg": 0.0071121, "dist_km": 0.791, "class": "close", "dist_source": "ks_full_grid", "edges_supported": 2}, "geometry": {"type": "Point", "coordinates": [-77.0364, 38.895]}}]}