{"type": "FeatureCollection", "name": "E8_proj_seed1535 grid", "properties": {"shape": "E8_proj_seed1535", "lock_lat": -85.0, "lock_lon": -115.0, "bearing": 310.0}, "features": [{"type": "Feature", "properties": {"kind": "grid_vertices", "shape": "E8_proj_seed1535", "count": 240, "ids": ["V1", "V2", "V3", "V4", "V5", "V6", "V7", "V8", "V9", "V10", "V11", "V12", "V13", "V14", "V15", "V16", "V17", "V18", "V19", "V20", "V21", "V22", "V23", "V24", "V25", "V26", "V27", "V28", "V29", "V30", "V31", "V32", "V33", "V34", "V35", "V36", "V37", "V38", "V39", "V40", "V41", "V42", "V43", "V44", "V45", "V46", "V47", "V48", "V49", "V50", "V51", "V52", "V53", "V54", "V55", "V56", "V57", "V58", "V59", "V60", "V61", "V62", "V63", "V64", "V65", "V66", "V67", "V68", "V69", "V70", "V71", "V72", "V73", "V74", "V75", "V76", "V77", "V78", "V79", "V80", "V81", "V82", "V83", "V84", "V85", "V86", "V87", "V88", "V89", "V90", "V91", "V92", "V93", "V94", "V95", "V96", "V97", "V98", "V99", "V100", "V101", "V102", "V103", "V104", "V105", "V106", "V107", "V108", "V109", "V110", "V111", "V112", "V113", "V114", "V115", "V116", "V117", "V118", "V119", "V120", "V121", "V122", "V123", "V124", "V125", "V126", "V127", "V128", "V129", "V130", "V131", "V132", "V133", "V134", "V135", "V136", "V137", "V138", "V139", "V140", "V141", "V142", "V143", "V144", "V145", "V146", "V147", "V148", "V149", "V150", "V151", "V152", "V153", "V154", "V155", "V156", "V157", "V158", "V159", "V160", "V161", "V162", "V163", "V164", "V165", "V166", "V167", "V168", "V169", "V170", "V171", "V172", "V173", "V174", "V175", "V176", "V177", "V178", "V179", "V180", "V181", "V182", "V183", "V184", "V185", "V186", "V187", "V188", "V189", "V190", "V191", "V192", "V193", "V194", "V195", "V196", "V197", "V198", "V199", "V200", "V201", "V202", "V203", "V204", "V205", "V206", "V207", "V208", "V209", "V210", "V211", "V212", "V213", "V214", "V215", "V216", "V217", "V218", "V219", "V220", "V221", "V222", "V223", "V224", "V225", "V226", "V227", "V228", "V229", "V230", "V231", "V232", "V233", "V234", "V235", "V236", "V237", "V238", "V239", "V240"]}, "geometry": {"type": "MultiPoint", "coordinates": [[-28.74680384652254, -12.969567330135632], [-13.626834332897182, 82.46873809853304], [166.37316566710282, -82.46873809853304], [151.25319615347746, 12.969567330135632], [11.071083251159937, 8.985840024122911], [-76.01604884498525, 23.39342756041042], [103.98395115501476, -23.39342756041042], [-168.92891674884007, -8.985840024122911], [-59.8943190134284, -16.041673100776443], [25.93869398153815, 49.17032377033236], [-154.06130601846186, -49.17032377033236], [120.1056809865716, 16.041673100776443], [-35.2591591939037, 25.15924035379368], [48.98267282052936, -27.526266627831806], [-131.01732717947064, 27.526266627831806], [144.74084080609632, -25.15924035379368], [3.704544949840639, 24.293109994938884], [-66.57713203524982, 8.972911079980232], [113.4228679647502, -8.972911079980232], [-176.29545505015938, -24.293109994938884], [-6.280042874908927, 20.579213020864408], [-79.66905899516124, 11.885535321908069], [100.33094100483876, -11.885535321908069], [173.71995712509107, -20.579213020864408], [-64.0869921704022, 49.713043276150465], [8.16039881289707, -28.136891672743733], [-171.83960118710294, 28.136891672743733], [115.91300782959782, -49.713043276150465], [13.880155291986629, -35.4651752327847], [-82.84720344291325, -29.19895275752957], [97.15279655708675, 29.19895275752957], [-166.11984470801337, 35.4651752327847], [-64.26978286449818, -47.88915476685764], [32.02562377587187, 2.296898305527279], [-147.97437622412815, -2.296898305527279], [115.73021713550183, 47.88915476685764], [-37.117504475681955, -8.950907618363907], [84.72815976273357, -79.7992381072349], [-95.27184023726643, 79.7992381072349], [142.88249552431807, 8.950907618363907], [5.992698934149875, -26.792512637367015], [-73.76336861407793, -45.39759305748792], [106.23663138592207, 45.39759305748792], [-174.00730106585013, 26.792512637367015], [-5.497708420937627, -21.42744864975767], [-91.51709205609504, -55.849817557939446], [88.48290794390496, 55.849817557939446], [174.5022915790624, 21.42744864975767], [-70.31054676790632, 12.136258151894788], [11.225878258532859, -59.46608811242179], [-168.77412174146713, 59.46608811242179], [109.68945323209368, -12.136258151894788], [-19.701757373391196, -61.82616265983067], [68.50658907747267, 21.178246287885734], [-111.49341092252732, -21.178246287885734], [160.2982426266088, 61.82616265983067], [3.7393999253020205, 16.22425969381852], [95.05657843074448, -25.59833717190215], [-84.94342156925553, 25.59833717190215], [-176.26060007469798, -16.22425969381852], [51.52755653545346, 2.1708461863032693], [55.93346777288455, -56.457779122660455], [-124.06653222711546, 56.457779122660455], [-128.47244346454653, -2.1708461863032693], [37.72752308639142, 2.632290709517291], [109.5597576734291, -37.52298819152529], [-70.44024232657091, 37.52298819152529], [-142.27247691360859, -2.632290709517291], [25.289065108762887, 74.07103210126073], [56.077265121250036, -35.81513482006024], [-123.92273487874998, 35.81513482006024], [-154.71093489123712, -74.07103210126073], [-68.425635769734, -10.65058533269827], [-161.34681147331577, -58.96232426861905], [18.65318852668423, 58.96232426861905], [111.574364230266, 10.65058533269827], [-45.951515599821526, -50.130861193391944], [-109.56361001611145, -34.17892374369429], [70.43638998388855, 34.17892374369429], [134.04848440017847, 50.130861193391944], [-43.98783750499766, -33.67187251948626], [-124.3126656666317, -36.35047762785879], [55.68733433336832, 36.35047762785879], [136.01216249500237, 33.67187251948626], [-105.25816016082857, 7.170550397036937], [-46.92527241640801, -78.18805205162315], [133.074727583592, 78.18805205162315], [74.74183983917143, -7.170550397036937], [-5.760222397914303, 32.59268820607126], [-77.8528263273712, 14.20011113547576], [102.1471736726288, -14.20011113547576], [174.2397776020857, -32.59268820607126], [-14.709785877791159, 26.681291636864504], [-92.4726226767878, 17.52706147845503], [87.5273773232122, -17.52706147845503], [165.29021412220885, -26.681291636864504], [-74.6300749473238, 49.51566998851395], [-1.3941383500410562, -26.463598200592628], [178.60586164995894, 26.463598200592628], [105.3699250526762, -49.51566998851395], [34.74340183844198, 16.93702943255478], [138.60607589440775, -2.0862647379585857], [-41.39392410559226, 2.0862647379585857], [-145.25659816155803, -16.93702943255478], [-43.0339943371546, 84.01613311382894], [56.10166751713101, -30.459991173517626], [-123.89833248286898, 30.459991173517626], [136.9660056628454, -84.01613311382894], [-41.80152800271349, 67.36903715166356], [39.947771536238875, -29.950167931610977], [-140.05222846376114, 29.950167931610977], [138.19847199728653, -67.36903715166356], [-22.739805314149304, 8.566802097323968], [-16.03107448874401, -33.32428278705193], [-21.32414565875838, -27.424175546254443], [-68.16339383052396, -4.751103632145077], [19.815444519683208, -39.21627232549998], [-45.552039496786, -40.094661015104165], [-43.78226373849893, -25.09606657103631], [-46.36909199892285, -76.64220869504602], [19.414007633789392, 2.279095069343017], [-5.98117372582033, 38.16760511375368], [-14.812485378907214, 31.65872046403811], [-1.6814599808214903, -18.015206756340138], [34.32300163140669, 23.07058513344232], [55.620193217073144, -24.813390777815513], [39.502127847121194, -24.21712968140674], [-27.715103597937453, 86.137766461158], [-28.7536223006461, -18.24896163136811], [-74.32934120654886, 6.789806817757267], [-68.67181417828769, 6.105645268469286], [-76.58262281611228, -30.770638729548043], [-57.420594100523964, -4.311233885109083], [-73.54613437995249, -69.12198830574162], [-59.55952260919885, -56.64849783680603], [-111.11184830147998, -16.062196624480578], [-23.858853696114483, 41.79797607326059], [-13.98301903691199, 1.0814584383069743], [-21.9780149266795, 1.4112876898746762], [-84.53463855679479, 31.071315700374008], [36.244480630618334, -13.098824606289032], [-121.21420230351093, 66.09928498721041], [-69.50832176158845, 47.96932995901323], [-152.50338628142578, -70.90414539336469], [11.363160260602912, 2.209998689933012], [-60.30472690141371, 50.717518594865616], [-53.56430968734065, 38.952985397586026], [-64.09969997387357, -32.89246229973447], [38.61635383199699, 48.858209215745894], [90.01928363163293, -46.016801098181006], [53.62213902967225, -53.41992787046565], [-147.34249251052088, 8.461051645060623], [26.23441442862453, 56.06181252128872], [50.12725699401049, 28.979319373056445], [31.814036720610055, 28.45143161139091], [-92.66818567242701, 80.80170331749126], [66.34232446720469, 10.443946649882808], [105.73981019998465, 50.21368615605234], [87.59601670695116, 60.12463797073797], [109.27071727165797, -3.2510837506585726], [-64.42560849802248, 46.16545505287557], [-80.39829974529472, -1.5374295075810456], [-66.97574375961379, -0.28523122669696616], [-109.26108748994623, 21.92772436793256], [51.51630459561938, -50.16938719035035], [-142.65891557545527, 23.350402860242014], [-122.85083532616353, 24.127356256906815], [-148.91717803762373, -32.36122749896436], [26.463697467097134, 44.90085261538406], [-108.25259258773326, 75.99074463837518], [-77.7731954877501, 69.0021405435058], [-124.4954944687967, 54.968266521845095], [102.03346285311788, 72.15385883339125], [120.55559532005744, 16.90920432939026], [109.04134608508093, 26.9100206671178], [-165.7775637390394, 40.37949110079969], [14.222436260960606, -40.37949110079969], [-70.95865391491907, -26.9100206671178], [-59.44440467994258, -16.90920432939026], [-77.96653714688213, -72.15385883339125], [55.50450553120329, -54.968266521845095], [102.22680451224991, -69.0021405435058], [71.74740741226674, -75.99074463837518], [-153.53630253290288, -44.90085261538406], [31.082821962376286, 32.36122749896436], [57.14916467383649, -24.127356256906815], [37.34108442454474, -23.350402860242014], [-128.4836954043806, 50.16938719035035], [70.73891251005378, -21.92772436793256], [113.02425624038622, 0.28523122669696616], [99.60170025470529, 1.5374295075810456], [115.57439150197753, -46.16545505287557], [-70.72928272834204, 3.2510837506585726], [-92.40398329304884, -60.12463797073797], [-74.26018980001537, -50.21368615605234], [-113.65767553279532, -10.443946649882808], [87.33181432757299, -80.80170331749126], [-148.18596327938997, -28.45143161139091], [-129.87274300598952, -28.979319373056445], [-153.76558557137548, -56.06181252128872], [32.65750748947913, -8.461051645060623], [-126.37786097032776, 53.41992787046565], [-89.98071636836708, 46.016801098181006], [-141.38364616800303, -48.858209215745894], [115.90030002612643, 32.89246229973447], [126.43569031265935, -38.952985397586026], [119.6952730985863, -50.717518594865616], [-168.6368397393971, -2.209998689933012], [27.49661371857424, 70.90414539336469], [110.49167823841155, -47.96932995901323], [58.78579769648908, -66.09928498721041], [-143.75551936938166, 13.098824606289032], [95.46536144320521, -31.071315700374008], [158.0219850733205, -1.4112876898746762], [166.016980963088, -1.0814584383069743], [156.14114630388553, -41.79797607326059], [68.88815169852003, 16.062196624480578], [120.44047739080116, 56.64849783680603], [106.45386562004751, 69.12198830574162], [122.57940589947606, 4.311233885109083], [103.41737718388774, 30.770638729548043], [111.32818582171232, -6.105645268469286], [105.67065879345115, -6.789806817757267], [151.2463776993539, 18.24896163136811], [152.28489640206254, -86.137766461158], [-140.4978721528788, 24.21712968140674], [-124.37980678292686, 24.813390777815513], [-145.67699836859333, -23.07058513344232], [178.31854001917853, 18.015206756340138], [165.1875146210928, -31.65872046403811], [174.01882627417967, -38.16760511375368], [-160.5859923662106, -2.279095069343017], [133.63090800107716, 76.64220869504602], [136.2177362615011, 25.09606657103631], [134.447960503214, 40.094661015104165], [-160.1845554803168, 39.21627232549998], [111.83660616947606, 4.751103632145077], [158.67585434124163, 27.424175546254443], [163.968925511256, 33.32428278705193], [157.2601946858507, -8.566802097323968]]}}, {"type": "Feature", "properties": {"kind": "grid_edges", "shape": "E8_proj_seed1535", "count": 352, "ids": ["E1", "E2", "E3", "E4", "E5", "E6", "E7", "E8", "E9", "E10", "E11", "E12", "E13", "E14", "E15", "E16", "E17", "E18", "E19", "E20", "E21", "E22", "E23", "E24", "E25", "E26", "E27", "E28", "E29", "E30", "E31", "E32", "E33", "E34", "E35", "E36", "E37", "E38", "E39", "E40", "E41", "E42", "E43", "E44", "E45", "E46", "E47", "E48", "E49", "E50", "E51", "E52", "E53", "E54", "E55", "E56", "E57", "E58", "E59", "E60", "E61", "E62", "E63", "E64", "E65", "E66", "E67", "E68", "E69", "E70", "E71", "E72", "E73", "E74", "E75", "E76", "E77", "E78", "E79", "E80", "E81", "E82", "E83", "E84", "E85", "E86", "E87", "E88", "E89", "E90", "E91", "E92", "E93", "E94", "E95", "E96", "E97", "E98", "E99", "E100", "E101", "E102", "E103", "E104", "E105", "E106", "E107", "E108", "E109", "E110", "E111", "E112", "E113", "E114", "E115", "E116", "E117", "E118", "E119", "E120", "E121", "E122", "E123", "E124", "E125", "E126", "E127", "E128", "E129", "E130", "E131", "E132", "E133", "E134", "E135", "E136", "E137", "E138", "E139", "E140", "E141", "E142", "E143", "E144", "E145", "E146", "E147", "E148", "E149", "E150", "E151", "E152", "E153", "E154", "E155", "E156", "E157", "E158", "E159", "E160", "E161", "E162", "E163", "E164", "E165", "E166", "E167", "E168", "E169", "E170", "E171", "E172", "E173", "E174", "E175", "E176", "E177", "E178", "E179", "E180", "E181", "E182", "E183", "E184", "E185", "E186", "E187", "E188", "E189", "E190", "E191", "E192", "E193", "E194", "E195", "E196", "E197", "E198", "E199", "E200", "E201", "E202", "E203", "E204", "E205", "E206", "E207", "E208", "E209", "E210", "E211", "E212", "E213", "E214", "E215", "E216", "E217", "E218", "E219", "E220", "E221", "E222", "E223", "E224", "E225", "E226", "E227", "E228", "E229", "E230", "E231", "E232", "E233", "E234", "E235", "E236", "E237", "E238", "E239", "E240", "E241", "E242", "E243", "E244", "E245", "E246", "E247", "E248", "E249", "E250", "E251", "E252", "E253", "E254", "E255", "E256", "E257", "E258", "E259", "E260", "E261", "E262", "E263", "E264", "E265", "E266", "E267", "E268", "E269", "E270", "E271", "E272", "E273", "E274", "E275", "E276", "E277", "E278", "E279", "E280", "E281", "E282", "E283", "E284", "E285", "E286", "E287", "E288", "E289", "E290", "E291", "E292", "E293", "E294", "E295", "E296", "E297", "E298", "E299", "E300", "E301", "E302", "E303", "E304", "E305", "E306", "E307", "E308", "E309", "E310", "E311", "E312", "E313", "E314", "E315", "E316", "E317", "E318", "E319", "E320", "E321", "E322", "E323", "E324", "E325", "E326", "E327", "E328", "E329", "E330", "E331", "E332", "E333", "E334", "E335", "E336", "E337", "E338", "E339", "E340", "E341", "E342", "E343", "E344", "E345", "E346", "E347", "E348", "E349", "E350", "E351", "E352"], "pairs": [[0, 5], [0, 124], [0, 127], [0, 141], [0, 143], [1, 8], [1, 35], [1, 161], [1, 170], [2, 36], [3, 209], [3, 220], [3, 230], [4, 28], [4, 61], [4, 65], [4, 116], [4, 120], [4, 125], [4, 151], [5, 9], [5, 12], [5, 16], [5, 20], [5, 136], [5, 143], [5, 166], [5, 168], [5, 172], [6, 189], [6, 208], [6, 214], [7, 27], [7, 202], [8, 24], [8, 34], [8, 145], [9, 24], [9, 79], [9, 173], [10, 34], [10, 230], [11, 14], [11, 74], [11, 200], [11, 203], [11, 233], [11, 235], [11, 238], [13, 24], [14, 96], [14, 209], [15, 94], [16, 104], [16, 133], [16, 140], [16, 173], [17, 118], [17, 154], [17, 155], [17, 159], [17, 170], [18, 27], [18, 101], [18, 224], [19, 89], [19, 190], [19, 207], [19, 214], [19, 219], [19, 223], [20, 94], [20, 150], [21, 83], [21, 135], [23, 211], [24, 98], [24, 110], [24, 141], [25, 125], [25, 138], [25, 173], [25, 174], [26, 48], [26, 195], [26, 211], [28, 48], [28, 53], [28, 60], [28, 126], [28, 127], [28, 181], [29, 134], [29, 192], [30, 43], [30, 56], [30, 152], [30, 153], [30, 155], [30, 211], [31, 167], [32, 49], [32, 52], [33, 126], [33, 140], [33, 184], [35, 232], [36, 89], [36, 115], [36, 137], [36, 177], [36, 185], [37, 75], [37, 98], [37, 118], [38, 89], [39, 94], [39, 150], [40, 104], [40, 205], [41, 79], [41, 126], [42, 88], [42, 152], [42, 229], [43, 102], [44, 92], [48, 118], [48, 190], [48, 204], [49, 193], [50, 160], [51, 71], [51, 236], [53, 184], [54, 80], [54, 132], [55, 66], [57, 221], [57, 223], [58, 169], [59, 66], [59, 205], [60, 104], [60, 149], [62, 76], [62, 128], [62, 160], [62, 168], [62, 193], [62, 224], [63, 79], [63, 91], [63, 170], [63, 194], [64, 116], [64, 220], [65, 117], [66, 102], [66, 128], [67, 81], [67, 173], [67, 193], [68, 118], [68, 124], [68, 213], [71, 234], [72, 177], [72, 179], [72, 208], [74, 89], [74, 93], [74, 170], [74, 202], [74, 203], [75, 99], [75, 124], [75, 207], [75, 238], [76, 213], [77, 118], [78, 168], [78, 232], [79, 82], [79, 107], [79, 123], [79, 138], [79, 154], [80, 208], [81, 129], [81, 151], [82, 138], [82, 216], [82, 238], [83, 111], [83, 137], [83, 189], [84, 208], [86, 121], [86, 189], [86, 204], [86, 235], [87, 109], [87, 239], [88, 152], [88, 184], [88, 185], [89, 93], [89, 170], [89, 187], [89, 218], [89, 219], [90, 197], [91, 142], [92, 96], [92, 120], [92, 200], [93, 121], [93, 137], [93, 147], [94, 102], [95, 173], [96, 152], [96, 184], [97, 111], [97, 171], [97, 186], [97, 234], [100, 172], [100, 192], [100, 196], [100, 208], [101, 104], [101, 111], [101, 137], [101, 173], [101, 225], [102, 194], [103, 219], [104, 213], [104, 237], [105, 168], [106, 122], [106, 155], [108, 180], [108, 184], [110, 223], [111, 159], [111, 173], [111, 205], [111, 219], [111, 233], [112, 148], [112, 208], [113, 133], [114, 154], [114, 179], [115, 123], [115, 179], [116, 144], [117, 177], [118, 122], [118, 135], [120, 153], [120, 200], [121, 137], [122, 142], [122, 158], [122, 170], [122, 218], [123, 153], [124, 127], [124, 156], [124, 157], [127, 191], [128, 130], [128, 192], [128, 224], [129, 132], [131, 138], [132, 134], [132, 148], [132, 165], [132, 204], [137, 141], [138, 171], [138, 186], [139, 187], [140, 142], [141, 142], [141, 157], [142, 190], [142, 204], [145, 147], [145, 149], [145, 163], [145, 209], [147, 153], [147, 171], [148, 166], [149, 161], [150, 214], [153, 173], [154, 155], [154, 159], [154, 170], [154, 210], [154, 219], [155, 223], [155, 235], [156, 172], [158, 223], [158, 238], [159, 171], [160, 164], [162, 166], [162, 167], [162, 174], [165, 213], [166, 174], [168, 171], [168, 224], [169, 201], [170, 172], [172, 236], [173, 229], [174, 230], [176, 192], [177, 181], [177, 209], [178, 186], [179, 181], [179, 187], [181, 185], [184, 185], [184, 200], [188, 196], [189, 191], [191, 223], [192, 204], [193, 195], [193, 196], [202, 204], [202, 226], [209, 211], [210, 218], [213, 220], [214, 220], [216, 219], [220, 223], [224, 234], [227, 239]], "support_counts": [1, 1, 1, 1, 1, 1, 1, 1, 1, 1, 1, 1, 2, 1, 1, 1, 1, 1, 1, 1, 1, 1, 1, 1, 1, 1, 1, 1, 1, 1, 1, 1, 1, 1, 1, 1, 1, 1, 1, 1, 1, 1, 1, 1, 1, 1, 1, 1, 1, 1, 1, 1, 2, 1, 1, 1, 1, 1, 1, 1, 1, 1, 1, 1, 1, 1, 1, 1, 1, 1, 1, 1, 1, 1, 1, 2, 1, 1, 1, 1, 1, 1, 1, 1, 1, 1, 1, 1, 1, 1, 1, 1, 1, 1, 1, 1, 1, 1, 1, 1, 1, 1, 1, 1, 1, 1, 1, 1, 1, 1, 1, 1, 1, 1, 1, 1, 1, 1, 1, 1, 1, 1, 1, 1, 1, 1, 1, 1, 1, 1, 1, 1, 1, 1, 1, 1, 1, 1, 1, 1, 1, 1, 1, 1, 1, 1, 1, 1, 1, 1, 1, 1, 1, 1, 1, 1, 1, 1, 1, 1, 1, 1, 1, 1, 1, 1, 1, 1, 1, 1, 1, 1, 1, 1, 1, 1, 2, 1, 1, 1, 1, 1, 1, 1, 1, 1, 1, 1, 1, 1, 1, 1, 1, 1, 1, 1, 1, 2, 1, 2, 1, 1, 1, 1, 1, 1, 1, 1, 1, 1, 1, 1, 1, 1, 1, 1, 1, 1, 1, 1, 1, 1, 1, 1, 1, 1, 1, 1, 1, 1, 1, 1, 1, 2, 1, 1, 1, 1, 1, 1, 1, 1, 1, 1, 1, 1, 1, 1, 1, 1, 1, 1, 1, 1, 1, 1, 1, 1, 1, 1, 1, 1, 1, 1, 1, 1, 1, 1, 1, 1, 1, 2, 1, 1, 1, 1, 1, 1, 1, 1, 1, 1, 1, 2, 1, 1, 1, 1, 1, 1, 1, 1, 1, 1, 1, 1, 1, 1, 1, 1, 1, 1, 1, 1, 1, 1, 1, 1, 1, 1, 1, 1, 1, 1, 1, 1, 1, 1, 1, 1, 1, 1, 1, 1, 1, 2, 1, 1, 1, 1, 1, 1, 1, 1, 1, 1, 1, 1, 1, 1, 1, 1, 1, 1, 1, 1, 1, 1, 1, 1, 1, 1], "support_class": ["single", "single", "single", "single", "single", "single", "single", "single", "single", "single", "single", "single", "shared", "single", "single", "single", "single", "single", "single", "single", "single", "single", "single", "single", "single", "single", "single", "single", "single", "single", "single", "single", "single", "single", "single", "single", "single", "single", "single", "single", "single", "single", "single", "single", "single", "single", "single", "single", "single", "single", "single", "single", "shared", "single", "single", "single", "single", "single", "single", "single", "single", "single", "single", "single", "single", "single", "single", "single", "single", "single", "single", "single", "single", "single", "single", "shared", "single", "single", "single", "single", "single", "single", "single", "single", "single", "single", "single", "single", "single", "single", "single", "single", "single", "single", "single", "single", "single", "single", "single", "single", "single", "single", "single", "single", "single", "single", "single", "single", "single", "single", "single", "single", "single", "single", "single", "single", "single", "single", "single", "single", "single", "single", "single", "single", "single", "single", "single", "single", "single", "single", "single", "single", "single", "single", "single", "single", "single", "single", "single", "single", "single", "single", "single", "single", "single", "single", "single", "single", "single", "single", "single", "single", "single", "single", "single", "single", "single", "single", "single", "single", "single", "single", "single", "single", "single", "single", "single", "single", "single", "single", "single", "single", "single", "single", "single", "single", "shared", "single", "single", "single", "single", "single", "single", "single", "single", "single", "single", "single", "single", "single", "single", "single", "single", "single", "single", "single", "single", "shared", "single", "shared", "single", "single", "single", "single", "single", "single", "single", "single", "single", "single", "single", "single", "single", "single", "single", "single", "single", "single", "single", "single", "single", "single", "single", "single", "single", "single", "single", "single", "single", "single", "single", "single", "single", "shared", "single", "single", "single", "single", "single", "single", "single", "single", "single", "single", "single", "single", "single", "single", "single", "single", "single", "single", "single", "single", "single", "single", "single", "single", "single", "single", "single", "single", "single", "single", "single", "single", "single", "single", "single", "single", "single", "shared", "single", "single", "single", "single", "single", "single", "single", "single", "single", "single", "single", "shared", "single", "single", "single", "single", "single", "single", "single", "single", "single", "single", "single", "single", "single", "single", "single", "single", "single", "single", "single", "single", "single", "single", "single", "single", "single", "single", "single", "single", "single", "single", "single", "single", "single", "single", "single", "single", "single", "single", "single", "single", "single", "shared", "single", "single", "single", "single", "single", "single", "single", "single", "single", "single", "single", "single", "single", "single", "single", "single", "single", "single", "single", "single", "single", "single", "single", "single", "single", "single"]}, "geometry": {"type": "MultiLineString", "coordinates": [[[-28.74680384652254, -12.969567330135632], [-76.01604884498525, 23.39342756041042]], [[-28.74680384652254, -12.969567330135632], [34.32300163140669, 23.07058513344232]], [[-28.74680384652254, -12.969567330135632], [-27.715103597937453, 86.137766461158]], [[-28.74680384652254, -12.969567330135632], [-121.21420230351093, 66.09928498721041]], [[-28.74680384652254, -12.969567330135632], [-152.50338628142578, -70.90414539336469]], [[-13.626834332897182, 82.46873809853304], [-59.8943190134284, -16.041673100776443]], [[-13.626834332897182, 82.46873809853304], [115.73021713550183, 47.88915476685764]], [[-13.626834332897182, 82.46873809853304], [-80.39829974529472, -1.5374295075810456]], [[-13.626834332897182, 82.46873809853304], [-77.7731954877501, 69.0021405435058]], [[166.37316566710282, -82.46873809853304], [-37.117504475681955, -8.950907618363907]], [[151.25319615347746, 12.969567330135632], [110.49167823841155, -47.96932995901323]], [[151.25319615347746, 12.969567330135632], [103.41737718388774, 30.770638729548043]], [[151.25319615347746, 12.969567330135632], [174.01882627417967, -38.16760511375368]], [[11.071083251159937, 8.985840024122911], [13.880155291986629, -35.4651752327847]], [[11.071083251159937, 8.985840024122911], [55.93346777288455, -56.457779122660455]], [[11.071083251159937, 8.985840024122911], [109.5597576734291, -37.52298819152529]], [[11.071083251159937, 8.985840024122911], [19.815444519683208, -39.21627232549998]], [[11.071083251159937, 8.985840024122911], [19.414007633789392, 2.279095069343017]], [[11.071083251159937, 8.985840024122911], [55.620193217073144, -24.813390777815513]], [[11.071083251159937, 8.985840024122911], [-147.34249251052088, 8.461051645060623]], [[-76.01604884498525, 23.39342756041042], [25.93869398153815, 49.17032377033236]], [[-76.01604884498525, 23.39342756041042], [-35.2591591939037, 25.15924035379368]], [[-76.01604884498525, 23.39342756041042], [3.704544949840639, 24.293109994938884]], [[-76.01604884498525, 23.39342756041042], [-6.280042874908927, 20.579213020864408]], [[-76.01604884498525, 23.39342756041042], [-23.858853696114483, 41.79797607326059]], [[-76.01604884498525, 23.39342756041042], [-152.50338628142578, -70.90414539336469]], [[-76.01604884498525, 23.39342756041042], [-122.85083532616353, 24.127356256906815]], [[-76.01604884498525, 23.39342756041042], [26.463697467097134, 44.90085261538406]], [[-76.01604884498525, 23.39342756041042], [102.03346285311788, 72.15385883339125]], [[103.98395115501476, -23.39342756041042], [113.02425624038622, 0.28523122669696616]], [[103.98395115501476, -23.39342756041042], [27.49661371857424, 70.90414539336469]], [[103.98395115501476, -23.39342756041042], [166.016980963088, -1.0814584383069743]], [[-168.92891674884007, -8.985840024122911], [115.91300782959782, -49.713043276150465]], [[-168.92891674884007, -8.985840024122911], [-89.98071636836708, 46.016801098181006]], [[-59.8943190134284, -16.041673100776443], [-64.0869921704022, 49.713043276150465]], [[-59.8943190134284, -16.041673100776443], [-147.97437622412815, -2.296898305527279]], [[-59.8943190134284, -16.041673100776443], [-60.30472690141371, 50.717518594865616]], [[25.93869398153815, 49.17032377033236], [-64.0869921704022, 49.713043276150465]], [[25.93869398153815, 49.17032377033236], [134.04848440017847, 50.130861193391944]], [[25.93869398153815, 49.17032377033236], [120.55559532005744, 16.90920432939026]], [[-154.06130601846186, -49.17032377033236], [-147.97437622412815, -2.296898305527279]], [[-154.06130601846186, -49.17032377033236], [174.01882627417967, -38.16760511375368]], [[120.1056809865716, 16.041673100776443], [-131.01732717947064, 27.526266627831806]], [[120.1056809865716, 16.041673100776443], [18.65318852668423, 58.96232426861905]], [[120.1056809865716, 16.041673100776443], [32.65750748947913, -8.461051645060623]], [[120.1056809865716, 16.041673100776443], [-141.38364616800303, -48.858209215745894]], [[120.1056809865716, 16.041673100776443], [136.2177362615011, 25.09606657103631]], [[120.1056809865716, 16.041673100776443], [-160.1845554803168, 39.21627232549998]], [[120.1056809865716, 16.041673100776443], [163.968925511256, 33.32428278705193]], [[48.98267282052936, -27.526266627831806], [-64.0869921704022, 49.713043276150465]], [[-131.01732717947064, 27.526266627831806], [-74.6300749473238, 49.51566998851395]], [[-131.01732717947064, 27.526266627831806], [110.49167823841155, -47.96932995901323]], [[144.74084080609632, -25.15924035379368], [87.5273773232122, -17.52706147845503]], [[3.704544949840639, 24.293109994938884], [-43.0339943371546, 84.01613311382894]], [[3.704544949840639, 24.293109994938884], [-73.54613437995249, -69.12198830574162]], [[3.704544949840639, 24.293109994938884], [36.244480630618334, -13.098824606289032]], [[3.704544949840639, 24.293109994938884], [120.55559532005744, 16.90920432939026]], [[-66.57713203524982, 8.972911079980232], [-43.78226373849893, -25.09606657103631]], [[-66.57713203524982, 8.972911079980232], [31.814036720610055, 28.45143161139091]], [[-66.57713203524982, 8.972911079980232], [-92.66818567242701, 80.80170331749126]], [[-66.57713203524982, 8.972911079980232], [109.27071727165797, -3.2510837506585726]], [[-66.57713203524982, 8.972911079980232], [-77.7731954877501, 69.0021405435058]], [[113.4228679647502, -8.972911079980232], [115.91300782959782, -49.713043276150465]], [[113.4228679647502, -8.972911079980232], [138.60607589440775, -2.0862647379585857]], [[113.4228679647502, -8.972911079980232], [152.28489640206254, -86.137766461158]], [[-176.29545505015938, -24.293109994938884], [-77.8528263273712, 14.20011113547576]], [[-176.29545505015938, -24.293109994938884], [99.60170025470529, 1.5374295075810456]], [[-176.29545505015938, -24.293109994938884], [-168.6368397393971, -2.209998689933012]], [[-176.29545505015938, -24.293109994938884], [166.016980963088, -1.0814584383069743]], [[-176.29545505015938, -24.293109994938884], [122.57940589947606, 4.311233885109083]], [[-176.29545505015938, -24.293109994938884], [151.2463776993539, 18.24896163136811]], [[-6.280042874908927, 20.579213020864408], [87.5273773232122, -17.52706147845503]], [[-6.280042874908927, 20.579213020864408], [53.62213902967225, -53.41992787046565]], [[-79.66905899516124, 11.885535321908069], [136.01216249500237, 33.67187251948626]], [[-79.66905899516124, 11.885535321908069], [-111.11184830147998, -16.062196624480578]], [[173.71995712509107, -20.579213020864408], [-143.75551936938166, 13.098824606289032]], [[-64.0869921704022, 49.713043276150465], [178.60586164995894, 26.463598200592628]], [[-64.0869921704022, 49.713043276150465], [-140.05222846376114, 29.950167931610977]], [[-64.0869921704022, 49.713043276150465], [-121.21420230351093, 66.09928498721041]], [[8.16039881289707, -28.136891672743733], [55.620193217073144, -24.813390777815513]], [[8.16039881289707, -28.136891672743733], [-21.9780149266795, 1.4112876898746762]], [[8.16039881289707, -28.136891672743733], [120.55559532005744, 16.90920432939026]], [[8.16039881289707, -28.136891672743733], [109.04134608508093, 26.9100206671178]], [[-171.83960118710294, 28.136891672743733], [-70.31054676790632, 12.136258151894788]], [[-171.83960118710294, 28.136891672743733], [-113.65767553279532, -10.443946649882808]], [[-171.83960118710294, 28.136891672743733], [-143.75551936938166, 13.098824606289032]], [[13.880155291986629, -35.4651752327847], [-70.31054676790632, 12.136258151894788]], [[13.880155291986629, -35.4651752327847], [68.50658907747267, 21.178246287885734]], [[13.880155291986629, -35.4651752327847], [51.52755653545346, 2.1708461863032693]], [[13.880155291986629, -35.4651752327847], [39.502127847121194, -24.21712968140674]], [[13.880155291986629, -35.4651752327847], [-27.715103597937453, 86.137766461158]], [[13.880155291986629, -35.4651752327847], [102.22680451224991, -69.0021405435058]], [[-82.84720344291325, -29.19895275752957], [-59.55952260919885, -56.64849783680603]], [[-82.84720344291325, -29.19895275752957], [-70.72928272834204, 3.2510837506585726]], [[97.15279655708675, 29.19895275752957], [-174.00730106585013, 26.792512637367015]], [[97.15279655708675, 29.19895275752957], [3.7393999253020205, 16.22425969381852]], [[97.15279655708675, 29.19895275752957], [26.23441442862453, 56.06181252128872]], [[97.15279655708675, 29.19895275752957], [50.12725699401049, 28.979319373056445]], [[97.15279655708675, 29.19895275752957], [-92.66818567242701, 80.80170331749126]], [[97.15279655708675, 29.19895275752957], [-143.75551936938166, 13.098824606289032]], [[-166.11984470801337, 35.4651752327847], [-148.91717803762373, -32.36122749896436]], [[-64.26978286449818, -47.88915476685764], [11.225878258532859, -59.46608811242179]], [[-64.26978286449818, -47.88915476685764], [-19.701757373391196, -61.82616265983067]], [[32.02562377587187, 2.296898305527279], [39.502127847121194, -24.21712968140674]], [[32.02562377587187, 2.296898305527279], [36.244480630618334, -13.098824606289032]], [[32.02562377587187, 2.296898305527279], [31.082821962376286, 32.36122749896436]], [[115.73021713550183, 47.88915476685764], [133.63090800107716, 76.64220869504602]], [[-37.117504475681955, -8.950907618363907], [-77.8528263273712, 14.20011113547576]], [[-37.117504475681955, -8.950907618363907], [-68.16339383052396, -4.751103632145077]], [[-37.117504475681955, -8.950907618363907], [-13.98301903691199, 1.0814584383069743]], [[-37.117504475681955, -8.950907618363907], [-70.95865391491907, -26.9100206671178]], [[-37.117504475681955, -8.950907618363907], [57.14916467383649, -24.127356256906815]], [[84.72815976273357, -79.7992381072349], [111.574364230266, 10.65058533269827]], [[84.72815976273357, -79.7992381072349], [178.60586164995894, 26.463598200592628]], [[84.72815976273357, -79.7992381072349], [-43.78226373849893, -25.09606657103631]], [[-95.27184023726643, 79.7992381072349], [-77.8528263273712, 14.20011113547576]], [[142.88249552431807, 8.950907618363907], [87.5273773232122, -17.52706147845503]], [[142.88249552431807, 8.950907618363907], [53.62213902967225, -53.41992787046565]], [[5.992698934149875, -26.792512637367015], [-43.0339943371546, 84.01613311382894]], [[5.992698934149875, -26.792512637367015], [126.43569031265935, -38.952985397586026]], [[-73.76336861407793, -45.39759305748792], [134.04848440017847, 50.130861193391944]], [[-73.76336861407793, -45.39759305748792], [39.502127847121194, -24.21712968140674]], [[106.23663138592207, 45.39759305748792], [-5.760222397914303, 32.59268820607126]], [[106.23663138592207, 45.39759305748792], [26.23441442862453, 56.06181252128872]], [[106.23663138592207, 45.39759305748792], [165.1875146210928, -31.65872046403811]], [[-174.00730106585013, 26.792512637367015], [-41.39392410559226, 2.0862647379585857]], [[-5.497708420937627, -21.42744864975767], [-14.709785877791159, 26.681291636864504]], [[-70.31054676790632, 12.136258151894788], [-43.78226373849893, -25.09606657103631]], [[-70.31054676790632, 12.136258151894788], [99.60170025470529, 1.5374295075810456]], [[-70.31054676790632, 12.136258151894788], [115.90030002612643, 32.89246229973447]], [[11.225878258532859, -59.46608811242179], [-92.40398329304884, -60.12463797073797]], [[-168.77412174146713, 59.46608811242179], [-64.42560849802248, 46.16545505287557]], [[109.68945323209368, -12.136258151894788], [-154.71093489123712, -74.07103210126073]], [[109.68945323209368, -12.136258151894788], [111.83660616947606, 4.751103632145077]], [[68.50658907747267, 21.178246287885734], [31.082821962376286, 32.36122749896436]], [[-111.49341092252732, -21.178246287885734], [-43.98783750499766, -33.67187251948626]], [[-111.49341092252732, -21.178246287885734], [-57.420594100523964, -4.311233885109083]], [[160.2982426266088, 61.82616265983067], [-70.44024232657091, 37.52298819152529]], [[95.05657843074448, -25.59833717190215], [111.32818582171232, -6.105645268469286]], [[95.05657843074448, -25.59833717190215], [151.2463776993539, 18.24896163136811]], [[-84.94342156925553, 25.59833717190215], [-108.25259258773326, 75.99074463837518]], [[-176.26060007469798, -16.22425969381852], [-70.44024232657091, 37.52298819152529]], [[-176.26060007469798, -16.22425969381852], [126.43569031265935, -38.952985397586026]], [[51.52755653545346, 2.1708461863032693], [-43.0339943371546, 84.01613311382894]], [[51.52755653545346, 2.1708461863032693], [90.01928363163293, -46.016801098181006]], [[-124.06653222711546, 56.457779122660455], [-45.951515599821526, -50.130861193391944]], [[-124.06653222711546, 56.457779122660455], [-28.7536223006461, -18.24896163136811]], [[-124.06653222711546, 56.457779122660455], [-64.42560849802248, 46.16545505287557]], [[-124.06653222711546, 56.457779122660455], [26.463697467097134, 44.90085261538406]], [[-124.06653222711546, 56.457779122660455], [-92.40398329304884, -60.12463797073797]], [[-124.06653222711546, 56.457779122660455], [152.28489640206254, -86.137766461158]], [[-128.47244346454653, -2.1708461863032693], [134.04848440017847, 50.130861193391944]], [[-128.47244346454653, -2.1708461863032693], [174.2397776020857, -32.59268820607126]], [[-128.47244346454653, -2.1708461863032693], [-77.7731954877501, 69.0021405435058]], [[-128.47244346454653, -2.1708461863032693], [-74.26018980001537, -50.21368615605234]], [[37.72752308639142, 2.632290709517291], [19.815444519683208, -39.21627232549998]], [[37.72752308639142, 2.632290709517291], [103.41737718388774, 30.770638729548043]], [[109.5597576734291, -37.52298819152529], [-45.552039496786, -40.094661015104165]], [[-70.44024232657091, 37.52298819152529], [-41.39392410559226, 2.0862647379585857]], [[-70.44024232657091, 37.52298819152529], [-28.7536223006461, -18.24896163136811]], [[-142.27247691360859, -2.632290709517291], [-124.3126656666317, -36.35047762785879]], [[-142.27247691360859, -2.632290709517291], [120.55559532005744, 16.90920432939026]], [[-142.27247691360859, -2.632290709517291], [-92.40398329304884, -60.12463797073797]], [[25.289065108762887, 74.07103210126073], [-43.78226373849893, -25.09606657103631]], [[25.289065108762887, 74.07103210126073], [34.32300163140669, 23.07058513344232]], [[25.289065108762887, 74.07103210126073], [158.0219850733205, -1.4112876898746762]], [[-154.71093489123712, -74.07103210126073], [134.447960503214, 40.094661015104165]], [[-68.425635769734, -10.65058533269827], [-70.95865391491907, -26.9100206671178]], [[-68.425635769734, -10.65058533269827], [-77.96653714688213, -72.15385883339125]], [[-68.425635769734, -10.65058533269827], [27.49661371857424, 70.90414539336469]], [[18.65318852668423, 58.96232426861905], [-77.8528263273712, 14.20011113547576]], [[18.65318852668423, 58.96232426861905], [-92.4726226767878, 17.52706147845503]], [[18.65318852668423, 58.96232426861905], [-77.7731954877501, 69.0021405435058]], [[18.65318852668423, 58.96232426861905], [-89.98071636836708, 46.016801098181006]], [[18.65318852668423, 58.96232426861905], [-141.38364616800303, -48.858209215745894]], [[111.574364230266, 10.65058533269827], [105.3699250526762, -49.51566998851395]], [[111.574364230266, 10.65058533269827], [34.32300163140669, 23.07058513344232]], [[111.574364230266, 10.65058533269827], [-168.6368397393971, -2.209998689933012]], [[111.574364230266, 10.65058533269827], [163.968925511256, 33.32428278705193]], [[-45.951515599821526, -50.130861193391944], [158.0219850733205, -1.4112876898746762]], [[-109.56361001611145, -34.17892374369429], [-43.78226373849893, -25.09606657103631]], [[70.43638998388855, 34.17892374369429], [26.463697467097134, 44.90085261538406]], [[70.43638998388855, 34.17892374369429], [133.63090800107716, 76.64220869504602]], [[134.04848440017847, 50.130861193391944], [55.68733433336832, 36.35047762785879]], [[134.04848440017847, 50.130861193391944], [136.9660056628454, -84.01613311382894]], [[134.04848440017847, 50.130861193391944], [-1.6814599808214903, -18.015206756340138]], [[134.04848440017847, 50.130861193391944], [-21.9780149266795, 1.4112876898746762]], [[134.04848440017847, 50.130861193391944], [31.814036720610055, 28.45143161139091]], [[-43.98783750499766, -33.67187251948626], [27.49661371857424, 70.90414539336469]], [[-124.3126656666317, -36.35047762785879], [-74.32934120654886, 6.789806817757267]], [[-124.3126656666317, -36.35047762785879], [-147.34249251052088, 8.461051645060623]], [[55.68733433336832, 36.35047762785879], [-21.9780149266795, 1.4112876898746762]], [[55.68733433336832, 36.35047762785879], [68.88815169852003, 16.062196624480578]], [[55.68733433336832, 36.35047762785879], [163.968925511256, 33.32428278705193]], [[136.01216249500237, 33.67187251948626], [138.19847199728653, -67.36903715166356]], [[136.01216249500237, 33.67187251948626], [-13.98301903691199, 1.0814584383069743]], [[136.01216249500237, 33.67187251948626], [113.02425624038622, 0.28523122669696616]], [[-105.25816016082857, 7.170550397036937], [27.49661371857424, 70.90414539336469]], [[133.074727583592, 78.18805205162315], [-5.98117372582033, 38.16760511375368]], [[133.074727583592, 78.18805205162315], [113.02425624038622, 0.28523122669696616]], [[133.074727583592, 78.18805205162315], [115.90030002612643, 32.89246229973447]], [[133.074727583592, 78.18805205162315], [-160.1845554803168, 39.21627232549998]], [[74.74183983917143, -7.170550397036937], [39.947771536238875, -29.950167931610977]], [[74.74183983917143, -7.170550397036937], [157.2601946858507, -8.566802097323968]], [[-5.760222397914303, 32.59268820607126], [26.23441442862453, 56.06181252128872]], [[-5.760222397914303, 32.59268820607126], [31.082821962376286, 32.36122749896436]], [[-5.760222397914303, 32.59268820607126], [57.14916467383649, -24.127356256906815]], [[-77.8528263273712, 14.20011113547576], [-92.4726226767878, 17.52706147845503]], [[-77.8528263273712, 14.20011113547576], [-77.7731954877501, 69.0021405435058]], [[-77.8528263273712, 14.20011113547576], [-128.4836954043806, 50.16938719035035]], [[-77.8528263273712, 14.20011113547576], [106.45386562004751, 69.12198830574162]], [[-77.8528263273712, 14.20011113547576], [122.57940589947606, 4.311233885109083]], [[102.1471736726288, -14.20011113547576], [-148.18596327938997, -28.45143161139091]], [[174.2397776020857, -32.59268820607126], [-69.50832176158845, 47.96932995901323]], [[-14.709785877791159, 26.681291636864504], [-74.6300749473238, 49.51566998851395]], [[-14.709785877791159, 26.681291636864504], [19.414007633789392, 2.279095069343017]], [[-14.709785877791159, 26.681291636864504], [32.65750748947913, -8.461051645060623]], [[-92.4726226767878, 17.52706147845503], [-5.98117372582033, 38.16760511375368]], [[-92.4726226767878, 17.52706147845503], [-13.98301903691199, 1.0814584383069743]], [[-92.4726226767878, 17.52706147845503], [-64.09969997387357, -32.89246229973447]], [[87.5273773232122, -17.52706147845503], [-41.39392410559226, 2.0862647379585857]], [[165.29021412220885, -26.681291636864504], [120.55559532005744, 16.90920432939026]], [[-74.6300749473238, 49.51566998851395], [26.23441442862453, 56.06181252128872]], [[-74.6300749473238, 49.51566998851395], [31.082821962376286, 32.36122749896436]], [[-1.3941383500410562, -26.463598200592628], [138.19847199728653, -67.36903715166356]], [[-1.3941383500410562, -26.463598200592628], [-124.4954944687967, 54.968266521845095]], [[-1.3941383500410562, -26.463598200592628], [37.34108442454474, -23.350402860242014]], [[-1.3941383500410562, -26.463598200592628], [134.447960503214, 40.094661015104165]], [[34.74340183844198, 16.93702943255478], [102.03346285311788, 72.15385883339125]], [[34.74340183844198, 16.93702943255478], [-70.72928272834204, 3.2510837506585726]], [[34.74340183844198, 16.93702943255478], [87.33181432757299, -80.80170331749126]], [[34.74340183844198, 16.93702943255478], [27.49661371857424, 70.90414539336469]], [[138.60607589440775, -2.0862647379585857], [-43.0339943371546, 84.01613311382894]], [[138.60607589440775, -2.0862647379585857], [138.19847199728653, -67.36903715166356]], [[138.60607589440775, -2.0862647379585857], [-13.98301903691199, 1.0814584383069743]], [[138.60607589440775, -2.0862647379585857], [120.55559532005744, 16.90920432939026]], [[138.60607589440775, -2.0862647379585857], [-140.4978721528788, 24.21712968140674]], [[-41.39392410559226, 2.0862647379585857], [-74.26018980001537, -50.21368615605234]], [[-145.25659816155803, -16.93702943255478], [122.57940589947606, 4.311233885109083]], [[-43.0339943371546, 84.01613311382894], [158.0219850733205, -1.4112876898746762]], [[-43.0339943371546, 84.01613311382894], [158.67585434124163, 27.424175546254443]], [[56.10166751713101, -30.459991173517626], [26.463697467097134, 44.90085261538406]], [[-123.89833248286898, 30.459991173517626], [-14.812485378907214, 31.65872046403811]], [[-123.89833248286898, 30.459991173517626], [-92.66818567242701, 80.80170331749126]], [[-41.80152800271349, 67.36903715166356], [55.50450553120329, -54.968266521845095]], [[-41.80152800271349, 67.36903715166356], [31.082821962376286, 32.36122749896436]], [[-140.05222846376114, 29.950167931610977], [151.2463776993539, 18.24896163136811]], [[138.19847199728653, -67.36903715166356], [109.27071727165797, -3.2510837506585726]], [[138.19847199728653, -67.36903715166356], [120.55559532005744, 16.90920432939026]], [[138.19847199728653, -67.36903715166356], [126.43569031265935, -38.952985397586026]], [[138.19847199728653, -67.36903715166356], [122.57940589947606, 4.311233885109083]], [[138.19847199728653, -67.36903715166356], [136.2177362615011, 25.09606657103631]], [[-22.739805314149304, 8.566802097323968], [38.61635383199699, 48.858209215745894]], [[-22.739805314149304, 8.566802097323968], [27.49661371857424, 70.90414539336469]], [[-16.03107448874401, -33.32428278705193], [-73.54613437995249, -69.12198830574162]], [[-21.32414565875838, -27.424175546254443], [31.814036720610055, 28.45143161139091]], [[-21.32414565875838, -27.424175546254443], [-77.96653714688213, -72.15385883339125]], [[-68.16339383052396, -4.751103632145077], [-1.6814599808214903, -18.015206756340138]], [[-68.16339383052396, -4.751103632145077], [-77.96653714688213, -72.15385883339125]], [[19.815444519683208, -39.21627232549998], [11.363160260602912, 2.209998689933012]], [[-45.552039496786, -40.094661015104165], [-70.95865391491907, -26.9100206671178]], [[-43.78226373849893, -25.09606657103631], [-14.812485378907214, 31.65872046403811]], [[-43.78226373849893, -25.09606657103631], [-111.11184830147998, -16.062196624480578]], [[19.414007633789392, 2.279095069343017], [50.12725699401049, 28.979319373056445]], [[19.414007633789392, 2.279095069343017], [32.65750748947913, -8.461051645060623]], [[-5.98117372582033, 38.16760511375368], [-13.98301903691199, 1.0814584383069743]], [[-14.812485378907214, 31.65872046403811], [-69.50832176158845, 47.96932995901323]], [[-14.812485378907214, 31.65872046403811], [87.59601670695116, 60.12463797073797]], [[-14.812485378907214, 31.65872046403811], [-77.7731954877501, 69.0021405435058]], [[-14.812485378907214, 31.65872046403811], [106.45386562004751, 69.12198830574162]], [[-1.6814599808214903, -18.015206756340138], [50.12725699401049, 28.979319373056445]], [[34.32300163140669, 23.07058513344232], [-27.715103597937453, 86.137766461158]], [[34.32300163140669, 23.07058513344232], [66.34232446720469, 10.443946649882808]], [[34.32300163140669, 23.07058513344232], [105.73981019998465, 50.21368615605234]], [[-27.715103597937453, 86.137766461158], [115.57439150197753, -46.16545505287557]], [[-28.7536223006461, -18.24896163136811], [-68.67181417828769, 6.105645268469286]], [[-28.7536223006461, -18.24896163136811], [-70.72928272834204, 3.2510837506585726]], [[-28.7536223006461, -18.24896163136811], [152.28489640206254, -86.137766461158]], [[-74.32934120654886, 6.789806817757267], [-57.420594100523964, -4.311233885109083]], [[-76.58262281611228, -30.770638729548043], [-21.9780149266795, 1.4112876898746762]], [[-57.420594100523964, -4.311233885109083], [-59.55952260919885, -56.64849783680603]], [[-57.420594100523964, -4.311233885109083], [38.61635383199699, 48.858209215745894]], [[-57.420594100523964, -4.311233885109083], [-142.65891557545527, 23.350402860242014]], [[-57.420594100523964, -4.311233885109083], [115.90030002612643, 32.89246229973447]], [[-13.98301903691199, 1.0814584383069743], [-121.21420230351093, 66.09928498721041]], [[-21.9780149266795, 1.4112876898746762], [-124.4954944687967, 54.968266521845095]], [[-21.9780149266795, 1.4112876898746762], [37.34108442454474, -23.350402860242014]], [[-84.53463855679479, 31.071315700374008], [-128.4836954043806, 50.16938719035035]], [[36.244480630618334, -13.098824606289032], [-69.50832176158845, 47.96932995901323]], [[-121.21420230351093, 66.09928498721041], [-69.50832176158845, 47.96932995901323]], [[-121.21420230351093, 66.09928498721041], [105.73981019998465, 50.21368615605234]], [[-69.50832176158845, 47.96932995901323], [99.60170025470529, 1.5374295075810456]], [[-69.50832176158845, 47.96932995901323], [115.90030002612643, 32.89246229973447]], [[-60.30472690141371, 50.717518594865616], [-64.09969997387357, -32.89246229973447]], [[-60.30472690141371, 50.717518594865616], [90.01928363163293, -46.016801098181006]], [[-60.30472690141371, 50.717518594865616], [-109.26108748994623, 21.92772436793256]], [[-60.30472690141371, 50.717518594865616], [110.49167823841155, -47.96932995901323]], [[-64.09969997387357, -32.89246229973447], [50.12725699401049, 28.979319373056445]], [[-64.09969997387357, -32.89246229973447], [-124.4954944687967, 54.968266521845095]], [[38.61635383199699, 48.858209215745894], [-122.85083532616353, 24.127356256906815]], [[90.01928363163293, -46.016801098181006], [-80.39829974529472, -1.5374295075810456]], [[53.62213902967225, -53.41992787046565], [166.016980963088, -1.0814584383069743]], [[50.12725699401049, 28.979319373056445], [120.55559532005744, 16.90920432939026]], [[31.814036720610055, 28.45143161139091], [-92.66818567242701, 80.80170331749126]], [[31.814036720610055, 28.45143161139091], [109.27071727165797, -3.2510837506585726]], [[31.814036720610055, 28.45143161139091], [-77.7731954877501, 69.0021405435058]], [[31.814036720610055, 28.45143161139091], [58.78579769648908, -66.09928498721041]], [[31.814036720610055, 28.45143161139091], [122.57940589947606, 4.311233885109083]], [[-92.66818567242701, 80.80170331749126], [151.2463776993539, 18.24896163136811]], [[-92.66818567242701, 80.80170331749126], [-160.1845554803168, 39.21627232549998]], [[66.34232446720469, 10.443946649882808], [102.03346285311788, 72.15385883339125]], [[87.59601670695116, 60.12463797073797], [151.2463776993539, 18.24896163136811]], [[87.59601670695116, 60.12463797073797], [163.968925511256, 33.32428278705193]], [[109.27071727165797, -3.2510837506585726], [-124.4954944687967, 54.968266521845095]], [[-64.42560849802248, 46.16545505287557], [51.51630459561938, -50.16938719035035]], [[-66.97574375961379, -0.28523122669696616], [-122.85083532616353, 24.127356256906815]], [[-66.97574375961379, -0.28523122669696616], [-148.91717803762373, -32.36122749896436]], [[-66.97574375961379, -0.28523122669696616], [109.04134608508093, 26.9100206671178]], [[-142.65891557545527, 23.350402860242014], [158.0219850733205, -1.4112876898746762]], [[-122.85083532616353, 24.127356256906815], [109.04134608508093, 26.9100206671178]], [[26.463697467097134, 44.90085261538406], [-124.4954944687967, 54.968266521845095]], [[26.463697467097134, 44.90085261538406], [152.28489640206254, -86.137766461158]], [[-108.25259258773326, 75.99074463837518], [-126.37786097032776, 53.41992787046565]], [[-77.7731954877501, 69.0021405435058], [102.03346285311788, 72.15385883339125]], [[102.03346285311788, 72.15385883339125], [111.83660616947606, 4.751103632145077]], [[120.55559532005744, 16.90920432939026], [165.1875146210928, -31.65872046403811]], [[109.04134608508093, 26.9100206671178], [174.01882627417967, -38.16760511375368]], [[14.222436260960606, -40.37949110079969], [-70.72928272834204, 3.2510837506585726]], [[-70.95865391491907, -26.9100206671178], [102.22680451224991, -69.0021405435058]], [[-70.95865391491907, -26.9100206671178], [110.49167823841155, -47.96932995901323]], [[-59.44440467994258, -16.90920432939026], [37.34108442454474, -23.350402860242014]], [[-77.96653714688213, -72.15385883339125], [102.22680451224991, -69.0021405435058]], [[-77.96653714688213, -72.15385883339125], [-128.4836954043806, 50.16938719035035]], [[102.22680451224991, -69.0021405435058], [57.14916467383649, -24.127356256906815]], [[31.082821962376286, 32.36122749896436], [57.14916467383649, -24.127356256906815]], [[31.082821962376286, 32.36122749896436], [32.65750748947913, -8.461051645060623]], [[70.73891251005378, -21.92772436793256], [87.33181432757299, -80.80170331749126]], [[113.02425624038622, 0.28523122669696616], [115.57439150197753, -46.16545505287557]], [[115.57439150197753, -46.16545505287557], [151.2463776993539, 18.24896163136811]], [[-70.72928272834204, 3.2510837506585726], [115.90030002612643, 32.89246229973447]], [[-92.40398329304884, -60.12463797073797], [-113.65767553279532, -10.443946649882808]], [[-92.40398329304884, -60.12463797073797], [87.33181432757299, -80.80170331749126]], [[-89.98071636836708, 46.016801098181006], [115.90030002612643, 32.89246229973447]], [[-89.98071636836708, 46.016801098181006], [-124.37980678292686, 24.813390777815513]], [[110.49167823841155, -47.96932995901323], [-143.75551936938166, 13.098824606289032]], [[58.78579769648908, -66.09928498721041], [106.45386562004751, 69.12198830574162]], [[158.0219850733205, -1.4112876898746762], [103.41737718388774, 30.770638729548043]], [[166.016980963088, -1.0814584383069743], [103.41737718388774, 30.770638729548043]], [[68.88815169852003, 16.062196624480578], [122.57940589947606, 4.311233885109083]], [[103.41737718388774, 30.770638729548043], [151.2463776993539, 18.24896163136811]], [[152.28489640206254, -86.137766461158], [134.447960503214, 40.094661015104165]], [[-145.67699836859333, -23.07058513344232], [157.2601946858507, -8.566802097323968]]]}}]}