{"type": "FeatureCollection", "name": "E8_proj_seed1700 grid", "properties": {"shape": "E8_proj_seed1700", "lock_lat": 75.0, "lock_lon": 25.0, "bearing": 110.0}, "features": [{"type": "Feature", "properties": {"kind": "grid_vertices", "shape": "E8_proj_seed1700", "count": 240, "ids": ["V1", "V2", "V3", "V4", "V5", "V6", "V7", "V8", "V9", "V10", "V11", "V12", "V13", "V14", "V15", "V16", "V17", "V18", "V19", "V20", "V21", "V22", "V23", "V24", "V25", "V26", "V27", "V28", "V29", "V30", "V31", "V32", "V33", "V34", "V35", "V36", "V37", "V38", "V39", "V40", "V41", "V42", "V43", "V44", "V45", "V46", "V47", "V48", "V49", "V50", "V51", "V52", "V53", "V54", "V55", "V56", "V57", "V58", "V59", "V60", "V61", "V62", "V63", "V64", "V65", "V66", "V67", "V68", "V69", "V70", "V71", "V72", "V73", "V74", "V75", "V76", "V77", "V78", "V79", "V80", "V81", "V82", "V83", "V84", "V85", "V86", "V87", "V88", "V89", "V90", "V91", "V92", "V93", "V94", "V95", "V96", "V97", "V98", "V99", "V100", "V101", "V102", "V103", "V104", "V105", "V106", "V107", "V108", "V109", "V110", "V111", "V112", "V113", "V114", "V115", "V116", "V117", "V118", "V119", "V120", "V121", "V122", "V123", "V124", "V125", "V126", "V127", "V128", "V129", "V130", "V131", "V132", "V133", "V134", "V135", "V136", "V137", "V138", "V139", "V140", "V141", "V142", "V143", "V144", "V145", "V146", "V147", "V148", "V149", "V150", "V151", "V152", "V153", "V154", "V155", "V156", "V157", "V158", "V159", "V160", "V161", "V162", "V163", "V164", "V165", "V166", "V167", "V168", "V169", "V170", "V171", "V172", "V173", "V174", "V175", "V176", "V177", "V178", "V179", "V180", "V181", "V182", "V183", "V184", "V185", "V186", "V187", "V188", "V189", "V190", "V191", "V192", "V193", "V194", "V195", "V196", "V197", "V198", "V199", "V200", "V201", "V202", "V203", "V204", "V205", "V206", "V207", "V208", "V209", "V210", "V211", "V212", "V213", "V214", "V215", "V216", "V217", "V218", "V219", "V220", "V221", "V222", "V223", "V224", "V225", "V226", "V227", "V228", "V229", "V230", "V231", "V232", "V233", "V234", "V235", "V236", "V237", "V238", "V239", "V240"]}, "geometry": {"type": "MultiPoint", "coordinates": [[-47.402549265433784, -22.620259124674007], [-4.611990477117592, -17.360378748002194], [175.3880095228824, 17.360378748002194], [132.59745073456622, 22.620259124674007], [-51.058225572497, 7.610823403828035], [19.074807411380863, -41.427953917111495], [-160.92519258861913, 41.427953917111495], [128.941774427503, -7.610823403828035], [0.5431534387585588, -58.50194473442163], [-44.36711705771574, 45.881080542947146], [135.63288294228425, -45.881080542947146], [-179.45684656124143, 58.50194473442163], [-34.859365303940166, -20.766151212323198], [52.28068025397104, -3.3830440460331355], [-127.71931974602897, 3.3830440460331355], [145.14063469605983, 20.766151212323198], [25.61756532618809, 8.520754145103307], [-90.46790203145406, -33.40207771861517], [89.53209796854594, 33.40207771861517], [-154.38243467381193, -8.520754145103307], [132.6170268588004, -79.04454747871684], [-22.127070784707747, -8.144005994505282], [157.87292921529226, 8.144005994505282], [-47.38297314119963, 79.04454747871684], [-35.92444771075246, 5.317702280193242], [17.51103472603249, -54.607865299844924], [-162.4889652739675, 54.607865299844924], [144.07555228924755, -5.317702280193242], [-114.69122533140352, 29.2337992216774], [123.317456234986, -44.37485535114137], [-56.68254376501399, 44.37485535114137], [65.30877466859648, -29.2337992216774], [147.45941824367907, -81.39424039764708], [-131.8134280914397, 60.57329889328864], [48.18657190856028, -60.57329889328864], [-32.54058175632094, 81.39424039764708], [-74.70469023040822, -17.230719353816447], [154.43315106837346, 18.75807198780544], [-25.566848931626563, -18.75807198780544], [105.2953097695918, 17.230719353816447], [60.179679613151755, 31.8608928217239], [-130.99379141934642, -18.191352023728978], [49.006208580653585, 18.191352023728978], [-119.82032038684824, -31.8608928217239], [172.87581435004682, -2.0584330885977113], [-47.40066567004966, 6.8701230794630375], [132.59933432995035, -6.8701230794630375], [-7.124185649953172, 2.0584330885977113], [-93.28187447291894, 34.43361933982587], [156.76773732203782, -33.08744567699914], [-23.232262677962183, 33.08744567699914], [86.71812552708107, -34.43361933982587], [-70.97501768465041, -68.20935005103802], [-103.59397761138251, 61.18925442154569], [76.40602238861749, -61.18925442154569], [109.02498231534959, 68.20935005103802], [-68.5043927163761, 7.755381702279026], [177.539386869299, 51.91813260911981], [-2.4606131307010033, -51.91813260911981], [111.49560728362391, -7.755381702279026], [32.34253487308927, 50.39817294022406], [-117.37468028914273, -3.3390908689365215], [62.62531971085727, 3.3390908689365215], [-147.65746512691075, -50.39817294022406], [-165.1543890183647, 23.565191324327376], [-50.835004248459185, 23.725166560761608], [129.16499575154083, -23.725166560761608], [14.845610981635307, -23.565191324327376], [-78.70015197357615, 40.172043838443656], [-158.57111580408727, 5.197025985195255], [21.428884195912744, -5.197025985195255], [101.29984802642385, -40.172043838443656], [-23.91603706637805, -63.28833933780897], [112.23182036832608, -42.68589513017683], [-67.76817963167393, 42.68589513017683], [156.08396293362196, 63.28833933780897], [55.157483920902784, -20.999796814963666], [-130.4074954774697, -61.36878976557679], [49.592504522530305, 61.36878976557679], [-124.84251607909724, 20.999796814963666], [135.39652560735504, -53.583259624982595], [-2.6463162506159876, -49.242747164584], [177.35368374938403, 49.242747164584], [-44.60347439264496, 53.583259624982595], [-19.557631056024583, -59.72783127623008], [98.34975166565896, -64.75845075736214], [-81.65024833434106, 64.75845075736214], [160.44236894397542, 59.72783127623008], [18.24032134565697, 11.519478439967948], [-98.70236296472183, -27.223462983469357], [81.29763703527819, 27.223462983469357], [-161.75967865434302, -11.519478439967948], [-138.40225555032558, -42.34823096125972], [-35.40879111643486, -7.651976957356655], [144.59120888356514, 7.651976957356655], [41.59774444967442, 42.34823096125972], [-53.19915793328325, 6.124919407008511], [-30.359784338109673, -67.13146789479931], [149.64021566189035, 67.13146789479931], [126.80084206671677, -6.124919407008511], [91.59136923091356, 19.89589742586615], [23.317216495709264, 20.036299520501377], [-156.68278350429074, -20.036299520501377], [-88.40863076908644, -19.89589742586615], [29.17216259134989, 39.81466430190844], [71.02319969913646, 5.007549139396109], [-108.97680030086356, -5.007549139396109], [-150.8278374086501, -39.81466430190844], [-169.25096656276477, 32.95793617611522], [143.45979957986543, -20.183434432373293], [-36.54020042013459, 20.183434432373293], [10.749033437235221, -32.95793617611522], [-19.13216729355141, -15.09411101615244], [-5.827676566562773, -24.415118889214543], [-115.54966937740643, -52.811873650786374], [-66.68659841723058, -21.41829032129251], [99.29342209393126, -21.348187861731116], [1.7896490953813535, 9.93579204867234], [-134.58470300301758, -26.844326442048164], [-100.00768398162498, -55.935002254436014], [-18.367957577927168, 66.70964343722224], [-33.737735792336764, 34.08195331533007], [-99.99586350206702, 15.427886334518076], [-79.38102795283345, 2.9193517265975752], [108.52965567146546, 86.52700094079258], [18.803327413991536, 59.17309496486408], [-154.56663391112073, 14.1016776941285], [-89.40898184387017, 31.16511540961565], [60.84994587317838, -49.41011688866381], [0.16415545043400934, -20.8173909492588], [-95.21706494080914, -60.57578273582612], [-49.827479412732515, -64.39102014950502], [78.85388242077192, -20.273446250632624], [55.18967875980543, -29.214196680500777], [156.23140110712154, -55.47200481930992], [-61.87627274188495, -60.77380018736298], [5.02071902669595, 44.09245310617029], [7.878153562357621, 9.220002246288491], [-132.15513971010296, -32.080483928321755], [-65.82899126553794, 1.7275141845317115], [101.79980005330943, 19.61175445795662], [19.816969250581433, 44.82419796746227], [-152.89399559502803, 17.63203713127018], [-124.96629133964586, -16.186520309560468], [32.02433440609836, -38.09210082445687], [-11.69383698105468, -4.626250919933217], [-80.19856059741181, -36.07566704227131], [-52.36576550880759, -43.611264235345644], [53.551459115968356, 5.834911656079138], [35.09576084246167, -13.499781715827188], [179.59162550824115, -56.498839900986674], [-59.38365962264239, -24.72270125981283], [-21.84089660462428, 48.50989848809028], [-9.145712877466387, 24.218728342361132], [-104.74493979611555, -0.938498548182326], [-63.69923946238113, 14.139689442573683], [88.98816022764946, 48.72701163425251], [-3.425570795610935, 50.570296687807236], [-123.54488644404452, 37.82490158399844], [-85.45979176725828, 27.455009930820417], [28.86220308008074, -30.063041411226227], [22.999024411028604, -31.302380045743604], [-139.50364141310286, -88.90006743798554], [-37.87635082147087, -41.24386025214523], [82.03110295782919, -26.487281665803692], [32.033268891747056, -11.725319672814404], [155.17317806746786, -71.76494684974625], [41.697102792188026, -74.89624198965849], [49.90491382730924, 5.5829055083020425], [-3.089492969385042, 19.193427559283055], [-83.63807525595013, -3.443390584449749], [-46.57830612738396, -23.878130022687678], [68.63126003284788, 41.03224528137111], [47.46365930162853, 18.668113386236836], [158.2657482234366, -13.97412179463292], [-54.1269455582282, 25.472925205814278], [125.87305444177179, -25.472925205814278], [-21.734251776563422, 13.97412179463292], [-132.53634069837148, -18.668113386236836], [-111.36873996715212, -41.03224528137111], [133.42169387261603, 23.878130022687678], [96.36192474404989, 3.443390584449749], [176.91050703061495, -19.193427559283055], [-130.09508617269077, -5.5829055083020425], [-138.30289720781198, 74.89624198965849], [-24.82682193253214, 71.76494684974625], [-147.96673110825293, 11.725319672814404], [-97.96889704217081, 26.487281665803692], [142.12364917852912, 41.24386025214523], [40.49635858689716, 88.90006743798554], [-157.0009755889714, 31.302380045743604], [-151.13779691991925, 30.063041411226227], [94.54020823274172, -27.455009930820417], [56.45511355595548, -37.82490158399844], [176.57442920438908, -50.570296687807236], [-91.01183977235054, -48.72701163425251], [116.30076053761887, -14.139689442573683], [75.25506020388445, 0.938498548182326], [170.85428712253363, -24.218728342361132], [158.15910339537572, -48.50989848809028], [120.6163403773576, 24.72270125981283], [-0.4083744917588533, 56.498839900986674], [-144.90423915753834, 13.499781715827188], [-126.44854088403166, -5.834911656079138], [127.63423449119242, 43.611264235345644], [99.80143940258819, 36.07566704227131], [168.3061630189453, 4.626250919933217], [-147.97566559390162, 38.09210082445687], [55.03370866035415, 16.186520309560468], [27.106004404971973, -17.63203713127018], [-160.18303074941855, -44.82419796746227], [-78.20019994669057, -19.61175445795662], [114.17100873446208, -1.7275141845317115], [47.844860289897035, 32.080483928321755], [-172.1218464376424, -9.220002246288491], [-174.97928097330407, -44.09245310617029], [118.12372725811505, 60.77380018736298], [-23.76859889287846, 55.47200481930992], [-124.81032124019457, 29.214196680500777], [-101.14611757922809, 20.273446250632624], [130.17252058726748, 64.39102014950502], [84.78293505919086, 60.57578273582612], [-179.835844549566, 20.8173909492588], [-119.15005412682162, 49.41011688866381], [90.59101815612985, -31.16511540961565], [25.433366088879286, -14.1016776941285], [-161.19667258600848, -59.17309496486408], [-71.47034432853455, -86.52700094079258], [100.61897204716655, -2.9193517265975752], [80.00413649793299, -15.427886334518076], [146.26226420766326, -34.08195331533007], [161.63204242207283, -66.70964343722224], [79.99231601837502, 55.935002254436014], [45.41529699698242, 26.844326442048164], [-178.21035090461865, -9.93579204867234], [-80.70657790606874, 21.348187861731116], [113.31340158276943, 21.41829032129251], [64.45033062259357, 52.811873650786374], [174.17232343343724, 24.415118889214543], [160.86783270644858, 15.09411101615244]]}}, {"type": "Feature", "properties": {"kind": "grid_edges", "shape": "E8_proj_seed1700", "count": 340, "ids": ["E1", "E2", "E3", "E4", "E5", "E6", "E7", "E8", "E9", "E10", "E11", "E12", "E13", "E14", "E15", "E16", "E17", "E18", "E19", "E20", "E21", "E22", "E23", "E24", "E25", "E26", "E27", "E28", "E29", "E30", "E31", "E32", "E33", "E34", "E35", "E36", "E37", "E38", "E39", "E40", "E41", "E42", "E43", "E44", "E45", "E46", "E47", "E48", "E49", "E50", "E51", "E52", "E53", "E54", "E55", "E56", "E57", "E58", "E59", "E60", "E61", "E62", "E63", "E64", "E65", "E66", "E67", "E68", "E69", "E70", "E71", "E72", "E73", "E74", "E75", "E76", "E77", "E78", "E79", "E80", "E81", "E82", "E83", "E84", "E85", "E86", "E87", "E88", "E89", "E90", "E91", "E92", "E93", "E94", "E95", "E96", "E97", "E98", "E99", "E100", "E101", "E102", "E103", "E104", "E105", "E106", "E107", "E108", "E109", "E110", "E111", "E112", "E113", "E114", "E115", "E116", "E117", "E118", "E119", "E120", "E121", "E122", "E123", "E124", "E125", "E126", "E127", "E128", "E129", "E130", "E131", "E132", "E133", "E134", "E135", "E136", "E137", "E138", "E139", "E140", "E141", "E142", "E143", "E144", "E145", "E146", "E147", "E148", "E149", "E150", "E151", "E152", "E153", "E154", "E155", "E156", "E157", "E158", "E159", "E160", "E161", "E162", "E163", "E164", "E165", "E166", "E167", "E168", "E169", "E170", "E171", "E172", "E173", "E174", "E175", "E176", "E177", "E178", "E179", "E180", "E181", "E182", "E183", "E184", "E185", "E186", "E187", "E188", "E189", "E190", "E191", "E192", "E193", "E194", "E195", "E196", "E197", "E198", "E199", "E200", "E201", "E202", "E203", "E204", "E205", "E206", "E207", "E208", "E209", "E210", "E211", "E212", "E213", "E214", "E215", "E216", "E217", "E218", "E219", "E220", "E221", "E222", "E223", "E224", "E225", "E226", "E227", "E228", "E229", "E230", "E231", "E232", "E233", "E234", "E235", "E236", "E237", "E238", "E239", "E240", "E241", "E242", "E243", "E244", "E245", "E246", "E247", "E248", "E249", "E250", "E251", "E252", "E253", "E254", "E255", "E256", "E257", "E258", "E259", "E260", "E261", "E262", "E263", "E264", "E265", "E266", "E267", "E268", "E269", "E270", "E271", "E272", "E273", "E274", "E275", "E276", "E277", "E278", "E279", "E280", "E281", "E282", "E283", "E284", "E285", "E286", "E287", "E288", "E289", "E290", "E291", "E292", "E293", "E294", "E295", "E296", "E297", "E298", "E299", "E300", "E301", "E302", "E303", "E304", "E305", "E306", "E307", "E308", "E309", "E310", "E311", "E312", "E313", "E314", "E315", "E316", "E317", "E318", "E319", "E320", "E321", "E322", "E323", "E324", "E325", "E326", "E327", "E328", "E329", "E330", "E331", "E332", "E333", "E334", "E335", "E336", "E337", "E338", "E339", "E340"], "pairs": [[0, 13], [0, 20], [0, 44], [0, 48], [0, 127], [0, 129], [1, 30], [3, 51], [3, 224], [3, 231], [3, 234], [4, 17], [4, 68], [4, 118], [4, 123], [4, 159], [5, 55], [5, 66], [5, 165], [5, 170], [5, 172], [5, 175], [6, 56], [6, 65], [6, 221], [7, 19], [7, 232], [9, 20], [9, 125], [9, 142], [11, 236], [12, 74], [12, 136], [13, 98], [13, 151], [14, 185], [14, 208], [15, 26], [15, 237], [16, 169], [18, 23], [18, 176], [18, 180], [19, 190], [20, 148], [20, 152], [20, 154], [20, 156], [21, 103], [21, 133], [21, 143], [21, 157], [22, 108], [22, 198], [22, 226], [23, 47], [23, 227], [24, 68], [24, 104], [24, 136], [25, 156], [25, 174], [26, 50], [26, 208], [26, 225], [28, 121], [28, 125], [29, 200], [30, 211], [31, 67], [31, 169], [31, 234], [32, 36], [32, 76], [32, 180], [33, 36], [33, 37], [33, 45], [34, 39], [34, 145], [34, 214], [34, 228], [35, 39], [35, 156], [35, 173], [35, 219], [35, 221], [36, 45], [36, 74], [37, 59], [37, 117], [37, 197], [38, 46], [38, 168], [38, 232], [39, 51], [39, 149], [39, 157], [39, 172], [40, 141], [40, 180], [44, 82], [44, 120], [44, 176], [44, 200], [45, 119], [45, 131], [45, 135], [46, 80], [46, 162], [47, 83], [47, 103], [47, 147], [47, 223], [48, 96], [48, 98], [48, 115], [48, 124], [48, 132], [48, 135], [48, 197], [50, 214], [50, 231], [50, 235], [51, 69], [51, 153], [51, 156], [51, 234], [52, 65], [52, 84], [53, 61], [53, 74], [53, 86], [53, 188], [53, 191], [53, 217], [54, 227], [55, 71], [55, 82], [55, 87], [55, 171], [55, 201], [55, 205], [56, 209], [57, 151], [58, 89], [59, 91], [59, 172], [61, 102], [61, 155], [62, 160], [62, 201], [63, 66], [64, 68], [65, 215], [66, 100], [66, 136], [66, 138], [66, 192], [66, 194], [66, 198], [66, 232], [67, 205], [67, 235], [68, 84], [68, 148], [69, 97], [69, 99], [69, 105], [69, 111], [69, 153], [70, 98], [70, 170], [70, 195], [70, 226], [72, 96], [73, 76], [73, 214], [74, 79], [74, 169], [74, 170], [74, 232], [74, 233], [74, 234], [75, 95], [75, 223], [76, 177], [76, 224], [78, 157], [81, 95], [81, 135], [82, 86], [82, 172], [83, 111], [83, 123], [83, 125], [83, 173], [84, 146], [84, 165], [86, 122], [86, 136], [86, 142], [86, 172], [86, 187], [86, 235], [87, 236], [87, 239], [88, 216], [89, 171], [90, 156], [90, 165], [90, 189], [91, 106], [92, 128], [93, 111], [93, 113], [93, 161], [93, 193], [93, 203], [93, 219], [94, 134], [95, 103], [95, 119], [95, 151], [95, 199], [96, 218], [96, 225], [96, 226], [96, 232], [97, 186], [98, 151], [98, 183], [98, 197], [99, 181], [100, 120], [100, 136], [100, 152], [100, 156], [100, 172], [101, 221], [101, 237], [102, 134], [104, 160], [104, 180], [104, 184], [105, 156], [105, 216], [107, 186], [108, 136], [109, 156], [110, 141], [110, 207], [112, 132], [115, 127], [116, 118], [116, 119], [116, 124], [116, 156], [116, 182], [117, 124], [117, 189], [120, 144], [122, 124], [123, 125], [124, 136], [125, 127], [125, 156], [125, 157], [125, 159], [126, 156], [127, 139], [127, 191], [129, 130], [132, 136], [134, 206], [135, 165], [136, 142], [136, 202], [138, 234], [140, 172], [141, 189], [142, 204], [145, 211], [145, 217], [147, 159], [147, 161], [149, 151], [149, 161], [151, 223], [152, 160], [153, 157], [153, 161], [156, 157], [156, 164], [157, 221], [157, 237], [158, 223], [161, 173], [162, 167], [162, 230], [168, 234], [170, 232], [171, 173], [171, 174], [171, 175], [171, 234], [173, 174], [173, 239], [174, 238], [175, 237], [177, 181], [177, 192], [177, 193], [177, 213], [180, 188], [180, 192], [180, 208], [181, 188], [181, 212], [182, 191], [192, 202], [193, 194], [195, 225], [196, 212], [196, 230], [197, 201], [199, 205], [199, 227], [199, 231], [199, 239], [200, 202], [200, 234], [201, 203], [214, 215], [216, 224], [221, 233], [222, 230], [225, 226], [232, 233], [237, 238]], "support_counts": [1, 1, 1, 1, 1, 1, 1, 1, 1, 1, 1, 1, 1, 1, 1, 1, 1, 1, 1, 1, 1, 1, 1, 1, 1, 1, 1, 1, 1, 1, 1, 1, 1, 1, 1, 1, 1, 1, 1, 1, 1, 1, 1, 1, 1, 1, 1, 1, 1, 1, 1, 1, 1, 1, 1, 1, 1, 1, 1, 1, 2, 1, 1, 1, 1, 1, 1, 1, 1, 1, 1, 1, 1, 1, 1, 1, 1, 1, 1, 1, 1, 1, 1, 1, 1, 1, 1, 1, 1, 1, 1, 1, 1, 1, 1, 1, 1, 1, 1, 1, 1, 1, 1, 1, 1, 1, 1, 1, 1, 1, 1, 1, 1, 1, 1, 1, 1, 1, 1, 1, 1, 1, 1, 1, 1, 1, 1, 1, 1, 1, 1, 1, 1, 1, 1, 1, 1, 1, 1, 1, 1, 1, 1, 1, 1, 1, 1, 1, 1, 1, 1, 1, 2, 1, 1, 1, 1, 1, 1, 1, 1, 1, 1, 1, 2, 1, 1, 1, 1, 1, 1, 1, 2, 1, 1, 1, 1, 1, 1, 1, 1, 1, 1, 1, 1, 1, 1, 1, 1, 1, 1, 1, 1, 1, 1, 1, 1, 1, 1, 1, 1, 1, 1, 1, 1, 1, 1, 1, 1, 1, 1, 1, 1, 1, 1, 1, 1, 1, 1, 1, 1, 1, 2, 1, 1, 1, 1, 1, 1, 1, 1, 1, 1, 1, 1, 1, 1, 1, 1, 1, 1, 1, 1, 1, 1, 1, 1, 1, 1, 1, 1, 1, 1, 1, 1, 1, 2, 1, 2, 1, 1, 1, 1, 1, 1, 1, 1, 1, 1, 1, 1, 1, 1, 1, 1, 1, 1, 1, 1, 1, 1, 1, 1, 1, 1, 1, 1, 1, 1, 1, 1, 1, 1, 1, 1, 1, 1, 1, 1, 1, 1, 1, 1, 1, 1, 1, 1, 1, 1, 1, 1, 2, 1, 1, 1, 1, 1, 1, 1, 1, 1, 1, 1, 1, 1, 1, 1, 1, 1, 1, 1, 1, 1, 1, 1, 1, 1, 1, 1, 1], "support_class": ["single", "single", "single", "single", "single", "single", "single", "single", "single", "single", "single", "single", "single", "single", "single", "single", "single", "single", "single", "single", "single", "single", "single", "single", "single", "single", "single", "single", "single", "single", "single", "single", "single", "single", "single", "single", "single", "single", "single", "single", "single", "single", "single", "single", "single", "single", "single", "single", "single", "single", "single", "single", "single", "single", "single", "single", "single", "single", "single", "single", "shared", "single", "single", "single", "single", "single", "single", "single", "single", "single", "single", "single", "single", "single", "single", "single", "single", "single", "single", "single", "single", "single", "single", "single", "single", "single", "single", "single", "single", "single", "single", "single", "single", "single", "single", "single", "single", "single", "single", "single", "single", "single", "single", "single", "single", "single", "single", "single", "single", "single", "single", "single", "single", "single", "single", "single", "single", "single", "single", "single", "single", "single", "single", "single", "single", "single", "single", "single", "single", "single", "single", "single", "single", "single", "single", "single", "single", "single", "single", "single", "single", "single", "single", "single", "single", "single", "single", "single", "single", "single", "single", "single", "shared", "single", "single", "single", "single", "single", "single", "single", "single", "single", "single", "single", "shared", "single", "single", "single", "single", "single", "single", "single", "shared", "single", "single", "single", "single", "single", "single", "single", "single", "single", "single", "single", "single", "single", "single", "single", "single", "single", "single", "single", "single", "single", "single", "single", "single", "single", "single", "single", "single", "single", "single", "single", "single", "single", "single", "single", "single", "single", "single", "single", "single", "single", "single", "single", "single", "single", "single", "single", "single", "single", "shared", "single", "single", "single", "single", "single", "single", "single", "single", "single", "single", "single", "single", "single", "single", "single", "single", "single", "single", "single", "single", "single", "single", "single", "single", "single", "single", "single", "single", "single", "single", "single", "single", "single", "shared", "single", "shared", "single", "single", "single", "single", "single", "single", "single", "single", "single", "single", "single", "single", "single", "single", "single", "single", "single", "single", "single", "single", "single", "single", "single", "single", "single", "single", "single", "single", "single", "single", "single", "single", "single", "single", "single", "single", "single", "single", "single", "single", "single", "single", "single", "single", "single", "single", "single", "single", "single", "single", "single", "single", "shared", "single", "single", "single", "single", "single", "single", "single", "single", "single", "single", "single", "single", "single", "single", "single", "single", "single", "single", "single", "single", "single", "single", "single", "single", "single", "single", "single", "single"]}, "geometry": {"type": "MultiLineString", "coordinates": [[[-47.402549265433784, -22.620259124674007], [52.28068025397104, -3.3830440460331355]], [[-47.402549265433784, -22.620259124674007], [132.6170268588004, -79.04454747871684]], [[-47.402549265433784, -22.620259124674007], [172.87581435004682, -2.0584330885977113]], [[-47.402549265433784, -22.620259124674007], [-93.28187447291894, 34.43361933982587]], [[-47.402549265433784, -22.620259124674007], [-89.40898184387017, 31.16511540961565]], [[-47.402549265433784, -22.620259124674007], [0.16415545043400934, -20.8173909492588]], [[-4.611990477117592, -17.360378748002194], [-56.68254376501399, 44.37485535114137]], [[132.59745073456622, 22.620259124674007], [86.71812552708107, -34.43361933982587]], [[132.59745073456622, 22.620259124674007], [90.59101815612985, -31.16511540961565]], [[132.59745073456622, 22.620259124674007], [161.63204242207283, -66.70964343722224]], [[132.59745073456622, 22.620259124674007], [-178.21035090461865, -9.93579204867234]], [[-51.058225572497, 7.610823403828035], [-90.46790203145406, -33.40207771861517]], [[-51.058225572497, 7.610823403828035], [-78.70015197357615, 40.172043838443656]], [[-51.058225572497, 7.610823403828035], [-134.58470300301758, -26.844326442048164]], [[-51.058225572497, 7.610823403828035], [-79.38102795283345, 2.9193517265975752]], [[-51.058225572497, 7.610823403828035], [-85.45979176725828, 27.455009930820417]], [[19.074807411380863, -41.427953917111495], [109.02498231534959, 68.20935005103802]], [[19.074807411380863, -41.427953917111495], [129.16499575154083, -23.725166560761608]], [[19.074807411380863, -41.427953917111495], [32.033268891747056, -11.725319672814404]], [[19.074807411380863, -41.427953917111495], [-83.63807525595013, -3.443390584449749]], [[19.074807411380863, -41.427953917111495], [68.63126003284788, 41.03224528137111]], [[19.074807411380863, -41.427953917111495], [-54.1269455582282, 25.472925205814278]], [[-160.92519258861913, 41.427953917111495], [-68.5043927163761, 7.755381702279026]], [[-160.92519258861913, 41.427953917111495], [-50.835004248459185, 23.725166560761608]], [[-160.92519258861913, 41.427953917111495], [84.78293505919086, 60.57578273582612]], [[128.941774427503, -7.610823403828035], [-154.38243467381193, -8.520754145103307]], [[128.941774427503, -7.610823403828035], [79.99231601837502, 55.935002254436014]], [[-44.36711705771574, 45.881080542947146], [132.6170268588004, -79.04454747871684]], [[-44.36711705771574, 45.881080542947146], [18.803327413991536, 59.17309496486408]], [[-44.36711705771574, 45.881080542947146], [-152.89399559502803, 17.63203713127018]], [[-179.45684656124143, 58.50194473442163], [113.31340158276943, 21.41829032129251]], [[-34.859365303940166, -20.766151212323198], [-67.76817963167393, 42.68589513017683]], [[-34.859365303940166, -20.766151212323198], [5.02071902669595, 44.09245310617029]], [[52.28068025397104, -3.3830440460331355], [149.64021566189035, 67.13146789479931]], [[52.28068025397104, -3.3830440460331355], [-59.38365962264239, -24.72270125981283]], [[-127.71931974602897, 3.3830440460331355], [-24.82682193253214, 71.76494684974625]], [[-127.71931974602897, 3.3830440460331355], [55.03370866035415, 16.186520309560468]], [[145.14063469605983, 20.766151212323198], [-162.4889652739675, 54.607865299844924]], [[145.14063469605983, 20.766151212323198], [64.45033062259357, 52.811873650786374]], [[25.61756532618809, 8.520754145103307], [-3.089492969385042, 19.193427559283055]], [[89.53209796854594, 33.40207771861517], [-47.38297314119963, 79.04454747871684]], [[89.53209796854594, 33.40207771861517], [125.87305444177179, -25.472925205814278]], [[89.53209796854594, 33.40207771861517], [133.42169387261603, 23.878130022687678]], [[-154.38243467381193, -8.520754145103307], [-157.0009755889714, 31.302380045743604]], [[132.6170268588004, -79.04454747871684], [53.551459115968356, 5.834911656079138]], [[132.6170268588004, -79.04454747871684], [-21.84089660462428, 48.50989848809028]], [[132.6170268588004, -79.04454747871684], [-104.74493979611555, -0.938498548182326]], [[132.6170268588004, -79.04454747871684], [88.98816022764946, 48.72701163425251]], [[-22.127070784707747, -8.144005994505282], [-88.40863076908644, -19.89589742586615]], [[-22.127070784707747, -8.144005994505282], [55.18967875980543, -29.214196680500777]], [[-22.127070784707747, -8.144005994505282], [-124.96629133964586, -16.186520309560468]], [[-22.127070784707747, -8.144005994505282], [-3.425570795610935, 50.570296687807236]], [[157.87292921529226, 8.144005994505282], [-169.25096656276477, 32.95793617611522]], [[157.87292921529226, 8.144005994505282], [170.85428712253363, -24.218728342361132]], [[157.87292921529226, 8.144005994505282], [-161.19667258600848, -59.17309496486408]], [[-47.38297314119963, 79.04454747871684], [-7.124185649953172, 2.0584330885977113]], [[-47.38297314119963, 79.04454747871684], [-71.47034432853455, -86.52700094079258]], [[-35.92444771075246, 5.317702280193242], [-78.70015197357615, 40.172043838443656]], [[-35.92444771075246, 5.317702280193242], [29.17216259134989, 39.81466430190844]], [[-35.92444771075246, 5.317702280193242], [5.02071902669595, 44.09245310617029]], [[17.51103472603249, -54.607865299844924], [88.98816022764946, 48.72701163425251]], [[17.51103472603249, -54.607865299844924], [158.2657482234366, -13.97412179463292]], [[-162.4889652739675, 54.607865299844924], [-23.232262677962183, 33.08744567699914]], [[-162.4889652739675, 54.607865299844924], [55.03370866035415, 16.186520309560468]], [[-162.4889652739675, 54.607865299844924], [25.433366088879286, -14.1016776941285]], [[-114.69122533140352, 29.2337992216774], [-33.737735792336764, 34.08195331533007]], [[-114.69122533140352, 29.2337992216774], [18.803327413991536, 59.17309496486408]], [[123.317456234986, -44.37485535114137], [120.6163403773576, 24.72270125981283]], [[-56.68254376501399, 44.37485535114137], [-78.20019994669057, -19.61175445795662]], [[65.30877466859648, -29.2337992216774], [14.845610981635307, -23.565191324327376]], [[65.30877466859648, -29.2337992216774], [-3.089492969385042, 19.193427559283055]], [[65.30877466859648, -29.2337992216774], [-178.21035090461865, -9.93579204867234]], [[147.45941824367907, -81.39424039764708], [-74.70469023040822, -17.230719353816447]], [[147.45941824367907, -81.39424039764708], [55.157483920902784, -20.999796814963666]], [[147.45941824367907, -81.39424039764708], [133.42169387261603, 23.878130022687678]], [[-131.8134280914397, 60.57329889328864], [-74.70469023040822, -17.230719353816447]], [[-131.8134280914397, 60.57329889328864], [154.43315106837346, 18.75807198780544]], [[-131.8134280914397, 60.57329889328864], [-47.40066567004966, 6.8701230794630375]], [[48.18657190856028, -60.57329889328864], [105.2953097695918, 17.230719353816447]], [[48.18657190856028, -60.57329889328864], [-11.69383698105468, -4.626250919933217]], [[48.18657190856028, -60.57329889328864], [-172.1218464376424, -9.220002246288491]], [[48.18657190856028, -60.57329889328864], [100.61897204716655, -2.9193517265975752]], [[-32.54058175632094, 81.39424039764708], [105.2953097695918, 17.230719353816447]], [[-32.54058175632094, 81.39424039764708], [88.98816022764946, 48.72701163425251]], [[-32.54058175632094, 81.39424039764708], [47.46365930162853, 18.668113386236836]], [[-32.54058175632094, 81.39424039764708], [-101.14611757922809, 20.273446250632624]], [[-32.54058175632094, 81.39424039764708], [84.78293505919086, 60.57578273582612]], [[-74.70469023040822, -17.230719353816447], [-47.40066567004966, 6.8701230794630375]], [[-74.70469023040822, -17.230719353816447], [-67.76817963167393, 42.68589513017683]], [[154.43315106837346, 18.75807198780544], [111.49560728362391, -7.755381702279026]], [[154.43315106837346, 18.75807198780544], [1.7896490953813535, 9.93579204867234]], [[154.43315106837346, 18.75807198780544], [75.25506020388445, 0.938498548182326]], [[-25.566848931626563, -18.75807198780544], [132.59933432995035, -6.8701230794630375]], [[-25.566848931626563, -18.75807198780544], [49.90491382730924, 5.5829055083020425]], [[-25.566848931626563, -18.75807198780544], [79.99231601837502, 55.935002254436014]], [[105.2953097695918, 17.230719353816447], [86.71812552708107, -34.43361933982587]], [[105.2953097695918, 17.230719353816447], [35.09576084246167, -13.499781715827188]], [[105.2953097695918, 17.230719353816447], [-3.425570795610935, 50.570296687807236]], [[105.2953097695918, 17.230719353816447], [68.63126003284788, 41.03224528137111]], [[60.179679613151755, 31.8608928217239], [19.816969250581433, 44.82419796746227]], [[60.179679613151755, 31.8608928217239], [133.42169387261603, 23.878130022687678]], [[172.87581435004682, -2.0584330885977113], [177.35368374938403, 49.242747164584]], [[172.87581435004682, -2.0584330885977113], [-18.367957577927168, 66.70964343722224]], [[172.87581435004682, -2.0584330885977113], [125.87305444177179, -25.472925205814278]], [[172.87581435004682, -2.0584330885977113], [120.6163403773576, 24.72270125981283]], [[-47.40066567004966, 6.8701230794630375], [-100.00768398162498, -55.935002254436014]], [[-47.40066567004966, 6.8701230794630375], [-49.827479412732515, -64.39102014950502]], [[-47.40066567004966, 6.8701230794630375], [-61.87627274188495, -60.77380018736298]], [[132.59933432995035, -6.8701230794630375], [135.39652560735504, -53.583259624982595]], [[132.59933432995035, -6.8701230794630375], [-139.50364141310286, -88.90006743798554]], [[-7.124185649953172, 2.0584330885977113], [-44.60347439264496, 53.583259624982595]], [[-7.124185649953172, 2.0584330885977113], [-88.40863076908644, -19.89589742586615]], [[-7.124185649953172, 2.0584330885977113], [-52.36576550880759, -43.611264235345644]], [[-7.124185649953172, 2.0584330885977113], [-119.15005412682162, 49.41011688866381]], [[-93.28187447291894, 34.43361933982587], [-53.19915793328325, 6.124919407008511]], [[-93.28187447291894, 34.43361933982587], [149.64021566189035, 67.13146789479931]], [[-93.28187447291894, 34.43361933982587], [-66.68659841723058, -21.41829032129251]], [[-93.28187447291894, 34.43361933982587], [108.52965567146546, 86.52700094079258]], [[-93.28187447291894, 34.43361933982587], [78.85388242077192, -20.273446250632624]], [[-93.28187447291894, 34.43361933982587], [-61.87627274188495, -60.77380018736298]], [[-93.28187447291894, 34.43361933982587], [75.25506020388445, 0.938498548182326]], [[-23.232262677962183, 33.08744567699914], [-172.1218464376424, -9.220002246288491]], [[-23.232262677962183, 33.08744567699914], [161.63204242207283, -66.70964343722224]], [[-23.232262677962183, 33.08744567699914], [-80.70657790606874, 21.348187861731116]], [[86.71812552708107, -34.43361933982587], [-158.57111580408727, 5.197025985195255]], [[86.71812552708107, -34.43361933982587], [-9.145712877466387, 24.218728342361132]], [[86.71812552708107, -34.43361933982587], [88.98816022764946, 48.72701163425251]], [[86.71812552708107, -34.43361933982587], [-178.21035090461865, -9.93579204867234]], [[-70.97501768465041, -68.20935005103802], [-50.835004248459185, 23.725166560761608]], [[-70.97501768465041, -68.20935005103802], [-19.557631056024583, -59.72783127623008]], [[-103.59397761138251, 61.18925442154569], [-117.37468028914273, -3.3390908689365215]], [[-103.59397761138251, 61.18925442154569], [-67.76817963167393, 42.68589513017683]], [[-103.59397761138251, 61.18925442154569], [-81.65024833434106, 64.75845075736214]], [[-103.59397761138251, 61.18925442154569], [142.12364917852912, 41.24386025214523]], [[-103.59397761138251, 61.18925442154569], [-151.13779691991925, 30.063041411226227]], [[-103.59397761138251, 61.18925442154569], [-23.76859889287846, 55.47200481930992]], [[76.40602238861749, -61.18925442154569], [-71.47034432853455, -86.52700094079258]], [[109.02498231534959, 68.20935005103802], [101.29984802642385, -40.172043838443656]], [[109.02498231534959, 68.20935005103802], [177.35368374938403, 49.242747164584]], [[109.02498231534959, 68.20935005103802], [160.44236894397542, 59.72783127623008]], [[109.02498231534959, 68.20935005103802], [-46.57830612738396, -23.878130022687678]], [[109.02498231534959, 68.20935005103802], [-0.4083744917588533, 56.498839900986674]], [[109.02498231534959, 68.20935005103802], [99.80143940258819, 36.07566704227131]], [[-68.5043927163761, 7.755381702279026], [27.106004404971973, -17.63203713127018]], [[177.539386869299, 51.91813260911981], [-59.38365962264239, -24.72270125981283]], [[-2.4606131307010033, -51.91813260911981], [-98.70236296472183, -27.223462983469357]], [[111.49560728362391, -7.755381702279026], [-161.75967865434302, -11.519478439967948]], [[111.49560728362391, -7.755381702279026], [68.63126003284788, 41.03224528137111]], [[-117.37468028914273, -3.3390908689365215], [-156.68278350429074, -20.036299520501377]], [[-117.37468028914273, -3.3390908689365215], [-63.69923946238113, 14.139689442573683]], [[62.62531971085727, 3.3390908689365215], [28.86220308008074, -30.063041411226227]], [[62.62531971085727, 3.3390908689365215], [-0.4083744917588533, 56.498839900986674]], [[-147.65746512691075, -50.39817294022406], [129.16499575154083, -23.725166560761608]], [[-165.1543890183647, 23.565191324327376], [-78.70015197357615, 40.172043838443656]], [[-50.835004248459185, 23.725166560761608], [-174.97928097330407, -44.09245310617029]], [[129.16499575154083, -23.725166560761608], [91.59136923091356, 19.89589742586615]], [[129.16499575154083, -23.725166560761608], [5.02071902669595, 44.09245310617029]], [[129.16499575154083, -23.725166560761608], [-132.15513971010296, -32.080483928321755]], [[129.16499575154083, -23.725166560761608], [94.54020823274172, -27.455009930820417]], [[129.16499575154083, -23.725166560761608], [176.57442920438908, -50.570296687807236]], [[129.16499575154083, -23.725166560761608], [170.85428712253363, -24.218728342361132]], [[129.16499575154083, -23.725166560761608], [79.99231601837502, 55.935002254436014]], [[14.845610981635307, -23.565191324327376], [99.80143940258819, 36.07566704227131]], [[14.845610981635307, -23.565191324327376], [-80.70657790606874, 21.348187861731116]], [[-78.70015197357615, 40.172043838443656], [-19.557631056024583, -59.72783127623008]], [[-78.70015197357615, 40.172043838443656], [53.551459115968356, 5.834911656079138]], [[-158.57111580408727, 5.197025985195255], [-30.359784338109673, -67.13146789479931]], [[-158.57111580408727, 5.197025985195255], [126.80084206671677, -6.124919407008511]], [[-158.57111580408727, 5.197025985195255], [71.02319969913646, 5.007549139396109]], [[-158.57111580408727, 5.197025985195255], [10.749033437235221, -32.95793617611522]], [[-158.57111580408727, 5.197025985195255], [-9.145712877466387, 24.218728342361132]], [[21.428884195912744, -5.197025985195255], [149.64021566189035, 67.13146789479931]], [[21.428884195912744, -5.197025985195255], [-83.63807525595013, -3.443390584449749]], [[21.428884195912744, -5.197025985195255], [-91.01183977235054, -48.72701163425251]], [[21.428884195912744, -5.197025985195255], [-161.19667258600848, -59.17309496486408]], [[-23.91603706637805, -63.28833933780897], [-53.19915793328325, 6.124919407008511]], [[112.23182036832608, -42.68589513017683], [55.157483920902784, -20.999796814963666]], [[112.23182036832608, -42.68589513017683], [-172.1218464376424, -9.220002246288491]], [[-67.76817963167393, 42.68589513017683], [-124.84251607909724, 20.999796814963666]], [[-67.76817963167393, 42.68589513017683], [-3.089492969385042, 19.193427559283055]], [[-67.76817963167393, 42.68589513017683], [-83.63807525595013, -3.443390584449749]], [[-67.76817963167393, 42.68589513017683], [79.99231601837502, 55.935002254436014]], [[-67.76817963167393, 42.68589513017683], [45.41529699698242, 26.844326442048164]], [[-67.76817963167393, 42.68589513017683], [-178.21035090461865, -9.93579204867234]], [[156.08396293362196, 63.28833933780897], [41.59774444967442, 42.34823096125972]], [[156.08396293362196, 63.28833933780897], [-119.15005412682162, 49.41011688866381]], [[55.157483920902784, -20.999796814963666], [-21.734251776563422, 13.97412179463292]], [[55.157483920902784, -20.999796814963666], [90.59101815612985, -31.16511540961565]], [[49.592504522530305, 61.36878976557679], [-3.425570795610935, 50.570296687807236]], [[-2.6463162506159876, -49.242747164584], [41.59774444967442, 42.34823096125972]], [[-2.6463162506159876, -49.242747164584], [-61.87627274188495, -60.77380018736298]], [[177.35368374938403, 49.242747164584], [-81.65024833434106, 64.75845075736214]], [[177.35368374938403, 49.242747164584], [68.63126003284788, 41.03224528137111]], [[-44.60347439264496, 53.583259624982595], [10.749033437235221, -32.95793617611522]], [[-44.60347439264496, 53.583259624982595], [-79.38102795283345, 2.9193517265975752]], [[-44.60347439264496, 53.583259624982595], [18.803327413991536, 59.17309496486408]], [[-44.60347439264496, 53.583259624982595], [47.46365930162853, 18.668113386236836]], [[-19.557631056024583, -59.72783127623008], [-80.19856059741181, -36.07566704227131]], [[-19.557631056024583, -59.72783127623008], [32.033268891747056, -11.725319672814404]], [[-81.65024833434106, 64.75845075736214], [-99.99586350206702, 15.427886334518076]], [[-81.65024833434106, 64.75845075736214], [5.02071902669595, 44.09245310617029]], [[-81.65024833434106, 64.75845075736214], [-152.89399559502803, 17.63203713127018]], [[-81.65024833434106, 64.75845075736214], [68.63126003284788, 41.03224528137111]], [[-81.65024833434106, 64.75845075736214], [-97.96889704217081, 26.487281665803692]], [[-81.65024833434106, 64.75845075736214], [-80.70657790606874, 21.348187861731116]], [[160.44236894397542, 59.72783127623008], [113.31340158276943, 21.41829032129251]], [[160.44236894397542, 59.72783127623008], [160.86783270644858, 15.09411101615244]], [[18.24032134565697, 11.519478439967948], [118.12372725811505, 60.77380018736298]], [[-98.70236296472183, -27.223462983469357], [-46.57830612738396, -23.878130022687678]], [[81.29763703527819, 27.223462983469357], [88.98816022764946, 48.72701163425251]], [[81.29763703527819, 27.223462983469357], [32.033268891747056, -11.725319672814404]], [[81.29763703527819, 27.223462983469357], [40.49635858689716, 88.90006743798554]], [[-161.75967865434302, -11.519478439967948], [-108.97680030086356, -5.007549139396109]], [[-138.40225555032558, -42.34823096125972], [60.84994587317838, -49.41011688866381]], [[-35.40879111643486, -7.651976957356655], [10.749033437235221, -32.95793617611522]], [[-35.40879111643486, -7.651976957356655], [-5.827676566562773, -24.415118889214543]], [[-35.40879111643486, -7.651976957356655], [22.999024411028604, -31.302380045743604]], [[-35.40879111643486, -7.651976957356655], [56.45511355595548, -37.82490158399844]], [[-35.40879111643486, -7.651976957356655], [-126.44854088403166, -5.834911656079138]], [[-35.40879111643486, -7.651976957356655], [-101.14611757922809, 20.273446250632624]], [[144.59120888356514, 7.651976957356655], [156.23140110712154, -55.47200481930992]], [[41.59774444967442, 42.34823096125972], [-88.40863076908644, -19.89589742586615]], [[41.59774444967442, 42.34823096125972], [-100.00768398162498, -55.935002254436014]], [[41.59774444967442, 42.34823096125972], [-59.38365962264239, -24.72270125981283]], [[41.59774444967442, 42.34823096125972], [158.15910339537572, -48.50989848809028]], [[-53.19915793328325, 6.124919407008511], [-124.81032124019457, 29.214196680500777]], [[-53.19915793328325, 6.124919407008511], [25.433366088879286, -14.1016776941285]], [[-53.19915793328325, 6.124919407008511], [-161.19667258600848, -59.17309496486408]], [[-53.19915793328325, 6.124919407008511], [79.99231601837502, 55.935002254436014]], [[-30.359784338109673, -67.13146789479931], [-147.96673110825293, 11.725319672814404]], [[149.64021566189035, 67.13146789479931], [-59.38365962264239, -24.72270125981283]], [[149.64021566189035, 67.13146789479931], [-130.09508617269077, -5.5829055083020425]], [[149.64021566189035, 67.13146789479931], [75.25506020388445, 0.938498548182326]], [[126.80084206671677, -6.124919407008511], [96.36192474404989, 3.443390584449749]], [[91.59136923091356, 19.89589742586615], [-18.367957577927168, 66.70964343722224]], [[91.59136923091356, 19.89589742586615], [5.02071902669595, 44.09245310617029]], [[91.59136923091356, 19.89589742586615], [-21.84089660462428, 48.50989848809028]], [[91.59136923091356, 19.89589742586615], [88.98816022764946, 48.72701163425251]], [[91.59136923091356, 19.89589742586615], [68.63126003284788, 41.03224528137111]], [[23.317216495709264, 20.036299520501377], [84.78293505919086, 60.57578273582612]], [[23.317216495709264, 20.036299520501377], [64.45033062259357, 52.811873650786374]], [[-156.68278350429074, -20.036299520501377], [156.23140110712154, -55.47200481930992]], [[29.17216259134989, 39.81466430190844], [28.86220308008074, -30.063041411226227]], [[29.17216259134989, 39.81466430190844], [133.42169387261603, 23.878130022687678]], [[29.17216259134989, 39.81466430190844], [-138.30289720781198, 74.89624198965849]], [[71.02319969913646, 5.007549139396109], [88.98816022764946, 48.72701163425251]], [[71.02319969913646, 5.007549139396109], [118.12372725811505, 60.77380018736298]], [[-150.8278374086501, -39.81466430190844], [-147.96673110825293, 11.725319672814404]], [[-169.25096656276477, 32.95793617611522], [5.02071902669595, 44.09245310617029]], [[143.45979957986543, -20.183434432373293], [88.98816022764946, 48.72701163425251]], [[-36.54020042013459, 20.183434432373293], [19.816969250581433, 44.82419796746227]], [[-36.54020042013459, 20.183434432373293], [-147.97566559390162, 38.09210082445687]], [[-19.13216729355141, -15.09411101615244], [78.85388242077192, -20.273446250632624]], [[-66.68659841723058, -21.41829032129251], [-89.40898184387017, 31.16511540961565]], [[99.29342209393126, -21.348187861731116], [-134.58470300301758, -26.844326442048164]], [[99.29342209393126, -21.348187861731116], [-100.00768398162498, -55.935002254436014]], [[99.29342209393126, -21.348187861731116], [108.52965567146546, 86.52700094079258]], [[99.29342209393126, -21.348187861731116], [88.98816022764946, 48.72701163425251]], [[99.29342209393126, -21.348187861731116], [176.91050703061495, -19.193427559283055]], [[1.7896490953813535, 9.93579204867234], [108.52965567146546, 86.52700094079258]], [[1.7896490953813535, 9.93579204867234], [40.49635858689716, 88.90006743798554]], [[-18.367957577927168, 66.70964343722224], [32.02433440609836, -38.09210082445687]], [[-99.99586350206702, 15.427886334518076], [108.52965567146546, 86.52700094079258]], [[-79.38102795283345, 2.9193517265975752], [18.803327413991536, 59.17309496486408]], [[108.52965567146546, 86.52700094079258], [5.02071902669595, 44.09245310617029]], [[18.803327413991536, 59.17309496486408], [-89.40898184387017, 31.16511540961565]], [[18.803327413991536, 59.17309496486408], [88.98816022764946, 48.72701163425251]], [[18.803327413991536, 59.17309496486408], [-3.425570795610935, 50.570296687807236]], [[18.803327413991536, 59.17309496486408], [-85.45979176725828, 27.455009930820417]], [[-154.56663391112073, 14.1016776941285], [88.98816022764946, 48.72701163425251]], [[-89.40898184387017, 31.16511540961565], [-65.82899126553794, 1.7275141845317115]], [[-89.40898184387017, 31.16511540961565], [-151.13779691991925, 30.063041411226227]], [[0.16415545043400934, -20.8173909492588], [-95.21706494080914, -60.57578273582612]], [[78.85388242077192, -20.273446250632624], [5.02071902669595, 44.09245310617029]], [[156.23140110712154, -55.47200481930992], [168.3061630189453, 4.626250919933217]], [[-61.87627274188495, -60.77380018736298], [32.033268891747056, -11.725319672814404]], [[5.02071902669595, 44.09245310617029], [-152.89399559502803, 17.63203713127018]], [[5.02071902669595, 44.09245310617029], [-144.90423915753834, 13.499781715827188]], [[-132.15513971010296, -32.080483928321755], [-178.21035090461865, -9.93579204867234]], [[101.79980005330943, 19.61175445795662], [68.63126003284788, 41.03224528137111]], [[19.816969250581433, 44.82419796746227], [40.49635858689716, 88.90006743798554]], [[-152.89399559502803, 17.63203713127018], [127.63423449119242, 43.611264235345644]], [[-11.69383698105468, -4.626250919933217], [-78.20019994669057, -19.61175445795662]], [[-11.69383698105468, -4.626250919933217], [-23.76859889287846, 55.47200481930992]], [[-52.36576550880759, -43.611264235345644], [-85.45979176725828, 27.455009930820417]], [[-52.36576550880759, -43.611264235345644], [22.999024411028604, -31.302380045743604]], [[35.09576084246167, -13.499781715827188], [-59.38365962264239, -24.72270125981283]], [[35.09576084246167, -13.499781715827188], [22.999024411028604, -31.302380045743604]], [[-59.38365962264239, -24.72270125981283], [-119.15005412682162, 49.41011688866381]], [[-21.84089660462428, 48.50989848809028], [28.86220308008074, -30.063041411226227]], [[-9.145712877466387, 24.218728342361132], [-3.425570795610935, 50.570296687807236]], [[-9.145712877466387, 24.218728342361132], [22.999024411028604, -31.302380045743604]], [[88.98816022764946, 48.72701163425251], [-3.425570795610935, 50.570296687807236]], [[88.98816022764946, 48.72701163425251], [82.03110295782919, -26.487281665803692]], [[-3.425570795610935, 50.570296687807236], [84.78293505919086, 60.57578273582612]], [[-3.425570795610935, 50.570296687807236], [64.45033062259357, 52.811873650786374]], [[-123.54488644404452, 37.82490158399844], [-119.15005412682162, 49.41011688866381]], [[22.999024411028604, -31.302380045743604], [47.46365930162853, 18.668113386236836]], [[-139.50364141310286, -88.90006743798554], [41.697102792188026, -74.89624198965849]], [[-139.50364141310286, -88.90006743798554], [146.26226420766326, -34.08195331533007]], [[49.90491382730924, 5.5829055083020425], [-178.21035090461865, -9.93579204867234]], [[-83.63807525595013, -3.443390584449749], [79.99231601837502, 55.935002254436014]], [[-46.57830612738396, -23.878130022687678], [47.46365930162853, 18.668113386236836]], [[-46.57830612738396, -23.878130022687678], [158.2657482234366, -13.97412179463292]], [[-46.57830612738396, -23.878130022687678], [-54.1269455582282, 25.472925205814278]], [[-46.57830612738396, -23.878130022687678], [-178.21035090461865, -9.93579204867234]], [[47.46365930162853, 18.668113386236836], [158.2657482234366, -13.97412179463292]], [[47.46365930162853, 18.668113386236836], [160.86783270644858, 15.09411101615244]], [[158.2657482234366, -13.97412179463292], [174.17232343343724, 24.415118889214543]], [[-54.1269455582282, 25.472925205814278], [64.45033062259357, 52.811873650786374]], [[-21.734251776563422, 13.97412179463292], [96.36192474404989, 3.443390584449749]], [[-21.734251776563422, 13.97412179463292], [94.54020823274172, -27.455009930820417]], [[-21.734251776563422, 13.97412179463292], [56.45511355595548, -37.82490158399844]], [[-21.734251776563422, 13.97412179463292], [47.844860289897035, 32.080483928321755]], [[133.42169387261603, 23.878130022687678], [142.12364917852912, 41.24386025214523]], [[133.42169387261603, 23.878130022687678], [94.54020823274172, -27.455009930820417]], [[133.42169387261603, 23.878130022687678], [55.03370866035415, 16.186520309560468]], [[96.36192474404989, 3.443390584449749], [142.12364917852912, 41.24386025214523]], [[96.36192474404989, 3.443390584449749], [114.17100873446208, -1.7275141845317115]], [[176.91050703061495, -19.193427559283055], [-151.13779691991925, 30.063041411226227]], [[94.54020823274172, -27.455009930820417], [-144.90423915753834, 13.499781715827188]], [[56.45511355595548, -37.82490158399844], [176.57442920438908, -50.570296687807236]], [[-91.01183977235054, -48.72701163425251], [25.433366088879286, -14.1016776941285]], [[116.30076053761887, -14.139689442573683], [114.17100873446208, -1.7275141845317115]], [[116.30076053761887, -14.139689442573683], [146.26226420766326, -34.08195331533007]], [[75.25506020388445, 0.938498548182326], [-0.4083744917588533, 56.498839900986674]], [[158.15910339537572, -48.50989848809028], [99.80143940258819, 36.07566704227131]], [[158.15910339537572, -48.50989848809028], [-71.47034432853455, -86.52700094079258]], [[158.15910339537572, -48.50989848809028], [161.63204242207283, -66.70964343722224]], [[158.15910339537572, -48.50989848809028], [160.86783270644858, 15.09411101615244]], [[120.6163403773576, 24.72270125981283], [-144.90423915753834, 13.499781715827188]], [[120.6163403773576, 24.72270125981283], [-178.21035090461865, -9.93579204867234]], [[-0.4083744917588533, 56.498839900986674], [-126.44854088403166, -5.834911656079138]], [[-172.1218464376424, -9.220002246288491], [-174.97928097330407, -44.09245310617029]], [[118.12372725811505, 60.77380018736298], [90.59101815612985, -31.16511540961565]], [[84.78293505919086, 60.57578273582612], [45.41529699698242, 26.844326442048164]], [[-179.835844549566, 20.8173909492588], [146.26226420766326, -34.08195331533007]], [[25.433366088879286, -14.1016776941285], [-161.19667258600848, -59.17309496486408]], [[79.99231601837502, 55.935002254436014], [45.41529699698242, 26.844326442048164]], [[64.45033062259357, 52.811873650786374], [174.17232343343724, 24.415118889214543]]]}}]}