{"type": "FeatureCollection", "name": "E8_proj_seed1044 grid", "properties": {"shape": "E8_proj_seed1044", "lock_lat": 25.0, "lock_lon": 5.0, "bearing": 130.0}, "features": [{"type": "Feature", "properties": {"kind": "grid_vertices", "shape": "E8_proj_seed1044", "count": 240, "ids": ["V1", "V2", "V3", "V4", "V5", "V6", "V7", "V8", "V9", "V10", "V11", "V12", "V13", "V14", "V15", "V16", "V17", "V18", "V19", "V20", "V21", "V22", "V23", "V24", "V25", "V26", "V27", "V28", "V29", "V30", "V31", "V32", "V33", "V34", "V35", "V36", "V37", "V38", "V39", "V40", "V41", "V42", "V43", "V44", "V45", "V46", "V47", "V48", "V49", "V50", "V51", "V52", "V53", "V54", "V55", "V56", "V57", "V58", "V59", "V60", "V61", "V62", "V63", "V64", "V65", "V66", "V67", "V68", "V69", "V70", "V71", "V72", "V73", "V74", "V75", "V76", "V77", "V78", "V79", "V80", "V81", "V82", "V83", "V84", "V85", "V86", "V87", "V88", "V89", "V90", "V91", "V92", "V93", "V94", "V95", "V96", "V97", "V98", "V99", "V100", "V101", "V102", "V103", "V104", "V105", "V106", "V107", "V108", "V109", "V110", "V111", "V112", "V113", "V114", "V115", "V116", "V117", "V118", "V119", "V120", "V121", "V122", "V123", "V124", "V125", "V126", "V127", "V128", "V129", "V130", "V131", "V132", "V133", "V134", "V135", "V136", "V137", "V138", "V139", "V140", "V141", "V142", "V143", "V144", "V145", "V146", "V147", "V148", "V149", "V150", "V151", "V152", "V153", "V154", "V155", "V156", "V157", "V158", "V159", "V160", "V161", "V162", "V163", "V164", "V165", "V166", "V167", "V168", "V169", "V170", "V171", "V172", "V173", "V174", "V175", "V176", "V177", "V178", "V179", "V180", "V181", "V182", "V183", "V184", "V185", "V186", "V187", "V188", "V189", "V190", "V191", "V192", "V193", "V194", "V195", "V196", "V197", "V198", "V199", "V200", "V201", "V202", "V203", "V204", "V205", "V206", "V207", "V208", "V209", "V210", "V211", "V212", "V213", "V214", "V215", "V216", "V217", "V218", "V219", "V220", "V221", "V222", "V223", "V224", "V225", "V226", "V227", "V228", "V229", "V230", "V231", "V232", "V233", "V234", "V235", "V236", "V237", "V238", "V239", "V240"]}, "geometry": {"type": "MultiPoint", "coordinates": [[-61.58247960390018, -6.665166429774173], [-10.85428499807304, -9.452127704787035], [169.145715001927, 9.452127704787035], [118.41752039609982, 6.665166429774173], [-13.914187012348767, -3.260267722513089], [-70.49459205057605, -15.443977587124419], [109.50540794942397, 15.443977587124419], [166.08581298765122, 3.260267722513089], [-65.38619477171457, 43.377924476046715], [-19.65575983617408, -35.413335712785994], [160.34424016382593, 35.413335712785994], [114.61380522828543, -43.377924476046715], [-33.941717886160305, -9.235882375244959], [-42.95783363357223, -6.674273412816427], [137.04216636642778, 6.674273412816427], [146.0582821138397, 9.235882375244959], [-48.28371112496518, 28.968540656041007], [6.84118844446712, -65.01438745328942], [-173.15881155553288, 65.01438745328942], [131.71628887503482, -28.968540656041007], [11.435229792335587, 14.04366512714251], [-79.47021127204285, -24.779554972729777], [100.52978872795717, 24.779554972729777], [-168.56477020766442, -14.04366512714251], [2.6964865229500594, 5.864689158571362], [-64.92366140832132, -17.964166339822654], [115.07633859167868, 17.964166339822654], [-177.30351347704996, -5.864689158571362], [-28.632940509532126, 25.0127017127642], [-145.43356259950767, -2.3902521685788547], [34.56643740049234, 2.3902521685788547], [151.36705949046785, -25.0127017127642], [-151.83376228442637, 43.0605226550475], [-52.94841674208962, -68.33793861878941], [127.0515832579104, 68.33793861878941], [28.166237715573615, -43.0605226550475], [-65.96419300258916, -6.56091013567519], [175.45669364853597, 9.67259268886459], [-4.543306351464039, -9.67259268886459], [114.03580699741084, 6.56091013567519], [-93.54643724815355, 47.674771818591125], [153.70351777975435, -57.67638421867722], [-26.296482220245654, 57.67638421867722], [86.45356275184645, -47.674771818591125], [64.60967698383105, 44.70453489987854], [-126.07593674244798, -17.67085762779327], [53.924063257552014, 17.67085762779327], [-115.39032301616895, -44.70453489987854], [102.25032647407984, 47.82738428341885], [-120.8179700129801, -11.646338407717428], [59.18202998701991, 11.646338407717428], [-77.74967352592016, -47.82738428341885], [82.31007346331637, 81.26474524358963], [17.473649226298534, -35.043715551208024], [-162.52635077370147, 35.043715551208024], [-97.68992653668363, -81.26474524358963], [-9.225092680870121, -2.602566036077635], [101.48877571451041, 17.33683707975628], [-78.51122428548959, -17.33683707975628], [170.77490731912988, 2.602566036077635], [-26.937150433719204, 51.89609902352456], [72.51295133195411, -46.8135802437773], [-107.48704866804589, 46.8135802437773], [153.06284956628082, -51.89609902352456], [44.8790850186336, 20.909343930518496], [-92.03299510702179, -35.03510597874108], [87.96700489297821, 35.03510597874108], [-135.1209149813664, -20.909343930518496], [47.16114982335774, 16.551943388050628], [-54.79949509008468, -21.9614243724851], [125.20050490991532, 21.9614243724851], [-132.83885017664227, -16.551943388050628], [-73.605605019388, 52.5664353088588], [164.12601070696707, 38.619067211675], [-15.873989293032936, -38.619067211675], [106.39439498061202, -52.5664353088588], [-109.27828016731577, 67.8232823630074], [144.87621717339616, -12.251216764227243], [-35.12378282660384, 12.251216764227243], [70.72171983268423, -67.8232823630074], [86.90153959351039, 60.906338027312096], [-138.60314347046943, 13.426224272700686], [41.39685652953058, -13.426224272700686], [-93.09846040648961, -60.906338027312096], [115.654810894183, 62.38331013790676], [-137.29661518567463, 28.79107751479654], [42.70338481432538, -28.79107751479654], [-64.34518910581701, -62.38331013790676], [-49.054746668597616, 33.04066257831834], [26.760084936380714, -68.83759953901419], [-153.2399150636193, 68.83759953901419], [130.9452533314024, -33.04066257831834], [18.843135386930836, 16.156411461222888], [-84.92260423964477, -26.569978547176042], [95.07739576035523, 26.569978547176042], [-161.15686461306916, -16.156411461222888], [11.584108480465371, 8.097428518152665], [-68.82211906058696, -19.639600073082967], [111.17788093941304, 19.639600073082967], [-168.41589151953465, -8.097428518152665], [14.520658455866041, 61.72837334463415], [-101.29654997361838, 19.793338450003528], [78.70345002638163, -19.793338450003528], [-165.47934154413397, -61.72837334463415], [-1.8075001073044243, 68.55089868083186], [-90.13247357824821, 31.94208122016947], [89.86752642175179, -31.94208122016947], [178.1924998926956, -68.55089868083186], [60.95291512397056, 24.812683017706277], [37.682818841349814, 32.82283954177303], [-142.3171811586502, -32.82283954177303], [-119.04708487602943, -24.812683017706277], [-9.543094866342871, 47.49062695029246], [-79.27017916391655, 15.662733035610776], [-15.861370465229097, -6.439183169255781], [-51.6181580565041, -31.33824371148564], [-62.18302422131634, 68.905573831426], [-98.70699839423797, 54.94490733393915], [76.93795879012775, 20.15232873855518], [-136.00412124224337, -27.66722906899772], [-27.392861737281077, 4.890397149385695], [-40.900856025330945, -4.212564144484335], [21.344065161557783, -23.63599882837463], [-58.409754659579946, -52.68288377537002], [18.934526524330543, 27.442561703510737], [-81.97185324481647, -11.888652598499425], [37.5561168054513, -53.77133935529959], [37.326482318139135, -78.7068647071852], [-72.19263456934063, 39.41360296596824], [-88.09704314294306, 27.51873513013339], [32.02329772086983, 16.522869369217734], [-110.77452101986678, -26.088423832719965], [175.8810603661953, 86.86680021962668], [-121.217054266638, 17.166664524612308], [177.9129642541053, -1.5868156124525123], [-166.92125484367293, -15.738690675174297], [-16.593531296942945, 15.59488806341258], [-80.68347198684616, -13.954126609699303], [-27.996067436636704, -56.11620849024985], [-61.16462017686469, -63.45679927931935], [-70.79341831424462, 18.853920186875257], [-98.51567955347474, -3.84208820471858], [75.93234000474159, -38.11767975860664], [-130.76477234697145, -54.84786067433514], [-21.11553218879906, 36.603899900249345], [-37.4732903468715, 32.08863464045343], [33.85792918336945, 6.435050070974365], [-60.704177716124846, -38.697368849702734], [37.17773456668097, 53.98601447373655], [-92.26195483031516, 33.10756092245811], [66.71087293228963, 2.319204910599158], [94.74589782307686, -29.01849249934356], [7.435068148019801, 10.494244958694564], [-46.57484770967805, -13.797051226145228], [10.688259001311366, -33.01434744326255], [2.274521587060943, -46.04982663176178], [3.637100491080816, 12.610246930483072], [-12.281901865150843, -0.5760047388694008], [51.93054175334043, -18.191957265579802], [-33.2003591551721, -78.75058007008212], [-4.5762907213912865, 51.03087751778368], [-86.26382242793395, 13.106435029224937], [-8.159102209770372, -24.770812578646417], [-69.94844086809259, -54.5641601426614], [-92.79318787409835, 75.2255887395535], [-121.99835506617794, 52.79337567647849], [90.57405713647928, 12.31678728539747], [-150.12239189450474, -30.442255719137815], [-27.163254997394976, 0.8596391656785675], [-43.36174760292178, -10.337972495407687], [29.312446232628737, -29.63219873380288], [-66.25464230034773, -60.124579378226045], [30.636164330204323, 25.481101146730325], [-93.01931278663518, -19.193323691292004], [62.54557769455156, -59.63735199459002], [101.90214332015145, -77.80910315610474], [-78.09785667984856, 77.80910315610474], [-117.45442230544843, 59.63735199459002], [86.98068721336482, 19.193323691292004], [-149.3638356697957, -25.481101146730325], [113.74535769965227, 60.124579378226045], [-150.68755376737127, 29.63219873380288], [136.63825239707822, 10.337972495407687], [152.83674500260503, -0.8596391656785675], [29.87760810549527, 30.442255719137815], [-89.42594286352072, -12.31678728539747], [58.00164493382207, -52.79337567647849], [87.20681212590165, -75.2255887395535], [110.05155913190741, 54.5641601426614], [171.84089779022963, 24.770812578646417], [93.73617757206605, -13.106435029224937], [175.42370927860873, -51.03087751778368], [146.7996408448279, 78.75058007008212], [-128.0694582466596, 18.191957265579802], [167.71809813484916, 0.5760047388694008], [-176.36289950891918, -12.610246930483072], [-177.72547841293905, 46.04982663176178], [-169.31174099868863, 33.01434744326255], [133.42515229032196, 13.797051226145228], [-172.56493185198022, -10.494244958694564], [-85.25410217692314, 29.01849249934356], [-113.28912706771038, -2.319204910599158], [87.73804516968485, -33.10756092245811], [-142.82226543331905, -53.98601447373655], [119.29582228387517, 38.697368849702734], [-146.14207081663056, -6.435050070974365], [142.5267096531285, -32.08863464045343], [158.88446781120095, -36.603899900249345], [49.235227653028545, 54.84786067433514], [-104.06765999525842, 38.11767975860664], [81.48432044652527, 3.84208820471858], [109.2065816857554, -18.853920186875257], [118.83537982313533, 63.45679927931935], [152.0039325633633, 56.11620849024985], [99.31652801315386, 13.954126609699303], [163.40646870305704, -15.59488806341258], [13.078745156327095, 15.738690675174297], [-2.0870357458947084, 1.5868156124525123], [58.78294573336199, -17.166664524612308], [-4.118939633804712, -86.86680021962668], [69.22547898013322, 26.088423832719965], [-147.97670227913017, -16.522869369217734], [91.90295685705695, -27.51873513013339], [107.80736543065937, -39.41360296596824], [-142.67351768186086, 78.7068647071852], [-142.4438831945487, 53.77133935529959], [98.02814675518353, 11.888652598499425], [-161.06547347566945, -27.442561703510737], [121.59024534042005, 52.68288377537002], [-158.65593483844222, 23.63599882837463], [139.09914397466906, 4.212564144484335], [152.60713826271893, -4.890397149385695], [43.99587875775665, 27.66722906899772], [-103.06204120987226, -20.15232873855518], [81.29300160576203, -54.94490733393915], [117.81697577868367, -68.905573831426], [128.3818419434959, 31.33824371148564], [164.1386295347709, 6.439183169255781], [100.72982083608345, -15.662733035610776], [170.45690513365716, -47.49062695029246]]}}, {"type": "Feature", "properties": {"kind": "grid_edges", "shape": "E8_proj_seed1044", "count": 341, "ids": ["E1", "E2", "E3", "E4", "E5", "E6", "E7", "E8", "E9", "E10", "E11", "E12", "E13", "E14", "E15", "E16", "E17", "E18", "E19", "E20", "E21", "E22", "E23", "E24", "E25", "E26", "E27", "E28", "E29", "E30", "E31", "E32", "E33", "E34", "E35", "E36", "E37", "E38", "E39", "E40", "E41", "E42", "E43", "E44", "E45", "E46", "E47", "E48", "E49", "E50", "E51", "E52", "E53", "E54", "E55", "E56", "E57", "E58", "E59", "E60", "E61", "E62", "E63", "E64", "E65", "E66", "E67", "E68", "E69", "E70", "E71", "E72", "E73", "E74", "E75", "E76", "E77", "E78", "E79", "E80", "E81", "E82", "E83", "E84", "E85", "E86", "E87", "E88", "E89", "E90", "E91", "E92", "E93", "E94", "E95", "E96", "E97", "E98", "E99", "E100", "E101", "E102", "E103", "E104", "E105", "E106", "E107", "E108", "E109", "E110", "E111", "E112", "E113", "E114", "E115", "E116", "E117", "E118", "E119", "E120", "E121", "E122", "E123", "E124", "E125", "E126", "E127", "E128", "E129", "E130", "E131", "E132", "E133", "E134", "E135", "E136", "E137", "E138", "E139", "E140", "E141", "E142", "E143", "E144", "E145", "E146", "E147", "E148", "E149", "E150", "E151", "E152", "E153", "E154", "E155", "E156", "E157", "E158", "E159", "E160", "E161", "E162", "E163", "E164", "E165", "E166", "E167", "E168", "E169", "E170", "E171", "E172", "E173", "E174", "E175", "E176", "E177", "E178", "E179", "E180", "E181", "E182", "E183", "E184", "E185", "E186", "E187", "E188", "E189", "E190", "E191", "E192", "E193", "E194", "E195", "E196", "E197", "E198", "E199", "E200", "E201", "E202", "E203", "E204", "E205", "E206", "E207", "E208", "E209", "E210", "E211", "E212", "E213", "E214", "E215", "E216", "E217", "E218", "E219", "E220", "E221", "E222", "E223", "E224", "E225", "E226", "E227", "E228", "E229", "E230", "E231", "E232", "E233", "E234", "E235", "E236", "E237", "E238", "E239", "E240", "E241", "E242", "E243", "E244", "E245", "E246", "E247", "E248", "E249", "E250", "E251", "E252", "E253", "E254", "E255", "E256", "E257", "E258", "E259", "E260", "E261", "E262", "E263", "E264", "E265", "E266", "E267", "E268", "E269", "E270", "E271", "E272", "E273", "E274", "E275", "E276", "E277", "E278", "E279", "E280", "E281", "E282", "E283", "E284", "E285", "E286", "E287", "E288", "E289", "E290", "E291", "E292", "E293", "E294", "E295", "E296", "E297", "E298", "E299", "E300", "E301", "E302", "E303", "E304", "E305", "E306", "E307", "E308", "E309", "E310", "E311", "E312", "E313", "E314", "E315", "E316", "E317", "E318", "E319", "E320", "E321", "E322", "E323", "E324", "E325", "E326", "E327", "E328", "E329", "E330", "E331", "E332", "E333", "E334", "E335", "E336", "E337", "E338", "E339", "E340", "E341"], "pairs": [[0, 32], [0, 44], [1, 34], [1, 150], [1, 154], [1, 164], [2, 203], [3, 227], [4, 148], [5, 20], [5, 25], [5, 31], [5, 161], [5, 175], [6, 28], [6, 64], [6, 185], [6, 208], [6, 210], [6, 216], [6, 220], [7, 22], [7, 192], [7, 202], [7, 203], [7, 225], [8, 21], [8, 144], [8, 150], [10, 214], [12, 93], [12, 136], [13, 118], [13, 156], [14, 36], [14, 93], [14, 96], [14, 184], [14, 193], [14, 208], [15, 94], [15, 180], [15, 205], [16, 90], [16, 100], [16, 132], [17, 146], [18, 22], [18, 209], [18, 229], [18, 232], [20, 100], [20, 134], [20, 146], [20, 164], [20, 170], [21, 95], [21, 157], [22, 27], [24, 48], [24, 86], [24, 98], [25, 114], [25, 116], [26, 218], [27, 222], [28, 48], [28, 60], [28, 61], [28, 123], [28, 189], [29, 71], [29, 130], [29, 132], [30, 47], [30, 149], [30, 153], [30, 155], [31, 55], [31, 67], [31, 162], [31, 175], [31, 227], [32, 77], [32, 180], [33, 44], [33, 137], [33, 205], [34, 39], [34, 46], [34, 150], [34, 210], [34, 211], [35, 43], [35, 172], [36, 184], [37, 44], [37, 116], [37, 198], [38, 92], [39, 99], [39, 167], [39, 172], [39, 213], [40, 132], [41, 48], [41, 183], [42, 165], [42, 212], [42, 236], [43, 230], [44, 136], [44, 200], [45, 48], [45, 135], [46, 148], [46, 208], [46, 212], [48, 96], [48, 132], [48, 177], [48, 178], [49, 134], [49, 194], [51, 153], [51, 156], [52, 144], [52, 211], [53, 68], [53, 188], [54, 129], [54, 162], [55, 66], [55, 70], [55, 78], [55, 204], [56, 92], [56, 97], [56, 185], [56, 187], [57, 64], [57, 65], [57, 69], [57, 91], [57, 124], [57, 127], [57, 222], [58, 63], [58, 89], [58, 169], [59, 67], [59, 99], [59, 167], [59, 198], [61, 107], [61, 114], [61, 147], [62, 66], [62, 100], [62, 137], [62, 169], [62, 173], [62, 192], [63, 103], [66, 71], [66, 100], [66, 140], [68, 112], [69, 120], [69, 159], [70, 142], [71, 109], [72, 210], [72, 226], [73, 94], [73, 151], [75, 124], [76, 196], [77, 106], [77, 114], [78, 83], [78, 137], [78, 216], [78, 237], [79, 191], [79, 239], [80, 102], [81, 177], [82, 100], [82, 140], [82, 236], [83, 187], [84, 96], [84, 145], [84, 166], [84, 208], [84, 231], [85, 147], [85, 162], [88, 129], [88, 184], [88, 216], [88, 217], [88, 232], [89, 106], [90, 220], [92, 114], [92, 194], [92, 234], [94, 196], [94, 212], [95, 117], [95, 125], [96, 170], [96, 184], [96, 202], [96, 208], [97, 113], [97, 138], [98, 135], [98, 157], [98, 175], [98, 228], [99, 222], [100, 109], [100, 152], [101, 221], [103, 211], [104, 108], [104, 112], [104, 197], [105, 181], [105, 212], [105, 221], [107, 109], [107, 134], [108, 118], [108, 152], [108, 160], [108, 192], [109, 114], [109, 156], [109, 224], [110, 127], [110, 231], [112, 124], [113, 176], [113, 193], [114, 116], [115, 117], [115, 118], [115, 123], [115, 145], [116, 124], [116, 126], [116, 149], [117, 121], [117, 125], [117, 157], [117, 177], [118, 124], [120, 156], [121, 123], [121, 177], [123, 153], [123, 155], [123, 159], [123, 187], [124, 127], [124, 204], [125, 188], [126, 182], [128, 134], [128, 193], [128, 194], [129, 145], [129, 197], [130, 192], [130, 195], [132, 141], [132, 142], [135, 142], [136, 168], [140, 206], [141, 157], [142, 204], [144, 161], [145, 148], [145, 165], [145, 169], [145, 211], [146, 148], [146, 155], [146, 170], [147, 159], [148, 150], [148, 157], [152, 220], [153, 156], [153, 168], [154, 216], [156, 221], [160, 170], [161, 162], [162, 227], [162, 230], [165, 169], [165, 172], [168, 170], [170, 172], [171, 235], [172, 236], [176, 185], [176, 208], [177, 179], [178, 180], [179, 181], [180, 184], [180, 220], [182, 206], [183, 190], [184, 187], [184, 190], [189, 220], [191, 219], [194, 203], [199, 239], [200, 202], [200, 203], [200, 204], [200, 234], [211, 213], [212, 221], [214, 215], [214, 238], [216, 236], [217, 220], [221, 222], [226, 238], [228, 232], [232, 237]], "support_counts": [1, 1, 1, 1, 1, 1, 1, 2, 1, 1, 1, 1, 1, 1, 1, 1, 1, 1, 1, 1, 1, 1, 1, 1, 1, 1, 1, 1, 1, 1, 1, 1, 1, 1, 1, 1, 1, 1, 1, 1, 1, 1, 1, 1, 1, 1, 1, 1, 1, 1, 1, 1, 1, 1, 1, 2, 1, 1, 1, 1, 1, 1, 1, 1, 1, 2, 1, 1, 1, 1, 1, 1, 1, 1, 1, 1, 1, 1, 1, 1, 1, 1, 1, 1, 1, 1, 1, 1, 1, 1, 1, 1, 2, 1, 1, 1, 1, 1, 1, 1, 1, 1, 1, 1, 1, 1, 1, 1, 1, 1, 1, 1, 1, 1, 1, 1, 1, 2, 1, 1, 1, 1, 1, 1, 2, 1, 1, 1, 1, 1, 2, 1, 1, 1, 1, 1, 1, 1, 1, 1, 1, 1, 1, 1, 1, 1, 1, 1, 1, 1, 1, 1, 1, 1, 1, 1, 1, 1, 1, 1, 1, 1, 1, 1, 2, 1, 1, 1, 1, 1, 1, 1, 1, 1, 1, 1, 1, 1, 1, 2, 2, 1, 1, 1, 1, 1, 1, 1, 1, 1, 1, 1, 1, 1, 1, 1, 1, 1, 1, 1, 1, 1, 1, 1, 1, 1, 1, 1, 1, 1, 1, 1, 1, 1, 1, 1, 2, 1, 1, 1, 1, 1, 1, 1, 1, 1, 1, 1, 1, 1, 1, 1, 1, 1, 1, 1, 1, 1, 2, 1, 1, 2, 1, 1, 1, 1, 1, 1, 1, 1, 1, 1, 1, 1, 1, 1, 1, 1, 1, 1, 1, 1, 1, 1, 1, 1, 1, 1, 1, 1, 1, 1, 1, 1, 1, 1, 2, 1, 1, 1, 1, 1, 1, 1, 1, 1, 1, 2, 1, 1, 1, 1, 1, 1, 1, 1, 1, 1, 1, 1, 1, 1, 1, 1, 2, 1, 1, 1, 1, 1, 1, 1, 1, 1, 1, 1, 1, 1, 1, 1, 1, 1, 1, 1, 1, 1, 1, 1, 1, 1, 1, 1, 1, 2, 1, 1, 1, 1, 1, 1, 1], "support_class": ["single", "single", "single", "single", "single", "single", "single", "shared", "single", "single", "single", "single", "single", "single", "single", "single", "single", "single", "single", "single", "single", "single", "single", "single", "single", "single", "single", "single", "single", "single", "single", "single", "single", "single", "single", "single", "single", "single", "single", "single", "single", "single", "single", "single", "single", "single", "single", "single", "single", "single", "single", "single", "single", "single", "single", "shared", "single", "single", "single", "single", "single", "single", "single", "single", "single", "shared", "single", "single", "single", "single", "single", "single", "single", "single", "single", "single", "single", "single", "single", "single", "single", "single", "single", "single", "single", "single", "single", "single", "single", "single", "single", "single", "shared", "single", "single", "single", "single", "single", "single", "single", "single", "single", "single", "single", "single", "single", "single", "single", "single", "single", "single", "single", "single", "single", "single", "single", "single", "shared", "single", "single", "single", "single", "single", "single", "shared", "single", "single", "single", "single", "single", "shared", "single", "single", "single", "single", "single", "single", "single", "single", "single", "single", "single", "single", "single", "single", "single", "single", "single", "single", "single", "single", "single", "single", "single", "single", "single", "single", "single", "single", "single", "single", "single", "single", "single", "shared", "single", "single", "single", "single", "single", "single", "single", "single", "single", "single", "single", "single", "single", "single", "shared", "shared", "single", "single", "single", "single", "single", "single", "single", "single", "single", "single", "single", "single", "single", "single", "single", "single", "single", "single", "single", "single", "single", "single", "single", "single", "single", "single", "single", "single", "single", "single", "single", "single", "single", "single", "single", "shared", "single", "single", "single", "single", "single", "single", "single", "single", "single", "single", "single", "single", "single", "single", "single", "single", "single", "single", "single", "single", "single", "shared", "single", "single", "shared", "single", "single", "single", "single", "single", "single", "single", "single", "single", "single", "single", "single", "single", "single", "single", "single", "single", "single", "single", "single", "single", "single", "single", "single", "single", "single", "single", "single", "single", "single", "single", "single", "single", "single", "shared", "single", "single", "single", "single", "single", "single", "single", "single", "single", "single", "shared", "single", "single", "single", "single", "single", "single", "single", "single", "single", "single", "single", "single", "single", "single", "single", "single", "shared", "single", "single", "single", "single", "single", "single", "single", "single", "single", "single", "single", "single", "single", "single", "single", "single", "single", "single", "single", "single", "single", "single", "single", "single", "single", "single", "single", "single", "shared", "single", "single", "single", "single", "single", "single", "single"]}, "geometry": {"type": "MultiLineString", "coordinates": [[[-61.58247960390018, -6.665166429774173], [-151.83376228442637, 43.0605226550475]], [[-61.58247960390018, -6.665166429774173], [64.60967698383105, 44.70453489987854]], [[-10.85428499807304, -9.452127704787035], [127.0515832579104, 68.33793861878941]], [[-10.85428499807304, -9.452127704787035], [66.71087293228963, 2.319204910599158]], [[-10.85428499807304, -9.452127704787035], [10.688259001311366, -33.01434744326255]], [[-10.85428499807304, -9.452127704787035], [-92.79318787409835, 75.2255887395535]], [[169.145715001927, 9.452127704787035], [-142.82226543331905, -53.98601447373655]], [[118.41752039609982, 6.665166429774173], [-161.06547347566945, -27.442561703510737]], [[-13.914187012348767, -3.260267722513089], [37.17773456668097, 53.98601447373655]], [[-70.49459205057605, -15.443977587124419], [11.435229792335587, 14.04366512714251]], [[-70.49459205057605, -15.443977587124419], [-64.92366140832132, -17.964166339822654]], [[-70.49459205057605, -15.443977587124419], [151.36705949046785, -25.0127017127642]], [[-70.49459205057605, -15.443977587124419], [-86.26382242793395, 13.106435029224937]], [[-70.49459205057605, -15.443977587124419], [101.90214332015145, -77.80910315610474]], [[109.50540794942397, 15.443977587124419], [-28.632940509532126, 25.0127017127642]], [[109.50540794942397, 15.443977587124419], [44.8790850186336, 20.909343930518496]], [[109.50540794942397, 15.443977587124419], [-89.42594286352072, -12.31678728539747]], [[109.50540794942397, 15.443977587124419], [49.235227653028545, 54.84786067433514]], [[109.50540794942397, 15.443977587124419], [81.48432044652527, 3.84208820471858]], [[109.50540794942397, 15.443977587124419], [13.078745156327095, 15.738690675174297]], [[109.50540794942397, 15.443977587124419], [69.22547898013322, 26.088423832719965]], [[166.08581298765122, 3.260267722513089], [100.52978872795717, 24.779554972729777]], [[166.08581298765122, 3.260267722513089], [146.7996408448279, 78.75058007008212]], [[166.08581298765122, 3.260267722513089], [87.73804516968485, -33.10756092245811]], [[166.08581298765122, 3.260267722513089], [-142.82226543331905, -53.98601447373655]], [[166.08581298765122, 3.260267722513089], [-142.4438831945487, 53.77133935529959]], [[-65.38619477171457, 43.377924476046715], [-79.47021127204285, -24.779554972729777]], [[-65.38619477171457, 43.377924476046715], [-21.11553218879906, 36.603899900249345]], [[-65.38619477171457, 43.377924476046715], [66.71087293228963, 2.319204910599158]], [[160.34424016382593, 35.413335712785994], [99.31652801315386, 13.954126609699303]], [[-33.941717886160305, -9.235882375244959], [-84.92260423964477, -26.569978547176042]], [[-33.941717886160305, -9.235882375244959], [-16.593531296942945, 15.59488806341258]], [[-42.95783363357223, -6.674273412816427], [76.93795879012775, 20.15232873855518]], [[-42.95783363357223, -6.674273412816427], [3.637100491080816, 12.610246930483072]], [[137.04216636642778, 6.674273412816427], [-65.96419300258916, -6.56091013567519]], [[137.04216636642778, 6.674273412816427], [-84.92260423964477, -26.569978547176042]], [[137.04216636642778, 6.674273412816427], [11.584108480465371, 8.097428518152665]], [[137.04216636642778, 6.674273412816427], [29.87760810549527, 30.442255719137815]], [[137.04216636642778, 6.674273412816427], [-128.0694582466596, 18.191957265579802]], [[137.04216636642778, 6.674273412816427], [49.235227653028545, 54.84786067433514]], [[146.0582821138397, 9.235882375244959], [95.07739576035523, 26.569978547176042]], [[146.0582821138397, 9.235882375244959], [113.74535769965227, 60.124579378226045]], [[146.0582821138397, 9.235882375244959], [-146.14207081663056, -6.435050070974365]], [[-48.28371112496518, 28.968540656041007], [-153.2399150636193, 68.83759953901419]], [[-48.28371112496518, 28.968540656041007], [14.520658455866041, 61.72837334463415]], [[-48.28371112496518, 28.968540656041007], [175.8810603661953, 86.86680021962668]], [[6.84118844446712, -65.01438745328942], [33.85792918336945, 6.435050070974365]], [[-173.15881155553288, 65.01438745328942], [100.52978872795717, 24.779554972729777]], [[-173.15881155553288, 65.01438745328942], [-104.06765999525842, 38.11767975860664]], [[-173.15881155553288, 65.01438745328942], [-158.65593483844222, 23.63599882837463]], [[-173.15881155553288, 65.01438745328942], [43.99587875775665, 27.66722906899772]], [[11.435229792335587, 14.04366512714251], [14.520658455866041, 61.72837334463415]], [[11.435229792335587, 14.04366512714251], [177.9129642541053, -1.5868156124525123]], [[11.435229792335587, 14.04366512714251], [33.85792918336945, 6.435050070974365]], [[11.435229792335587, 14.04366512714251], [-92.79318787409835, 75.2255887395535]], [[11.435229792335587, 14.04366512714251], [29.312446232628737, -29.63219873380288]], [[-79.47021127204285, -24.779554972729777], [-161.15686461306916, -16.156411461222888]], [[-79.47021127204285, -24.779554972729777], [-12.281901865150843, -0.5760047388694008]], [[100.52978872795717, 24.779554972729777], [-177.30351347704996, -5.864689158571362]], [[2.6964865229500594, 5.864689158571362], [102.25032647407984, 47.82738428341885]], [[2.6964865229500594, 5.864689158571362], [42.70338481432538, -28.79107751479654]], [[2.6964865229500594, 5.864689158571362], [111.17788093941304, 19.639600073082967]], [[-64.92366140832132, -17.964166339822654], [-15.861370465229097, -6.439183169255781]], [[-64.92366140832132, -17.964166339822654], [-62.18302422131634, 68.905573831426]], [[115.07633859167868, 17.964166339822654], [58.78294573336199, -17.166664524612308]], [[-177.30351347704996, -5.864689158571362], [91.90295685705695, -27.51873513013339]], [[-28.632940509532126, 25.0127017127642], [102.25032647407984, 47.82738428341885]], [[-28.632940509532126, 25.0127017127642], [-26.937150433719204, 51.89609902352456]], [[-28.632940509532126, 25.0127017127642], [72.51295133195411, -46.8135802437773]], [[-28.632940509532126, 25.0127017127642], [-58.409754659579946, -52.68288377537002]], [[-28.632940509532126, 25.0127017127642], [171.84089779022963, 24.770812578646417]], [[-145.43356259950767, -2.3902521685788547], [-132.83885017664227, -16.551943388050628]], [[-145.43356259950767, -2.3902521685788547], [32.02329772086983, 16.522869369217734]], [[-145.43356259950767, -2.3902521685788547], [175.8810603661953, 86.86680021962668]], [[34.56643740049234, 2.3902521685788547], [-115.39032301616895, -44.70453489987854]], [[34.56643740049234, 2.3902521685788547], [-92.26195483031516, 33.10756092245811]], [[34.56643740049234, 2.3902521685788547], [-46.57484770967805, -13.797051226145228]], [[34.56643740049234, 2.3902521685788547], [2.274521587060943, -46.04982663176178]], [[151.36705949046785, -25.0127017127642], [-97.68992653668363, -81.26474524358963]], [[151.36705949046785, -25.0127017127642], [-135.1209149813664, -20.909343930518496]], [[151.36705949046785, -25.0127017127642], [-8.159102209770372, -24.770812578646417]], [[151.36705949046785, -25.0127017127642], [101.90214332015145, -77.80910315610474]], [[151.36705949046785, -25.0127017127642], [-161.06547347566945, -27.442561703510737]], [[-151.83376228442637, 43.0605226550475], [144.87621717339616, -12.251216764227243]], [[-151.83376228442637, 43.0605226550475], [113.74535769965227, 60.124579378226045]], [[-52.94841674208962, -68.33793861878941], [64.60967698383105, 44.70453489987854]], [[-52.94841674208962, -68.33793861878941], [-80.68347198684616, -13.954126609699303]], [[-52.94841674208962, -68.33793861878941], [-146.14207081663056, -6.435050070974365]], [[127.0515832579104, 68.33793861878941], [114.03580699741084, 6.56091013567519]], [[127.0515832579104, 68.33793861878941], [53.924063257552014, 17.67085762779327]], [[127.0515832579104, 68.33793861878941], [66.71087293228963, 2.319204910599158]], [[127.0515832579104, 68.33793861878941], [81.48432044652527, 3.84208820471858]], [[127.0515832579104, 68.33793861878941], [109.2065816857554, -18.853920186875257]], [[28.166237715573615, -43.0605226550475], [86.45356275184645, -47.674771818591125]], [[28.166237715573615, -43.0605226550475], [30.636164330204323, 25.481101146730325]], [[-65.96419300258916, -6.56091013567519], [29.87760810549527, 30.442255719137815]], [[175.45669364853597, 9.67259268886459], [64.60967698383105, 44.70453489987854]], [[175.45669364853597, 9.67259268886459], [-62.18302422131634, 68.905573831426]], [[175.45669364853597, 9.67259268886459], [133.42515229032196, 13.797051226145228]], [[-4.543306351464039, -9.67259268886459], [18.843135386930836, 16.156411461222888]], [[114.03580699741084, 6.56091013567519], [-168.41589151953465, -8.097428518152665]], [[114.03580699741084, 6.56091013567519], [-150.12239189450474, -30.442255719137815]], [[114.03580699741084, 6.56091013567519], [30.636164330204323, 25.481101146730325]], [[114.03580699741084, 6.56091013567519], [152.0039325633633, 56.11620849024985]], [[-93.54643724815355, 47.674771818591125], [175.8810603661953, 86.86680021962668]], [[153.70351777975435, -57.67638421867722], [102.25032647407984, 47.82738428341885]], [[153.70351777975435, -57.67638421867722], [152.83674500260503, -0.8596391656785675]], [[-26.296482220245654, 57.67638421867722], [-121.99835506617794, 52.79337567647849]], [[-26.296482220245654, 57.67638421867722], [118.83537982313533, 63.45679927931935]], [[-26.296482220245654, 57.67638421867722], [128.3818419434959, 31.33824371148564]], [[86.45356275184645, -47.674771818591125], [139.09914397466906, 4.212564144484335]], [[64.60967698383105, 44.70453489987854], [-16.593531296942945, 15.59488806341258]], [[64.60967698383105, 44.70453489987854], [-85.25410217692314, 29.01849249934356]], [[-126.07593674244798, -17.67085762779327], [102.25032647407984, 47.82738428341885]], [[-126.07593674244798, -17.67085762779327], [-166.92125484367293, -15.738690675174297]], [[53.924063257552014, 17.67085762779327], [37.17773456668097, 53.98601447373655]], [[53.924063257552014, 17.67085762779327], [49.235227653028545, 54.84786067433514]], [[53.924063257552014, 17.67085762779327], [118.83537982313533, 63.45679927931935]], [[102.25032647407984, 47.82738428341885], [11.584108480465371, 8.097428518152665]], [[102.25032647407984, 47.82738428341885], [175.8810603661953, 86.86680021962668]], [[102.25032647407984, 47.82738428341885], [-117.45442230544843, 59.63735199459002]], [[102.25032647407984, 47.82738428341885], [86.98068721336482, 19.193323691292004]], [[-120.8179700129801, -11.646338407717428], [177.9129642541053, -1.5868156124525123]], [[-120.8179700129801, -11.646338407717428], [167.71809813484916, 0.5760047388694008]], [[-77.74967352592016, -47.82738428341885], [-46.57484770967805, -13.797051226145228]], [[-77.74967352592016, -47.82738428341885], [3.637100491080816, 12.610246930483072]], [[82.31007346331637, 81.26474524358963], [-21.11553218879906, 36.603899900249345]], [[82.31007346331637, 81.26474524358963], [109.2065816857554, -18.853920186875257]], [[17.473649226298534, -35.043715551208024], [47.16114982335774, 16.551943388050628]], [[17.473649226298534, -35.043715551208024], [110.05155913190741, 54.5641601426614]], [[-162.52635077370147, 35.043715551208024], [-88.09704314294306, 27.51873513013339]], [[-162.52635077370147, 35.043715551208024], [-8.159102209770372, -24.770812578646417]], [[-97.68992653668363, -81.26474524358963], [87.96700489297821, 35.03510597874108]], [[-97.68992653668363, -81.26474524358963], [125.20050490991532, 21.9614243724851]], [[-97.68992653668363, -81.26474524358963], [-35.12378282660384, 12.251216764227243]], [[-97.68992653668363, -81.26474524358963], [119.29582228387517, 38.697368849702734]], [[-9.225092680870121, -2.602566036077635], [18.843135386930836, 16.156411461222888]], [[-9.225092680870121, -2.602566036077635], [-68.82211906058696, -19.639600073082967]], [[-9.225092680870121, -2.602566036077635], [-89.42594286352072, -12.31678728539747]], [[-9.225092680870121, -2.602566036077635], [87.20681212590165, -75.2255887395535]], [[101.48877571451041, 17.33683707975628], [44.8790850186336, 20.909343930518496]], [[101.48877571451041, 17.33683707975628], [-92.03299510702179, -35.03510597874108]], [[101.48877571451041, 17.33683707975628], [-54.79949509008468, -21.9614243724851]], [[101.48877571451041, 17.33683707975628], [130.9452533314024, -33.04066257831834]], [[101.48877571451041, 17.33683707975628], [18.934526524330543, 27.442561703510737]], [[101.48877571451041, 17.33683707975628], [37.326482318139135, -78.7068647071852]], [[101.48877571451041, 17.33683707975628], [91.90295685705695, -27.51873513013339]], [[-78.51122428548959, -17.33683707975628], [153.06284956628082, -51.89609902352456]], [[-78.51122428548959, -17.33683707975628], [26.760084936380714, -68.83759953901419]], [[-78.51122428548959, -17.33683707975628], [-43.36174760292178, -10.337972495407687]], [[170.77490731912988, 2.602566036077635], [-135.1209149813664, -20.909343930518496]], [[170.77490731912988, 2.602566036077635], [-168.41589151953465, -8.097428518152665]], [[170.77490731912988, 2.602566036077635], [-150.12239189450474, -30.442255719137815]], [[170.77490731912988, 2.602566036077635], [133.42515229032196, 13.797051226145228]], [[72.51295133195411, -46.8135802437773], [178.1924998926956, -68.55089868083186]], [[72.51295133195411, -46.8135802437773], [-15.861370465229097, -6.439183169255781]], [[72.51295133195411, -46.8135802437773], [-60.704177716124846, -38.697368849702734]], [[-107.48704866804589, 46.8135802437773], [87.96700489297821, 35.03510597874108]], [[-107.48704866804589, 46.8135802437773], [14.520658455866041, 61.72837334463415]], [[-107.48704866804589, 46.8135802437773], [-80.68347198684616, -13.954126609699303]], [[-107.48704866804589, 46.8135802437773], [-43.36174760292178, -10.337972495407687]], [[-107.48704866804589, 46.8135802437773], [-93.01931278663518, -19.193323691292004]], [[-107.48704866804589, 46.8135802437773], [146.7996408448279, 78.75058007008212]], [[153.06284956628082, -51.89609902352456], [-165.47934154413397, -61.72837334463415]], [[87.96700489297821, 35.03510597874108], [-132.83885017664227, -16.551943388050628]], [[87.96700489297821, 35.03510597874108], [14.520658455866041, 61.72837334463415]], [[87.96700489297821, 35.03510597874108], [-70.79341831424462, 18.853920186875257]], [[47.16114982335774, 16.551943388050628], [-9.543094866342871, 47.49062695029246]], [[-54.79949509008468, -21.9614243724851], [-27.392861737281077, 4.890397149385695]], [[-54.79949509008468, -21.9614243724851], [-33.2003591551721, -78.75058007008212]], [[125.20050490991532, 21.9614243724851], [75.93234000474159, -38.11767975860664]], [[-132.83885017664227, -16.551943388050628], [37.682818841349814, 32.82283954177303]], [[-73.605605019388, 52.5664353088588], [81.48432044652527, 3.84208820471858]], [[-73.605605019388, 52.5664353088588], [98.02814675518353, 11.888652598499425]], [[164.12601070696707, 38.619067211675], [95.07739576035523, 26.569978547176042]], [[164.12601070696707, 38.619067211675], [94.74589782307686, -29.01849249934356]], [[106.39439498061202, -52.5664353088588], [18.934526524330543, 27.442561703510737]], [[-109.27828016731577, 67.8232823630074], [-177.72547841293905, 46.04982663176178]], [[144.87621717339616, -12.251216764227243], [89.86752642175179, -31.94208122016947]], [[144.87621717339616, -12.251216764227243], [-15.861370465229097, -6.439183169255781]], [[-35.12378282660384, 12.251216764227243], [-93.09846040648961, -60.906338027312096]], [[-35.12378282660384, 12.251216764227243], [-80.68347198684616, -13.954126609699303]], [[-35.12378282660384, 12.251216764227243], [13.078745156327095, 15.738690675174297]], [[-35.12378282660384, 12.251216764227243], [164.1386295347709, 6.439183169255781]], [[70.72171983268423, -67.8232823630074], [175.42370927860873, -51.03087751778368]], [[70.72171983268423, -67.8232823630074], [170.45690513365716, -47.49062695029246]], [[86.90153959351039, 60.906338027312096], [78.70345002638163, -19.793338450003528]], [[-138.60314347046943, 13.426224272700686], [-117.45442230544843, 59.63735199459002]], [[41.39685652953058, -13.426224272700686], [14.520658455866041, 61.72837334463415]], [[41.39685652953058, -13.426224272700686], [-70.79341831424462, 18.853920186875257]], [[41.39685652953058, -13.426224272700686], [128.3818419434959, 31.33824371148564]], [[-93.09846040648961, -60.906338027312096], [87.20681212590165, -75.2255887395535]], [[115.654810894183, 62.38331013790676], [11.584108480465371, 8.097428518152665]], [[115.654810894183, 62.38331013790676], [-37.4732903468715, 32.08863464045343]], [[115.654810894183, 62.38331013790676], [90.57405713647928, 12.31678728539747]], [[115.654810894183, 62.38331013790676], [49.235227653028545, 54.84786067433514]], [[115.654810894183, 62.38331013790676], [152.60713826271893, -4.890397149385695]], [[-137.29661518567463, 28.79107751479654], [-60.704177716124846, -38.697368849702734]], [[-137.29661518567463, 28.79107751479654], [-8.159102209770372, -24.770812578646417]], [[-49.054746668597616, 33.04066257831834], [-88.09704314294306, 27.51873513013339]], [[-49.054746668597616, 33.04066257831834], [29.87760810549527, 30.442255719137815]], [[-49.054746668597616, 33.04066257831834], [13.078745156327095, 15.738690675174297]], [[-49.054746668597616, 33.04066257831834], [-2.0870357458947084, 1.5868156124525123]], [[-49.054746668597616, 33.04066257831834], [43.99587875775665, 27.66722906899772]], [[26.760084936380714, -68.83759953901419], [89.86752642175179, -31.94208122016947]], [[-153.2399150636193, 68.83759953901419], [69.22547898013322, 26.088423832719965]], [[18.843135386930836, 16.156411461222888], [-15.861370465229097, -6.439183169255781]], [[18.843135386930836, 16.156411461222888], [167.71809813484916, 0.5760047388694008]], [[18.843135386930836, 16.156411461222888], [81.29300160576203, -54.94490733393915]], [[95.07739576035523, 26.569978547176042], [-177.72547841293905, 46.04982663176178]], [[95.07739576035523, 26.569978547176042], [118.83537982313533, 63.45679927931935]], [[-161.15686461306916, -16.156411461222888], [-98.70699839423797, 54.94490733393915]], [[-161.15686461306916, -16.156411461222888], [-81.97185324481647, -11.888652598499425]], [[11.584108480465371, 8.097428518152665], [29.312446232628737, -29.63219873380288]], [[11.584108480465371, 8.097428518152665], [29.87760810549527, 30.442255719137815]], [[11.584108480465371, 8.097428518152665], [87.73804516968485, -33.10756092245811]], [[11.584108480465371, 8.097428518152665], [49.235227653028545, 54.84786067433514]], [[-68.82211906058696, -19.639600073082967], [-79.27017916391655, 15.662733035610776]], [[-68.82211906058696, -19.639600073082967], [-27.996067436636704, -56.11620849024985]], [[111.17788093941304, 19.639600073082967], [-166.92125484367293, -15.738690675174297]], [[111.17788093941304, 19.639600073082967], [-12.281901865150843, -0.5760047388694008]], [[111.17788093941304, 19.639600073082967], [101.90214332015145, -77.80910315610474]], [[111.17788093941304, 19.639600073082967], [121.59024534042005, 52.68288377537002]], [[-168.41589151953465, -8.097428518152665], [91.90295685705695, -27.51873513013339]], [[14.520658455866041, 61.72837334463415], [37.682818841349814, 32.82283954177303]], [[14.520658455866041, 61.72837334463415], [7.435068148019801, 10.494244958694564]], [[-101.29654997361838, 19.793338450003528], [-147.97670227913017, -16.522869369217734]], [[-165.47934154413397, -61.72837334463415], [109.2065816857554, -18.853920186875257]], [[-1.8075001073044243, 68.55089868083186], [60.95291512397056, 24.812683017706277]], [[-1.8075001073044243, 68.55089868083186], [-9.543094866342871, 47.49062695029246]], [[-1.8075001073044243, 68.55089868083186], [-169.31174099868863, 33.01434744326255]], [[-90.13247357824821, 31.94208122016947], [-150.68755376737127, 29.63219873380288]], [[-90.13247357824821, 31.94208122016947], [118.83537982313533, 63.45679927931935]], [[-90.13247357824821, 31.94208122016947], [-147.97670227913017, -16.522869369217734]], [[178.1924998926956, -68.55089868083186], [37.682818841349814, 32.82283954177303]], [[178.1924998926956, -68.55089868083186], [177.9129642541053, -1.5868156124525123]], [[60.95291512397056, 24.812683017706277], [76.93795879012775, 20.15232873855518]], [[60.95291512397056, 24.812683017706277], [7.435068148019801, 10.494244958694564]], [[60.95291512397056, 24.812683017706277], [-4.5762907213912865, 51.03087751778368]], [[60.95291512397056, 24.812683017706277], [146.7996408448279, 78.75058007008212]], [[37.682818841349814, 32.82283954177303], [-15.861370465229097, -6.439183169255781]], [[37.682818841349814, 32.82283954177303], [3.637100491080816, 12.610246930483072]], [[37.682818841349814, 32.82283954177303], [-142.67351768186086, 78.7068647071852]], [[-142.3171811586502, -32.82283954177303], [37.326482318139135, -78.7068647071852]], [[-142.3171811586502, -32.82283954177303], [152.60713826271893, -4.890397149385695]], [[-9.543094866342871, 47.49062695029246], [18.934526524330543, 27.442561703510737]], [[-79.27017916391655, 15.662733035610776], [-78.09785667984856, 77.80910315610474]], [[-79.27017916391655, 15.662733035610776], [-128.0694582466596, 18.191957265579802]], [[-15.861370465229097, -6.439183169255781], [-62.18302422131634, 68.905573831426]], [[-51.6181580565041, -31.33824371148564], [-98.70699839423797, 54.94490733393915]], [[-51.6181580565041, -31.33824371148564], [76.93795879012775, 20.15232873855518]], [[-51.6181580565041, -31.33824371148564], [-58.409754659579946, -52.68288377537002]], [[-51.6181580565041, -31.33824371148564], [-37.4732903468715, 32.08863464045343]], [[-62.18302422131634, 68.905573831426], [18.934526524330543, 27.442561703510737]], [[-62.18302422131634, 68.905573831426], [37.5561168054513, -53.77133935529959]], [[-62.18302422131634, 68.905573831426], [-92.26195483031516, 33.10756092245811]], [[-98.70699839423797, 54.94490733393915], [-40.900856025330945, -4.212564144484335]], [[-98.70699839423797, 54.94490733393915], [-81.97185324481647, -11.888652598499425]], [[-98.70699839423797, 54.94490733393915], [-12.281901865150843, -0.5760047388694008]], [[-98.70699839423797, 54.94490733393915], [-117.45442230544843, 59.63735199459002]], [[76.93795879012775, 20.15232873855518], [18.934526524330543, 27.442561703510737]], [[-27.392861737281077, 4.890397149385695], [3.637100491080816, 12.610246930483072]], [[-40.900856025330945, -4.212564144484335], [-58.409754659579946, -52.68288377537002]], [[-40.900856025330945, -4.212564144484335], [-117.45442230544843, 59.63735199459002]], [[-58.409754659579946, -52.68288377537002], [-46.57484770967805, -13.797051226145228]], [[-58.409754659579946, -52.68288377537002], [2.274521587060943, -46.04982663176178]], [[-58.409754659579946, -52.68288377537002], [-33.2003591551721, -78.75058007008212]], [[-58.409754659579946, -52.68288377537002], [87.20681212590165, -75.2255887395535]], [[18.934526524330543, 27.442561703510737], [37.326482318139135, -78.7068647071852]], [[18.934526524330543, 27.442561703510737], [119.29582228387517, 38.697368849702734]], [[-81.97185324481647, -11.888652598499425], [110.05155913190741, 54.5641601426614]], [[37.5561168054513, -53.77133935529959], [136.63825239707822, 10.337972495407687]], [[-72.19263456934063, 39.41360296596824], [177.9129642541053, -1.5868156124525123]], [[-72.19263456934063, 39.41360296596824], [-128.0694582466596, 18.191957265579802]], [[-72.19263456934063, 39.41360296596824], [167.71809813484916, 0.5760047388694008]], [[-88.09704314294306, 27.51873513013339], [-37.4732903468715, 32.08863464045343]], [[-88.09704314294306, 27.51873513013339], [-169.31174099868863, 33.01434744326255]], [[32.02329772086983, 16.522869369217734], [146.7996408448279, 78.75058007008212]], [[32.02329772086983, 16.522869369217734], [-176.36289950891918, -12.610246930483072]], [[175.8810603661953, 86.86680021962668], [-98.51567955347474, -3.84208820471858]], [[175.8810603661953, 86.86680021962668], [75.93234000474159, -38.11767975860664]], [[-166.92125484367293, -15.738690675174297], [75.93234000474159, -38.11767975860664]], [[-16.593531296942945, 15.59488806341258], [-27.163254997394976, 0.8596391656785675]], [[-70.79341831424462, 18.853920186875257], [142.5267096531285, -32.08863464045343]], [[-98.51567955347474, -3.84208820471858], [-12.281901865150843, -0.5760047388694008]], [[75.93234000474159, -38.11767975860664], [119.29582228387517, 38.697368849702734]], [[-21.11553218879906, 36.603899900249345], [-86.26382242793395, 13.106435029224937]], [[-37.4732903468715, 32.08863464045343], [37.17773456668097, 53.98601447373655]], [[-37.4732903468715, 32.08863464045343], [-121.99835506617794, 52.79337567647849]], [[-37.4732903468715, 32.08863464045343], [-43.36174760292178, -10.337972495407687]], [[-37.4732903468715, 32.08863464045343], [109.2065816857554, -18.853920186875257]], [[33.85792918336945, 6.435050070974365], [37.17773456668097, 53.98601447373655]], [[33.85792918336945, 6.435050070974365], [2.274521587060943, -46.04982663176178]], [[33.85792918336945, 6.435050070974365], [29.312446232628737, -29.63219873380288]], [[-60.704177716124846, -38.697368849702734], [-33.2003591551721, -78.75058007008212]], [[37.17773456668097, 53.98601447373655], [66.71087293228963, 2.319204910599158]], [[37.17773456668097, 53.98601447373655], [-12.281901865150843, -0.5760047388694008]], [[7.435068148019801, 10.494244958694564], [69.22547898013322, 26.088423832719965]], [[-46.57484770967805, -13.797051226145228], [3.637100491080816, 12.610246930483072]], [[-46.57484770967805, -13.797051226145228], [-27.163254997394976, 0.8596391656785675]], [[10.688259001311366, -33.01434744326255], [13.078745156327095, 15.738690675174297]], [[3.637100491080816, 12.610246930483072], [-147.97670227913017, -16.522869369217734]], [[-4.5762907213912865, 51.03087751778368], [29.312446232628737, -29.63219873380288]], [[-86.26382242793395, 13.106435029224937], [-8.159102209770372, -24.770812578646417]], [[-8.159102209770372, -24.770812578646417], [-161.06547347566945, -27.442561703510737]], [[-8.159102209770372, -24.770812578646417], [139.09914397466906, 4.212564144484335]], [[-121.99835506617794, 52.79337567647849], [-43.36174760292178, -10.337972495407687]], [[-121.99835506617794, 52.79337567647849], [30.636164330204323, 25.481101146730325]], [[-27.163254997394976, 0.8596391656785675], [29.312446232628737, -29.63219873380288]], [[29.312446232628737, -29.63219873380288], [30.636164330204323, 25.481101146730325]], [[-66.25464230034773, -60.124579378226045], [117.81697577868367, -68.905573831426]], [[30.636164330204323, 25.481101146730325], [128.3818419434959, 31.33824371148564]], [[-78.09785667984856, 77.80910315610474], [-89.42594286352072, -12.31678728539747]], [[-78.09785667984856, 77.80910315610474], [49.235227653028545, 54.84786067433514]], [[-117.45442230544843, 59.63735199459002], [-149.3638356697957, -25.481101146730325]], [[86.98068721336482, 19.193323691292004], [113.74535769965227, 60.124579378226045]], [[-149.3638356697957, -25.481101146730325], [-150.68755376737127, 29.63219873380288]], [[113.74535769965227, 60.124579378226045], [29.87760810549527, 30.442255719137815]], [[113.74535769965227, 60.124579378226045], [69.22547898013322, 26.088423832719965]], [[136.63825239707822, 10.337972495407687], [142.5267096531285, -32.08863464045343]], [[152.83674500260503, -0.8596391656785675], [93.73617757206605, -13.106435029224937]], [[29.87760810549527, 30.442255719137815], [87.20681212590165, -75.2255887395535]], [[29.87760810549527, 30.442255719137815], [93.73617757206605, -13.106435029224937]], [[171.84089779022963, 24.770812578646417], [69.22547898013322, 26.088423832719965]], [[175.42370927860873, -51.03087751778368], [-4.118939633804712, -86.86680021962668]], [[167.71809813484916, 0.5760047388694008], [-142.82226543331905, -53.98601447373655]], [[-172.56493185198022, -10.494244958694564], [170.45690513365716, -47.49062695029246]], [[-85.25410217692314, 29.01849249934356], [87.73804516968485, -33.10756092245811]], [[-85.25410217692314, 29.01849249934356], [-142.82226543331905, -53.98601447373655]], [[-85.25410217692314, 29.01849249934356], [119.29582228387517, 38.697368849702734]], [[-85.25410217692314, 29.01849249934356], [81.29300160576203, -54.94490733393915]], [[109.2065816857554, -18.853920186875257], [152.0039325633633, 56.11620849024985]], [[118.83537982313533, 63.45679927931935], [-147.97670227913017, -16.522869369217734]], [[99.31652801315386, 13.954126609699303], [163.40646870305704, -15.59488806341258]], [[99.31652801315386, 13.954126609699303], [100.72982083608345, -15.662733035610776]], [[13.078745156327095, 15.738690675174297], [128.3818419434959, 31.33824371148564]], [[-2.0870357458947084, 1.5868156124525123], [69.22547898013322, 26.088423832719965]], [[-147.97670227913017, -16.522869369217734], [91.90295685705695, -27.51873513013339]], [[98.02814675518353, 11.888652598499425], [100.72982083608345, -15.662733035610776]], [[121.59024534042005, 52.68288377537002], [43.99587875775665, 27.66722906899772]], [[43.99587875775665, 27.66722906899772], [164.1386295347709, 6.439183169255781]]]}}]}