{"type": "FeatureCollection", "name": "E8_proj_seed1207 grid", "properties": {"shape": "E8_proj_seed1207", "lock_lat": -25.0, "lock_lon": 55.0, "bearing": 240.0}, "features": [{"type": "Feature", "properties": {"kind": "grid_vertices", "shape": "E8_proj_seed1207", "count": 240, "ids": ["V1", "V2", "V3", "V4", "V5", "V6", "V7", "V8", "V9", "V10", "V11", "V12", "V13", "V14", "V15", "V16", "V17", "V18", "V19", "V20", "V21", "V22", "V23", "V24", "V25", "V26", "V27", "V28", "V29", "V30", "V31", "V32", "V33", "V34", "V35", "V36", "V37", "V38", "V39", "V40", "V41", "V42", "V43", "V44", "V45", "V46", "V47", "V48", "V49", "V50", "V51", "V52", "V53", "V54", "V55", "V56", "V57", "V58", "V59", "V60", "V61", "V62", "V63", "V64", "V65", "V66", "V67", "V68", "V69", "V70", "V71", "V72", "V73", "V74", "V75", "V76", "V77", "V78", "V79", "V80", "V81", "V82", "V83", "V84", "V85", "V86", "V87", "V88", "V89", "V90", "V91", "V92", "V93", "V94", "V95", "V96", "V97", "V98", "V99", "V100", "V101", "V102", "V103", "V104", "V105", "V106", "V107", "V108", "V109", "V110", "V111", "V112", "V113", "V114", "V115", "V116", "V117", "V118", "V119", "V120", "V121", "V122", "V123", "V124", "V125", "V126", "V127", "V128", "V129", "V130", "V131", "V132", "V133", "V134", "V135", "V136", "V137", "V138", "V139", "V140", "V141", "V142", "V143", "V144", "V145", "V146", "V147", "V148", "V149", "V150", "V151", "V152", "V153", "V154", "V155", "V156", "V157", "V158", "V159", "V160", "V161", "V162", "V163", "V164", "V165", "V166", "V167", "V168", "V169", "V170", "V171", "V172", "V173", "V174", "V175", "V176", "V177", "V178", "V179", "V180", "V181", "V182", "V183", "V184", "V185", "V186", "V187", "V188", "V189", "V190", "V191", "V192", "V193", "V194", "V195", "V196", "V197", "V198", "V199", "V200", "V201", "V202", "V203", "V204", "V205", "V206", "V207", "V208", "V209", "V210", "V211", "V212", "V213", "V214", "V215", "V216", "V217", "V218", "V219", "V220", "V221", "V222", "V223", "V224", "V225", "V226", "V227", "V228", "V229", "V230", "V231", "V232", "V233", "V234", "V235", "V236", "V237", "V238", "V239", "V240"]}, "geometry": {"type": "MultiPoint", "coordinates": [[-139.4668721163192, 5.571858211585359], [8.091516035122664, -44.403111286676555], [-171.90848396487735, 44.403111286676555], [40.533127883680805, -5.571858211585359], [23.28037636305112, 5.942010262886052], [-121.87933175288106, -57.21620105553481], [58.12066824711895, 57.21620105553481], [-156.71962363694888, -5.942010262886052], [85.42878672395, -40.85514147837213], [-55.64294161748067, -14.812420881479483], [124.35705838251933, 14.812420881479483], [-94.57121327605, 40.85514147837213], [-81.35604036897637, -8.51860906079174], [30.836927020620767, -51.35518898283234], [-149.16307297937925, 51.35518898283234], [98.64395963102365, 8.51860906079174], [124.21257208180403, -72.65266529134122], [-23.086152744725307, -7.989527292229583], [156.9138472552747, 7.989527292229583], [-55.787427918195995, 72.65266529134122], [-39.80250807839998, -33.307175854601915], [99.28067259929016, -31.19450298841115], [-80.71932740070986, 31.19450298841115], [140.19749192160003, 33.307175854601915], [-39.565144663957796, -72.74508887091265], [11.733432005802408, 22.181567558486776], [-168.2665679941976, -22.181567558486776], [140.43485533604223, 72.74508887091265], [83.17705808147572, 74.54842392239532], [-151.99217881471594, -2.8051099014002925], [28.00782118528406, 2.8051099014002925], [-96.82294191852428, -74.54842392239532], [146.63105214785367, 16.317407562759605], [-110.4071139806386, 32.32908190740721], [69.5928860193614, -32.32908190740721], [-33.368947852146356, -16.317407562759605], [-145.47503776079114, 39.16317032897215], [151.74978238760454, 14.377537567528801], [-28.250217612395485, -14.377537567528801], [34.52496223920884, -39.16317032897215], [176.4850627683633, 8.2730588199859], [-110.27239065949304, 58.79642482547593], [69.72760934050696, -58.79642482547593], [-3.5149372316367233, -8.2730588199859], [-107.65791605167936, 23.026335837995738], [162.04484977608766, 31.176162874295052], [-17.95515022391234, -31.176162874295052], [72.34208394832064, -23.026335837995738], [-153.63458927558327, -8.866346518960139], [-174.44581845679681, 62.77579475463303], [5.554181543203187, -62.77579475463303], [26.365410724416737, 8.866346518960139], [72.51756366754648, 16.03926466704398], [-17.885746102480457, 37.17765642066256], [162.11425389751955, -37.17765642066256], [-107.48243633245353, -16.03926466704398], [11.412895204763318, 65.7413433019317], [44.359637010672984, 8.139124687930163], [-135.64036298932703, -8.139124687930163], [-168.58710479523668, -65.7413433019317], [74.68022516124701, 16.385371942192467], [11.18250482182202, 37.986118692583545], [-168.81749517817798, -37.986118692583545], [-105.319774838753, -16.385371942192467], [-2.3788959877676343, 20.569533375715775], [75.30894781270534, 34.47338872729114], [-104.69105218729466, -34.47338872729114], [177.62110401223237, -20.569533375715775], [29.85772653756448, -4.093122455313503], [40.93264217589374, 50.48850773828068], [-139.06735782410627, -50.48850773828068], [-150.14227346243553, 4.093122455313503], [143.16854737773593, 17.540374247245992], [90.6524613909773, -24.999795325829066], [-89.3475386090227, 24.999795325829066], [-36.83145262226407, -17.540374247245992], [124.32943152855418, -21.714205204782534], [69.4724051713553, 15.513075483719097], [-110.52759482864471, -15.513075483719097], [-55.670568471445826, 21.714205204782534], [62.24274991166145, -49.72432709689807], [116.53315383801258, -0.5401064218001036], [-63.46684616198743, 0.5401064218001036], [-117.75725008833855, 49.72432709689807], [117.09137682787089, -47.51558450864276], [101.88413092183926, 24.48109060441928], [-78.11586907816074, -24.48109060441928], [-62.908623172129104, 47.51558450864276], [-168.9531775589289, 3.7794083732503876], [-72.73652576326893, 45.29916792927737], [107.26347423673107, -45.29916792927737], [11.046822441071125, -3.7794083732503876], [-81.03798231292248, 12.816821413096273], [168.7891500930423, 39.47527673742458], [-11.210849906957714, -39.47527673742458], [98.96201768707753, -12.816821413096273], [-119.8211416409604, -20.11445400027271], [-125.14602724411341, 72.2241545508752], [54.8539727558866, -72.2241545508752], [60.17885835903961, 20.11445400027271], [-102.88577250938629, -61.12204769579526], [136.90315042556756, -8.186823642100368], [-43.096849574432454, 8.186823642100368], [77.11422749061371, 61.12204769579526], [166.92760701337815, -60.2953016663502], [133.53995314544062, 26.205439160337757], [-46.460046854559394, -26.205439160337757], [-13.072392986621853, 60.2953016663502], [-64.0011755724822, -45.755329981370835], [-39.93209896164342, 36.57432465382898], [140.06790103835658, -36.57432465382898], [115.99882442751782, 45.755329981370835], [145.38099977035458, -41.24827031948259], [121.34075199841067, 34.45397017946746], [-3.553369694075459, 64.19336498685475], [102.5498174939958, 42.66112880019883], [75.01911875604935, 6.885296057101825], [105.63077117402337, -18.849984550986775], [22.66697109929806, -17.985889305012194], [75.62495735684695, 31.39385593159431], [-71.0620272824921, 47.88590189004145], [-150.3460575705279, 30.75828551000014], [-58.8452619437368, 17.730400876253903], [-48.37640492421572, 71.75885404094183], [-37.64800397902557, -37.10201246716144], [84.3162970371925, 46.86609474196278], [-24.479565055946857, 30.983839500102967], [-2.5586063705827606, 18.179742501877183], [-161.64606575650444, -7.434611847064904], [173.26880604685368, -24.40761185330698], [-117.94441474388084, -27.135537613008527], [178.28247370093183, 30.030093939901594], [178.55960713876974, -62.94896985596778], [142.07806086549533, -15.758532844166945], [-107.33582591220589, -52.94675429385009], [150.58818752287542, -46.33758693241536], [-114.77243738637473, -22.433526969106104], [-150.20652511140474, 13.31353517810738], [-90.88188540059544, 17.371969583207743], [-117.89215968834942, -2.2862137782255143], [-109.98995082000506, -24.421302811833524], [-160.78452756929033, -45.74346447320901], [-81.11126728038904, -28.984125522265987], [-114.83245515880371, 25.529513001185265], [38.62726835463709, -2.414152085572909], [83.72050173993613, -29.76801548636899], [1.8836207745298705, -18.115009227689942], [49.04765612354421, 26.339062268928494], [43.624798943671124, -45.05013239241217], [73.58914046084207, -9.69378530222567], [24.73596462929301, -3.194007138813003], [50.51414033703701, -22.721037940878546], [-33.12863582900265, -27.36659619542643], [24.096081829279193, 33.9869333179916], [-25.63262801244217, 18.704450451867398], [-15.429508905108525, 2.0832338382009126], [3.2172905313449713, -12.255734829619973], [36.58402600873565, -42.16291427595722], [-13.578431950420116, -18.840865701091072], [16.12987089497089, 12.625856144150166], [-132.7587036673305, -77.81287876586704], [136.1445331149175, -31.36541933650961], [-41.955343091544215, -29.113991830007844], [146.94072844396132, -78.98554487561634], [68.86802406697876, -68.366926794764], [113.47037634259529, -60.15457468911405], [-5.685962591150105, -66.9196052943231], [72.2867423423809, -35.965276873158246], [-79.63863941180745, -26.07767692891239], [-124.86588563094293, -57.7934667493243], [-66.41005224783193, -27.06461667640579], [-69.40730373704292, 7.517436671242185], [-59.714101274396945, -64.68491133382669], [87.49896453886555, -80.624641696699], [-38.99526073465615, -22.694662028900648], [-37.86746591645267, -61.142432237495974], [142.13253408354734, 61.142432237495974], [141.00473926534386, 22.694662028900648], [-92.50103546113445, 80.624641696699], [120.28589872560306, 64.68491133382669], [110.59269626295708, -7.517436671242185], [113.58994775216809, 27.06461667640579], [55.13411436905709, 57.7934667493243], [100.36136058819255, 26.07767692891239], [-107.71325765761911, 35.965276873158246], [174.3140374088499, 66.9196052943231], [-66.52962365740471, 60.15457468911405], [-111.13197593302124, 68.366926794764], [-33.0592715560387, 78.98554487561634], [138.0446569084558, 29.113991830007844], [-43.85546688508249, 31.36541933650961], [47.2412963326695, 77.81287876586704], [-163.87012910502912, -12.625856144150166], [166.4215680495799, 18.840865701091072], [-143.41597399126437, 42.16291427595722], [-176.78270946865504, 12.255734829619973], [164.57049109489148, -2.0832338382009126], [154.36737198755782, -18.704450451867398], [-155.90391817072083, -33.9869333179916], [146.87136417099737, 27.36659619542643], [-129.48585966296298, 22.721037940878546], [-155.264035370707, 3.194007138813003], [-106.41085953915794, 9.69378530222567], [-136.3752010563289, 45.05013239241217], [-130.95234387645579, -26.339062268928494], [-178.11637922547013, 18.115009227689942], [-96.27949826006387, 29.76801548636899], [-141.3727316453629, 2.414152085572909], [65.1675448411963, -25.529513001185265], [98.88873271961096, 28.984125522265987], [19.215472430709664, 45.74346447320901], [70.01004917999494, 24.421302811833524], [62.107840311650584, 2.2862137782255143], [89.11811459940456, -17.371969583207743], [29.79347488859525, -13.31353517810738], [65.22756261362527, 22.433526969106104], [-29.411812477124606, 46.33758693241536], [72.66417408779412, 52.94675429385009], [-37.921939134504676, 15.758532844166945], [-1.44039286123028, 62.94896985596778], [-1.717526299068171, -30.030093939901594], [62.05558525611916, 27.135537613008527], [-6.731193953146306, 24.40761185330698], [18.353934243495566, 7.434611847064904], [177.44139362941723, -18.179742501877183], [155.52043494405316, -30.983839500102967], [-95.68370296280752, -46.86609474196278], [142.35199602097444, 37.10201246716144], [131.62359507578427, -71.75885404094183], [121.1547380562632, -17.730400876253903], [29.65394242947209, -30.75828551000014], [108.93797271750789, -47.88590189004145], [-104.37504264315305, -31.39385593159431], [-157.33302890070195, 17.985889305012194], [-74.36922882597663, 18.849984550986775], [-104.98088124395066, -6.885296057101825], [-77.4501825060042, -42.66112880019883], [176.44663030592454, -64.19336498685475], [-58.65924800158934, -34.45397017946746], [-34.61900022964542, 41.24827031948259]]}}, {"type": "Feature", "properties": {"kind": "grid_edges", "shape": "E8_proj_seed1207", "count": 328, "ids": ["E1", "E2", "E3", "E4", "E5", "E6", "E7", "E8", "E9", "E10", "E11", "E12", "E13", "E14", "E15", "E16", "E17", "E18", "E19", "E20", "E21", "E22", "E23", "E24", "E25", "E26", "E27", "E28", "E29", "E30", "E31", "E32", "E33", "E34", "E35", "E36", "E37", "E38", "E39", "E40", "E41", "E42", "E43", "E44", "E45", "E46", "E47", "E48", "E49", "E50", "E51", "E52", "E53", "E54", "E55", "E56", "E57", "E58", "E59", "E60", "E61", "E62", "E63", "E64", "E65", "E66", "E67", "E68", "E69", "E70", "E71", "E72", "E73", "E74", "E75", "E76", "E77", "E78", "E79", "E80", "E81", "E82", "E83", "E84", "E85", "E86", "E87", "E88", "E89", "E90", "E91", "E92", "E93", "E94", "E95", "E96", "E97", "E98", "E99", "E100", "E101", "E102", "E103", "E104", "E105", "E106", "E107", "E108", "E109", "E110", "E111", "E112", "E113", "E114", "E115", "E116", "E117", "E118", "E119", "E120", "E121", "E122", "E123", "E124", "E125", "E126", "E127", "E128", "E129", "E130", "E131", "E132", "E133", "E134", "E135", "E136", "E137", "E138", "E139", "E140", "E141", "E142", "E143", "E144", "E145", "E146", "E147", "E148", "E149", "E150", "E151", "E152", "E153", "E154", "E155", "E156", "E157", "E158", "E159", "E160", "E161", "E162", "E163", "E164", "E165", "E166", "E167", "E168", "E169", "E170", "E171", "E172", "E173", "E174", "E175", "E176", "E177", "E178", "E179", "E180", "E181", "E182", "E183", "E184", "E185", "E186", "E187", "E188", "E189", "E190", "E191", "E192", "E193", "E194", "E195", "E196", "E197", "E198", "E199", "E200", "E201", "E202", "E203", "E204", "E205", "E206", "E207", "E208", "E209", "E210", "E211", "E212", "E213", "E214", "E215", "E216", "E217", "E218", "E219", "E220", "E221", "E222", "E223", "E224", "E225", "E226", "E227", "E228", "E229", "E230", "E231", "E232", "E233", "E234", "E235", "E236", "E237", "E238", "E239", "E240", "E241", "E242", "E243", "E244", "E245", "E246", "E247", "E248", "E249", "E250", "E251", "E252", "E253", "E254", "E255", "E256", "E257", "E258", "E259", "E260", "E261", "E262", "E263", "E264", "E265", "E266", "E267", "E268", "E269", "E270", "E271", "E272", "E273", "E274", "E275", "E276", "E277", "E278", "E279", "E280", "E281", "E282", "E283", "E284", "E285", "E286", "E287", "E288", "E289", "E290", "E291", "E292", "E293", "E294", "E295", "E296", "E297", "E298", "E299", "E300", "E301", "E302", "E303", "E304", "E305", "E306", "E307", "E308", "E309", "E310", "E311", "E312", "E313", "E314", "E315", "E316", "E317", "E318", "E319", "E320", "E321", "E322", "E323", "E324", "E325", "E326", "E327", "E328"], "pairs": [[0, 25], [0, 131], [1, 171], [2, 15], [2, 41], [2, 186], [3, 23], [3, 34], [3, 219], [3, 223], [3, 226], [4, 65], [4, 126], [4, 145], [5, 167], [6, 10], [6, 22], [6, 185], [6, 189], [8, 166], [9, 16], [9, 24], [9, 121], [9, 139], [9, 172], [9, 173], [10, 15], [10, 85], [11, 19], [11, 35], [11, 186], [11, 223], [12, 20], [12, 88], [12, 128], [12, 145], [12, 147], [12, 154], [13, 99], [13, 143], [13, 159], [15, 27], [15, 91], [15, 191], [15, 205], [15, 238], [16, 20], [16, 25], [16, 40], [16, 120], [17, 115], [19, 77], [19, 195], [19, 198], [19, 230], [20, 116], [21, 127], [22, 82], [22, 94], [22, 108], [22, 178], [22, 212], [23, 223], [24, 110], [24, 122], [24, 135], [25, 111], [25, 125], [25, 164], [25, 168], [26, 197], [26, 217], [27, 69], [27, 206], [28, 57], [28, 118], [28, 127], [29, 205], [31, 43], [31, 170], [31, 172], [32, 135], [33, 189], [34, 51], [34, 164], [35, 53], [35, 172], [35, 175], [35, 219], [37, 119], [38, 217], [38, 232], [39, 214], [39, 238], [40, 76], [41, 45], [41, 103], [41, 106], [43, 61], [43, 89], [43, 170], [43, 171], [43, 219], [44, 80], [44, 92], [44, 186], [44, 190], [46, 51], [46, 82], [47, 103], [47, 155], [47, 227], [48, 117], [49, 71], [49, 99], [51, 111], [51, 216], [52, 113], [52, 178], [52, 183], [53, 60], [53, 124], [53, 125], [53, 158], [53, 187], [54, 72], [54, 84], [54, 164], [56, 68], [56, 144], [57, 124], [57, 158], [58, 129], [59, 133], [59, 172], [60, 112], [60, 120], [60, 152], [60, 188], [61, 65], [61, 106], [61, 155], [61, 179], [61, 190], [62, 76], [64, 102], [64, 108], [65, 68], [65, 110], [65, 123], [65, 155], [65, 187], [67, 71], [67, 110], [67, 205], [68, 115], [68, 177], [68, 178], [68, 180], [68, 214], [69, 105], [69, 215], [71, 107], [71, 111], [71, 174], [72, 115], [72, 162], [73, 214], [74, 169], [75, 207], [76, 101], [76, 224], [77, 199], [78, 100], [78, 188], [79, 159], [80, 132], [80, 224], [80, 228], [81, 111], [81, 135], [82, 94], [82, 152], [82, 174], [82, 188], [82, 232], [83, 86], [83, 157], [84, 115], [86, 155], [86, 158], [87, 171], [87, 174], [87, 200], [87, 233], [87, 236], [88, 129], [89, 114], [89, 147], [90, 148], [91, 191], [91, 207], [92, 144], [93, 209], [94, 118], [94, 206], [94, 238], [96, 208], [97, 128], [97, 144], [97, 234], [98, 189], [98, 214], [98, 231], [99, 107], [99, 126], [100, 144], [100, 216], [101, 157], [103, 106], [103, 143], [103, 147], [103, 155], [103, 187], [103, 223], [104, 112], [104, 157], [104, 217], [105, 116], [105, 144], [105, 188], [106, 115], [106, 178], [106, 187], [107, 159], [107, 230], [108, 118], [110, 135], [110, 183], [110, 195], [111, 159], [112, 114], [112, 176], [113, 153], [113, 209], [114, 120], [114, 144], [115, 129], [115, 178], [116, 156], [117, 121], [118, 142], [118, 148], [118, 166], [118, 180], [119, 159], [120, 125], [121, 129], [121, 157], [123, 159], [125, 221], [126, 138], [127, 135], [127, 158], [127, 159], [127, 175], [131, 137], [131, 139], [133, 141], [134, 150], [134, 182], [134, 230], [135, 183], [137, 138], [139, 187], [144, 146], [144, 152], [144, 162], [144, 168], [145, 217], [147, 163], [148, 150], [152, 184], [153, 156], [154, 158], [154, 219], [155, 211], [155, 217], [156, 158], [156, 168], [156, 221], [161, 227], [162, 227], [167, 239], [176, 210], [176, 212], [177, 209], [180, 182], [180, 184], [180, 192], [180, 213], [180, 214], [180, 220], [184, 208], [188, 220], [189, 220], [190, 202], [191, 215], [194, 230], [195, 226], [196, 197], [196, 204], [199, 230], [206, 238], [209, 233], [210, 211], [210, 219], [210, 226], [210, 227], [212, 216], [213, 217], [218, 223], [220, 237], [221, 233], [222, 236], [223, 239], [230, 238], [235, 239]], "support_counts": [1, 1, 1, 1, 1, 1, 1, 1, 1, 1, 1, 1, 1, 1, 1, 1, 1, 1, 1, 1, 1, 1, 1, 1, 1, 1, 1, 1, 1, 1, 1, 1, 1, 1, 1, 1, 1, 1, 1, 1, 1, 1, 1, 1, 1, 1, 1, 1, 1, 1, 1, 1, 1, 1, 2, 1, 1, 1, 1, 1, 1, 1, 1, 1, 1, 1, 1, 1, 1, 1, 1, 1, 1, 1, 2, 1, 1, 1, 1, 1, 1, 1, 1, 1, 1, 1, 1, 1, 1, 1, 1, 1, 1, 1, 1, 1, 1, 1, 1, 1, 1, 1, 1, 1, 1, 1, 2, 1, 1, 1, 1, 2, 1, 1, 1, 1, 1, 1, 1, 1, 1, 1, 2, 1, 1, 1, 1, 1, 1, 1, 1, 1, 1, 1, 1, 1, 1, 1, 1, 1, 1, 1, 1, 1, 2, 1, 1, 1, 1, 1, 1, 1, 1, 1, 1, 1, 1, 1, 1, 1, 1, 1, 2, 1, 1, 1, 1, 1, 1, 1, 1, 1, 1, 1, 1, 1, 1, 1, 1, 1, 2, 1, 1, 1, 1, 1, 1, 1, 1, 1, 1, 1, 1, 1, 1, 1, 1, 1, 1, 1, 1, 1, 1, 1, 1, 1, 1, 1, 1, 1, 1, 1, 1, 1, 1, 1, 1, 1, 1, 1, 1, 1, 1, 1, 1, 1, 1, 1, 1, 1, 1, 1, 1, 1, 1, 1, 1, 1, 1, 1, 1, 1, 1, 1, 1, 1, 2, 1, 1, 1, 1, 1, 1, 1, 1, 1, 1, 1, 1, 1, 1, 1, 1, 1, 1, 1, 1, 1, 2, 1, 1, 1, 2, 1, 1, 1, 1, 1, 1, 1, 1, 1, 1, 1, 1, 1, 1, 1, 1, 1, 1, 1, 1, 1, 1, 1, 1, 1, 1, 1, 1, 1, 1, 1, 2, 1, 1, 1, 1, 1, 1, 1, 1, 1, 1, 1, 1, 1, 1, 1, 1, 1, 1, 1, 1, 1, 1, 1], "support_class": ["single", "single", "single", "single", "single", "single", "single", "single", "single", "single", "single", "single", "single", "single", "single", "single", "single", "single", "single", "single", "single", "single", "single", "single", "single", "single", "single", "single", "single", "single", "single", "single", "single", "single", "single", "single", "single", "single", "single", "single", "single", "single", "single", "single", "single", "single", "single", "single", "single", "single", "single", "single", "single", "single", "shared", "single", "single", "single", "single", "single", "single", "single", "single", "single", "single", "single", "single", "single", "single", "single", "single", "single", "single", "single", "shared", "single", "single", "single", "single", "single", "single", "single", "single", "single", "single", "single", "single", "single", "single", "single", "single", "single", "single", "single", "single", "single", "single", "single", "single", "single", "single", "single", "single", "single", "single", "single", "shared", "single", "single", "single", "single", "shared", "single", "single", "single", "single", "single", "single", "single", "single", "single", "single", "shared", "single", "single", "single", "single", "single", "single", "single", "single", "single", "single", "single", "single", "single", "single", "single", "single", "single", "single", "single", "single", "single", "shared", "single", "single", "single", "single", "single", "single", "single", "single", "single", "single", "single", "single", "single", "single", "single", "single", "single", "shared", "single", "single", "single", "single", "single", "single", "single", "single", "single", "single", "single", "single", "single", "single", "single", "single", "single", "shared", "single", "single", "single", "single", "single", "single", "single", "single", "single", "single", "single", "single", "single", "single", "single", "single", "single", "single", "single", "single", "single", "single", "single", "single", "single", "single", "single", "single", "single", "single", "single", "single", "single", "single", "single", "single", "single", "single", "single", "single", "single", "single", "single", "single", "single", "single", "single", "single", "single", "single", "single", "single", "single", "single", "single", "single", "single", "single", "single", "single", "single", "single", "single", "single", "single", "shared", "single", "single", "single", "single", "single", "single", "single", "single", "single", "single", "single", "single", "single", "single", "single", "single", "single", "single", "single", "single", "single", "shared", "single", "single", "single", "shared", "single", "single", "single", "single", "single", "single", "single", "single", "single", "single", "single", "single", "single", "single", "single", "single", "single", "single", "single", "single", "single", "single", "single", "single", "single", "single", "single", "single", "single", "single", "single", "shared", "single", "single", "single", "single", "single", "single", "single", "single", "single", "single", "single", "single", "single", "single", "single", "single", "single", "single", "single", "single", "single", "single", "single"]}, "geometry": {"type": "MultiLineString", "coordinates": [[[-139.4668721163192, 5.571858211585359], [11.733432005802408, 22.181567558486776]], [[-139.4668721163192, 5.571858211585359], [178.28247370093183, 30.030093939901594]], [[8.091516035122664, -44.403111286676555], [-69.40730373704292, 7.517436671242185]], [[-171.90848396487735, 44.403111286676555], [98.64395963102365, 8.51860906079174]], [[-171.90848396487735, 44.403111286676555], [-110.27239065949304, 58.79642482547593]], [[-171.90848396487735, 44.403111286676555], [-66.52962365740471, 60.15457468911405]], [[40.533127883680805, -5.571858211585359], [140.19749192160003, 33.307175854601915]], [[40.533127883680805, -5.571858211585359], [69.5928860193614, -32.32908190740721]], [[40.533127883680805, -5.571858211585359], [-1.44039286123028, 62.94896985596778]], [[40.533127883680805, -5.571858211585359], [18.353934243495566, 7.434611847064904]], [[40.533127883680805, -5.571858211585359], [-95.68370296280752, -46.86609474196278]], [[23.28037636305112, 5.942010262886052], [75.30894781270534, 34.47338872729114]], [[23.28037636305112, 5.942010262886052], [-24.479565055946857, 30.983839500102967]], [[23.28037636305112, 5.942010262886052], [83.72050173993613, -29.76801548636899]], [[-121.87933175288106, -57.21620105553481], [72.2867423423809, -35.965276873158246]], [[58.12066824711895, 57.21620105553481], [124.35705838251933, 14.812420881479483]], [[58.12066824711895, 57.21620105553481], [-80.71932740070986, 31.19450298841115]], [[58.12066824711895, 57.21620105553481], [174.3140374088499, 66.9196052943231]], [[58.12066824711895, 57.21620105553481], [138.0446569084558, 29.113991830007844]], [[85.42878672395, -40.85514147837213], [-5.685962591150105, -66.9196052943231]], [[-55.64294161748067, -14.812420881479483], [124.21257208180403, -72.65266529134122]], [[-55.64294161748067, -14.812420881479483], [-39.565144663957796, -72.74508887091265]], [[-55.64294161748067, -14.812420881479483], [-150.3460575705279, 30.75828551000014]], [[-55.64294161748067, -14.812420881479483], [-117.89215968834942, -2.2862137782255143]], [[-55.64294161748067, -14.812420881479483], [-59.714101274396945, -64.68491133382669]], [[-55.64294161748067, -14.812420881479483], [87.49896453886555, -80.624641696699]], [[124.35705838251933, 14.812420881479483], [98.64395963102365, 8.51860906079174]], [[124.35705838251933, 14.812420881479483], [101.88413092183926, 24.48109060441928]], [[-94.57121327605, 40.85514147837213], [-55.787427918195995, 72.65266529134122]], [[-94.57121327605, 40.85514147837213], [-33.368947852146356, -16.317407562759605]], [[-94.57121327605, 40.85514147837213], [-66.52962365740471, 60.15457468911405]], [[-94.57121327605, 40.85514147837213], [18.353934243495566, 7.434611847064904]], [[-81.35604036897637, -8.51860906079174], [-39.80250807839998, -33.307175854601915]], [[-81.35604036897637, -8.51860906079174], [-168.9531775589289, 3.7794083732503876]], [[-81.35604036897637, -8.51860906079174], [-161.64606575650444, -7.434611847064904]], [[-81.35604036897637, -8.51860906079174], [83.72050173993613, -29.76801548636899]], [[-81.35604036897637, -8.51860906079174], [49.04765612354421, 26.339062268928494]], [[-81.35604036897637, -8.51860906079174], [-25.63262801244217, 18.704450451867398]], [[30.836927020620767, -51.35518898283234], [60.17885835903961, 20.11445400027271]], [[30.836927020620767, -51.35518898283234], [-114.83245515880371, 25.529513001185265]], [[30.836927020620767, -51.35518898283234], [16.12987089497089, 12.625856144150166]], [[98.64395963102365, 8.51860906079174], [140.43485533604223, 72.74508887091265]], [[98.64395963102365, 8.51860906079174], [11.046822441071125, -3.7794083732503876]], [[98.64395963102365, 8.51860906079174], [47.2412963326695, 77.81287876586704]], [[98.64395963102365, 8.51860906079174], [-178.11637922547013, 18.115009227689942]], [[98.64395963102365, 8.51860906079174], [-58.65924800158934, -34.45397017946746]], [[124.21257208180403, -72.65266529134122], [-39.80250807839998, -33.307175854601915]], [[124.21257208180403, -72.65266529134122], [11.733432005802408, 22.181567558486776]], [[124.21257208180403, -72.65266529134122], [176.4850627683633, 8.2730588199859]], [[124.21257208180403, -72.65266529134122], [-71.0620272824921, 47.88590189004145]], [[-23.086152744725307, -7.989527292229583], [102.5498174939958, 42.66112880019883]], [[-55.787427918195995, 72.65266529134122], [69.4724051713553, 15.513075483719097]], [[-55.787427918195995, 72.65266529134122], [-176.78270946865504, 12.255734829619973]], [[-55.787427918195995, 72.65266529134122], [-155.90391817072083, -33.9869333179916]], [[-55.787427918195995, 72.65266529134122], [29.65394242947209, -30.75828551000014]], [[-39.80250807839998, -33.307175854601915], [75.01911875604935, 6.885296057101825]], [[99.28067259929016, -31.19450298841115], [-2.5586063705827606, 18.179742501877183]], [[-80.71932740070986, 31.19450298841115], [-63.46684616198743, 0.5401064218001036]], [[-80.71932740070986, 31.19450298841115], [-11.210849906957714, -39.47527673742458]], [[-80.71932740070986, 31.19450298841115], [-64.0011755724822, -45.755329981370835]], [[-80.71932740070986, 31.19450298841115], [-92.50103546113445, 80.624641696699]], [[-80.71932740070986, 31.19450298841115], [62.107840311650584, 2.2862137782255143]], [[140.19749192160003, 33.307175854601915], [18.353934243495566, 7.434611847064904]], [[-39.565144663957796, -72.74508887091265], [140.06790103835658, -36.57432465382898]], [[-39.565144663957796, -72.74508887091265], [-58.8452619437368, 17.730400876253903]], [[-39.565144663957796, -72.74508887091265], [150.58818752287542, -46.33758693241536]], [[11.733432005802408, 22.181567558486776], [115.99882442751782, 45.755329981370835]], [[11.733432005802408, 22.181567558486776], [84.3162970371925, 46.86609474196278]], [[11.733432005802408, 22.181567558486776], [68.86802406697876, -68.366926794764]], [[11.733432005802408, 22.181567558486776], [-79.63863941180745, -26.07767692891239]], [[-168.2665679941976, -22.181567558486776], [154.36737198755782, -18.704450451867398]], [[-168.2665679941976, -22.181567558486776], [72.66417408779412, 52.94675429385009]], [[140.43485533604223, 72.74508887091265], [40.93264217589374, 50.48850773828068]], [[140.43485533604223, 72.74508887091265], [-96.27949826006387, 29.76801548636899]], [[83.17705808147572, 74.54842392239532], [44.359637010672984, 8.139124687930163]], [[83.17705808147572, 74.54842392239532], [22.66697109929806, -17.985889305012194]], [[83.17705808147572, 74.54842392239532], [-2.5586063705827606, 18.179742501877183]], [[-151.99217881471594, -2.8051099014002925], [-178.11637922547013, 18.115009227689942]], [[-96.82294191852428, -74.54842392239532], [-3.5149372316367233, -8.2730588199859]], [[-96.82294191852428, -74.54842392239532], [-66.41005224783193, -27.06461667640579]], [[-96.82294191852428, -74.54842392239532], [-59.714101274396945, -64.68491133382669]], [[146.63105214785367, 16.317407562759605], [150.58818752287542, -46.33758693241536]], [[-110.4071139806386, 32.32908190740721], [138.0446569084558, 29.113991830007844]], [[69.5928860193614, -32.32908190740721], [26.365410724416737, 8.866346518960139]], [[69.5928860193614, -32.32908190740721], [68.86802406697876, -68.366926794764]], [[-33.368947852146356, -16.317407562759605], [-17.885746102480457, 37.17765642066256]], [[-33.368947852146356, -16.317407562759605], [-59.714101274396945, -64.68491133382669]], [[-33.368947852146356, -16.317407562759605], [-37.86746591645267, -61.142432237495974]], [[-33.368947852146356, -16.317407562759605], [-1.44039286123028, 62.94896985596778]], [[151.74978238760454, 14.377537567528801], [75.62495735684695, 31.39385593159431]], [[-28.250217612395485, -14.377537567528801], [72.66417408779412, 52.94675429385009]], [[-28.250217612395485, -14.377537567528801], [-104.37504264315305, -31.39385593159431]], [[34.52496223920884, -39.16317032897215], [29.79347488859525, -13.31353517810738]], [[34.52496223920884, -39.16317032897215], [-58.65924800158934, -34.45397017946746]], [[176.4850627683633, 8.2730588199859], [124.32943152855418, -21.714205204782534]], [[-110.27239065949304, 58.79642482547593], [162.04484977608766, 31.176162874295052]], [[-110.27239065949304, 58.79642482547593], [77.11422749061371, 61.12204769579526]], [[-110.27239065949304, 58.79642482547593], [-46.460046854559394, -26.205439160337757]], [[-3.5149372316367233, -8.2730588199859], [11.18250482182202, 37.986118692583545]], [[-3.5149372316367233, -8.2730588199859], [-72.73652576326893, 45.29916792927737]], [[-3.5149372316367233, -8.2730588199859], [-66.41005224783193, -27.06461667640579]], [[-3.5149372316367233, -8.2730588199859], [-69.40730373704292, 7.517436671242185]], [[-3.5149372316367233, -8.2730588199859], [-1.44039286123028, 62.94896985596778]], [[-107.65791605167936, 23.026335837995738], [62.24274991166145, -49.72432709689807]], [[-107.65791605167936, 23.026335837995738], [-81.03798231292248, 12.816821413096273]], [[-107.65791605167936, 23.026335837995738], [-66.52962365740471, 60.15457468911405]], [[-107.65791605167936, 23.026335837995738], [-43.85546688508249, 31.36541933650961]], [[-17.95515022391234, -31.176162874295052], [26.365410724416737, 8.866346518960139]], [[-17.95515022391234, -31.176162874295052], [-63.46684616198743, 0.5401064218001036]], [[72.34208394832064, -23.026335837995738], [77.11422749061371, 61.12204769579526]], [[72.34208394832064, -23.026335837995738], [-15.429508905108525, 2.0832338382009126]], [[72.34208394832064, -23.026335837995738], [142.35199602097444, 37.10201246716144]], [[-153.63458927558327, -8.866346518960139], [105.63077117402337, -18.849984550986775]], [[-174.44581845679681, 62.77579475463303], [-150.14227346243553, 4.093122455313503]], [[-174.44581845679681, 62.77579475463303], [60.17885835903961, 20.11445400027271]], [[26.365410724416737, 8.866346518960139], [115.99882442751782, 45.755329981370835]], [[26.365410724416737, 8.866346518960139], [-29.411812477124606, 46.33758693241536]], [[72.51756366754648, 16.03926466704398], [121.34075199841067, 34.45397017946746]], [[72.51756366754648, 16.03926466704398], [-92.50103546113445, 80.624641696699]], [[72.51756366754648, 16.03926466704398], [100.36136058819255, 26.07767692891239]], [[-17.885746102480457, 37.17765642066256], [74.68022516124701, 16.385371942192467]], [[-17.885746102480457, 37.17765642066256], [-37.64800397902557, -37.10201246716144]], [[-17.885746102480457, 37.17765642066256], [84.3162970371925, 46.86609474196278]], [[-17.885746102480457, 37.17765642066256], [-13.578431950420116, -18.840865701091072]], [[-17.885746102480457, 37.17765642066256], [-111.13197593302124, 68.366926794764]], [[162.11425389751955, -37.17765642066256], [143.16854737773593, 17.540374247245992]], [[162.11425389751955, -37.17765642066256], [117.09137682787089, -47.51558450864276]], [[162.11425389751955, -37.17765642066256], [68.86802406697876, -68.366926794764]], [[11.412895204763318, 65.7413433019317], [29.85772653756448, -4.093122455313503]], [[11.412895204763318, 65.7413433019317], [38.62726835463709, -2.414152085572909]], [[44.359637010672984, 8.139124687930163], [-37.64800397902557, -37.10201246716144]], [[44.359637010672984, 8.139124687930163], [-13.578431950420116, -18.840865701091072]], [[-135.64036298932703, -8.139124687930163], [173.26880604685368, -24.40761185330698]], [[-168.58710479523668, -65.7413433019317], [142.07806086549533, -15.758532844166945]], [[-168.58710479523668, -65.7413433019317], [-59.714101274396945, -64.68491133382669]], [[74.68022516124701, 16.385371942192467], [145.38099977035458, -41.24827031948259]], [[74.68022516124701, 16.385371942192467], [-71.0620272824921, 47.88590189004145]], [[74.68022516124701, 16.385371942192467], [-33.12863582900265, -27.36659619542643]], [[74.68022516124701, 16.385371942192467], [-33.0592715560387, 78.98554487561634]], [[11.18250482182202, 37.986118692583545], [75.30894781270534, 34.47338872729114]], [[11.18250482182202, 37.986118692583545], [-46.460046854559394, -26.205439160337757]], [[11.18250482182202, 37.986118692583545], [-15.429508905108525, 2.0832338382009126]], [[11.18250482182202, 37.986118692583545], [120.28589872560306, 64.68491133382669]], [[11.18250482182202, 37.986118692583545], [-43.85546688508249, 31.36541933650961]], [[-168.81749517817798, -37.986118692583545], [124.32943152855418, -21.714205204782534]], [[-2.3788959877676343, 20.569533375715775], [-43.096849574432454, 8.186823642100368]], [[-2.3788959877676343, 20.569533375715775], [-64.0011755724822, -45.755329981370835]], [[75.30894781270534, 34.47338872729114], [29.85772653756448, -4.093122455313503]], [[75.30894781270534, 34.47338872729114], [140.06790103835658, -36.57432465382898]], [[75.30894781270534, 34.47338872729114], [-48.37640492421572, 71.75885404094183]], [[75.30894781270534, 34.47338872729114], [-15.429508905108525, 2.0832338382009126]], [[75.30894781270534, 34.47338872729114], [-111.13197593302124, 68.366926794764]], [[177.62110401223237, -20.569533375715775], [-150.14227346243553, 4.093122455313503]], [[177.62110401223237, -20.569533375715775], [140.06790103835658, -36.57432465382898]], [[177.62110401223237, -20.569533375715775], [-178.11637922547013, 18.115009227689942]], [[29.85772653756448, -4.093122455313503], [102.5498174939958, 42.66112880019883]], [[29.85772653756448, -4.093122455313503], [141.00473926534386, 22.694662028900648]], [[29.85772653756448, -4.093122455313503], [-92.50103546113445, 80.624641696699]], [[29.85772653756448, -4.093122455313503], [110.59269626295708, -7.517436671242185]], [[29.85772653756448, -4.093122455313503], [29.79347488859525, -13.31353517810738]], [[40.93264217589374, 50.48850773828068], [133.53995314544062, 26.205439160337757]], [[40.93264217589374, 50.48850773828068], [65.22756261362527, 22.433526969106104]], [[-150.14227346243553, 4.093122455313503], [-13.072392986621853, 60.2953016663502]], [[-150.14227346243553, 4.093122455313503], [115.99882442751782, 45.755329981370835]], [[-150.14227346243553, 4.093122455313503], [-38.99526073465615, -22.694662028900648]], [[143.16854737773593, 17.540374247245992], [102.5498174939958, 42.66112880019883]], [[143.16854737773593, 17.540374247245992], [-41.955343091544215, -29.113991830007844]], [[90.6524613909773, -24.999795325829066], [29.79347488859525, -13.31353517810738]], [[-89.3475386090227, 24.999795325829066], [-124.86588563094293, -57.7934667493243]], [[-36.83145262226407, -17.540374247245992], [-141.3727316453629, 2.414152085572909]], [[124.32943152855418, -21.714205204782534], [136.90315042556756, -8.186823642100368]], [[124.32943152855418, -21.714205204782534], [177.44139362941723, -18.179742501877183]], [[69.4724051713553, 15.513075483719097], [146.87136417099737, 27.36659619542643]], [[-110.52759482864471, -15.513075483719097], [-102.88577250938629, -61.12204769579526]], [[-110.52759482864471, -15.513075483719097], [-33.0592715560387, 78.98554487561634]], [[-55.670568471445826, 21.714205204782534], [16.12987089497089, 12.625856144150166]], [[62.24274991166145, -49.72432709689807], [178.55960713876974, -62.94896985596778]], [[62.24274991166145, -49.72432709689807], [177.44139362941723, -18.179742501877183]], [[62.24274991166145, -49.72432709689807], [131.62359507578427, -71.75885404094183]], [[116.53315383801258, -0.5401064218001036], [115.99882442751782, 45.755329981370835]], [[116.53315383801258, -0.5401064218001036], [150.58818752287542, -46.33758693241536]], [[-63.46684616198743, 0.5401064218001036], [-11.210849906957714, -39.47527673742458]], [[-63.46684616198743, 0.5401064218001036], [-33.12863582900265, -27.36659619542643]], [[-63.46684616198743, 0.5401064218001036], [-38.99526073465615, -22.694662028900648]], [[-63.46684616198743, 0.5401064218001036], [-33.0592715560387, 78.98554487561634]], [[-63.46684616198743, 0.5401064218001036], [-104.37504264315305, -31.39385593159431]], [[-117.75725008833855, 49.72432709689807], [-78.11586907816074, -24.48109060441928]], [[-117.75725008833855, 49.72432709689807], [36.58402600873565, -42.16291427595722]], [[117.09137682787089, -47.51558450864276], [102.5498174939958, 42.66112880019883]], [[-78.11586907816074, -24.48109060441928], [-15.429508905108525, 2.0832338382009126]], [[-78.11586907816074, -24.48109060441928], [-13.578431950420116, -18.840865701091072]], [[-62.908623172129104, 47.51558450864276], [-69.40730373704292, 7.517436671242185]], [[-62.908623172129104, 47.51558450864276], [-38.99526073465615, -22.694662028900648]], [[-62.908623172129104, 47.51558450864276], [-129.48585966296298, 22.721037940878546]], [[-62.908623172129104, 47.51558450864276], [-157.33302890070195, 17.985889305012194]], [[-62.908623172129104, 47.51558450864276], [-77.4501825060042, -42.66112880019883]], [[-168.9531775589289, 3.7794083732503876], [173.26880604685368, -24.40761185330698]], [[-72.73652576326893, 45.29916792927737], [-3.553369694075459, 64.19336498685475]], [[-72.73652576326893, 45.29916792927737], [49.04765612354421, 26.339062268928494]], [[107.26347423673107, -45.29916792927737], [43.624798943671124, -45.05013239241217]], [[11.046822441071125, -3.7794083732503876], [47.2412963326695, 77.81287876586704]], [[11.046822441071125, -3.7794083732503876], [-141.3727316453629, 2.414152085572909]], [[-81.03798231292248, 12.816821413096273], [38.62726835463709, -2.414152085572909]], [[168.7891500930423, 39.47527673742458], [98.88873271961096, 28.984125522265987]], [[-11.210849906957714, -39.47527673742458], [22.66697109929806, -17.985889305012194]], [[-11.210849906957714, -39.47527673742458], [-96.27949826006387, 29.76801548636899]], [[-11.210849906957714, -39.47527673742458], [-58.65924800158934, -34.45397017946746]], [[-119.8211416409604, -20.11445400027271], [65.1675448411963, -25.529513001185265]], [[-125.14602724411341, 72.2241545508752], [-161.64606575650444, -7.434611847064904]], [[-125.14602724411341, 72.2241545508752], [38.62726835463709, -2.414152085572909]], [[-125.14602724411341, 72.2241545508752], [-74.36922882597663, 18.849984550986775]], [[54.8539727558866, -72.2241545508752], [138.0446569084558, 29.113991830007844]], [[54.8539727558866, -72.2241545508752], [29.79347488859525, -13.31353517810738]], [[54.8539727558866, -72.2241545508752], [108.93797271750789, -47.88590189004145]], [[60.17885835903961, 20.11445400027271], [-13.072392986621853, 60.2953016663502]], [[60.17885835903961, 20.11445400027271], [-24.479565055946857, 30.983839500102967]], [[-102.88577250938629, -61.12204769579526], [38.62726835463709, -2.414152085572909]], [[-102.88577250938629, -61.12204769579526], [-29.411812477124606, 46.33758693241536]], [[136.90315042556756, -8.186823642100368], [36.58402600873565, -42.16291427595722]], [[77.11422749061371, 61.12204769579526], [-46.460046854559394, -26.205439160337757]], [[77.11422749061371, 61.12204769579526], [-114.83245515880371, 25.529513001185265]], [[77.11422749061371, 61.12204769579526], [49.04765612354421, 26.339062268928494]], [[77.11422749061371, 61.12204769579526], [-15.429508905108525, 2.0832338382009126]], [[77.11422749061371, 61.12204769579526], [-111.13197593302124, 68.366926794764]], [[77.11422749061371, 61.12204769579526], [18.353934243495566, 7.434611847064904]], [[166.92760701337815, -60.2953016663502], [145.38099977035458, -41.24827031948259]], [[166.92760701337815, -60.2953016663502], [36.58402600873565, -42.16291427595722]], [[166.92760701337815, -60.2953016663502], [72.66417408779412, 52.94675429385009]], [[133.53995314544062, 26.205439160337757], [75.01911875604935, 6.885296057101825]], [[133.53995314544062, 26.205439160337757], [38.62726835463709, -2.414152085572909]], [[133.53995314544062, 26.205439160337757], [-33.0592715560387, 78.98554487561634]], [[-46.460046854559394, -26.205439160337757], [102.5498174939958, 42.66112880019883]], [[-46.460046854559394, -26.205439160337757], [-92.50103546113445, 80.624641696699]], [[-46.460046854559394, -26.205439160337757], [-111.13197593302124, 68.366926794764]], [[-13.072392986621853, 60.2953016663502], [16.12987089497089, 12.625856144150166]], [[-13.072392986621853, 60.2953016663502], [29.65394242947209, -30.75828551000014]], [[-64.0011755724822, -45.755329981370835], [22.66697109929806, -17.985889305012194]], [[140.06790103835658, -36.57432465382898], [150.58818752287542, -46.33758693241536]], [[140.06790103835658, -36.57432465382898], [100.36136058819255, 26.07767692891239]], [[140.06790103835658, -36.57432465382898], [-176.78270946865504, 12.255734829619973]], [[115.99882442751782, 45.755329981370835], [16.12987089497089, 12.625856144150166]], [[145.38099977035458, -41.24827031948259], [-3.553369694075459, 64.19336498685475]], [[145.38099977035458, -41.24827031948259], [142.13253408354734, 61.142432237495974]], [[121.34075199841067, 34.45397017946746], [24.096081829279193, 33.9869333179916]], [[121.34075199841067, 34.45397017946746], [98.88873271961096, 28.984125522265987]], [[-3.553369694075459, 64.19336498685475], [-71.0620272824921, 47.88590189004145]], [[-3.553369694075459, 64.19336498685475], [38.62726835463709, -2.414152085572909]], [[102.5498174939958, 42.66112880019883], [173.26880604685368, -24.40761185330698]], [[102.5498174939958, 42.66112880019883], [-92.50103546113445, 80.624641696699]], [[75.01911875604935, 6.885296057101825], [3.2172905313449713, -12.255734829619973]], [[105.63077117402337, -18.849984550986775], [-150.3460575705279, 30.75828551000014]], [[22.66697109929806, -17.985889305012194], [-81.11126728038904, -28.984125522265987]], [[22.66697109929806, -17.985889305012194], [43.624798943671124, -45.05013239241217]], [[22.66697109929806, -17.985889305012194], [-5.685962591150105, -66.9196052943231]], [[22.66697109929806, -17.985889305012194], [110.59269626295708, -7.517436671242185]], [[75.62495735684695, 31.39385593159431], [16.12987089497089, 12.625856144150166]], [[-71.0620272824921, 47.88590189004145], [84.3162970371925, 46.86609474196278]], [[-150.3460575705279, 30.75828551000014], [173.26880604685368, -24.40761185330698]], [[-150.3460575705279, 30.75828551000014], [36.58402600873565, -42.16291427595722]], [[-48.37640492421572, 71.75885404094183], [16.12987089497089, 12.625856144150166]], [[84.3162970371925, 46.86609474196278], [62.05558525611916, 27.135537613008527]], [[-24.479565055946857, 30.983839500102967], [-90.88188540059544, 17.371969583207743]], [[-2.5586063705827606, 18.179742501877183], [150.58818752287542, -46.33758693241536]], [[-2.5586063705827606, 18.179742501877183], [-13.578431950420116, -18.840865701091072]], [[-2.5586063705827606, 18.179742501877183], [16.12987089497089, 12.625856144150166]], [[-2.5586063705827606, 18.179742501877183], [-37.86746591645267, -61.142432237495974]], [[178.28247370093183, 30.030093939901594], [-150.20652511140474, 13.31353517810738]], [[178.28247370093183, 30.030093939901594], [-117.89215968834942, -2.2862137782255143]], [[142.07806086549533, -15.758532844166945], [-160.78452756929033, -45.74346447320901]], [[-107.33582591220589, -52.94675429385009], [24.73596462929301, -3.194007138813003]], [[-107.33582591220589, -52.94675429385009], [55.13411436905709, 57.7934667493243]], [[-107.33582591220589, -52.94675429385009], [29.65394242947209, -30.75828551000014]], [[150.58818752287542, -46.33758693241536], [100.36136058819255, 26.07767692891239]], [[-150.20652511140474, 13.31353517810738], [-90.88188540059544, 17.371969583207743]], [[-117.89215968834942, -2.2862137782255143], [-111.13197593302124, 68.366926794764]], [[38.62726835463709, -2.414152085572909], [1.8836207745298705, -18.115009227689942]], [[38.62726835463709, -2.414152085572909], [-33.12863582900265, -27.36659619542643]], [[38.62726835463709, -2.414152085572909], [-41.955343091544215, -29.113991830007844]], [[38.62726835463709, -2.414152085572909], [-79.63863941180745, -26.07767692891239]], [[83.72050173993613, -29.76801548636899], [72.66417408779412, 52.94675429385009]], [[49.04765612354421, 26.339062268928494], [146.94072844396132, -78.98554487561634]], [[43.624798943671124, -45.05013239241217], [24.73596462929301, -3.194007138813003]], [[-33.12863582900265, -27.36659619542643], [-107.71325765761911, 35.965276873158246]], [[24.096081829279193, 33.9869333179916], [3.2172905313449713, -12.255734829619973]], [[-25.63262801244217, 18.704450451867398], [-13.578431950420116, -18.840865701091072]], [[-25.63262801244217, 18.704450451867398], [-1.44039286123028, 62.94896985596778]], [[-15.429508905108525, 2.0832338382009126], [70.01004917999494, 24.421302811833524]], [[-15.429508905108525, 2.0832338382009126], [72.66417408779412, 52.94675429385009]], [[3.2172905313449713, -12.255734829619973], [-13.578431950420116, -18.840865701091072]], [[3.2172905313449713, -12.255734829619973], [-79.63863941180745, -26.07767692891239]], [[3.2172905313449713, -12.255734829619973], [62.05558525611916, 27.135537613008527]], [[136.1445331149175, -31.36541933650961], [142.35199602097444, 37.10201246716144]], [[-41.955343091544215, -29.113991830007844], [142.35199602097444, 37.10201246716144]], [[72.2867423423809, -35.965276873158246], [-34.61900022964542, 41.24827031948259]], [[142.13253408354734, 61.142432237495974], [19.215472430709664, 45.74346447320901]], [[142.13253408354734, 61.142432237495974], [62.107840311650584, 2.2862137782255143]], [[141.00473926534386, 22.694662028900648], [98.88873271961096, 28.984125522265987]], [[110.59269626295708, -7.517436671242185], [55.13411436905709, 57.7934667493243]], [[110.59269626295708, -7.517436671242185], [-107.71325765761911, 35.965276873158246]], [[110.59269626295708, -7.517436671242185], [-163.87012910502912, -12.625856144150166]], [[110.59269626295708, -7.517436671242185], [89.11811459940456, -17.371969583207743]], [[110.59269626295708, -7.517436671242185], [29.79347488859525, -13.31353517810738]], [[110.59269626295708, -7.517436671242185], [-1.717526299068171, -30.030093939901594]], [[-107.71325765761911, 35.965276873158246], [65.1675448411963, -25.529513001185265]], [[-33.0592715560387, 78.98554487561634], [-1.717526299068171, -30.030093939901594]], [[138.0446569084558, 29.113991830007844], [-1.717526299068171, -30.030093939901594]], [[-43.85546688508249, 31.36541933650961], [-106.41085953915794, 9.69378530222567]], [[47.2412963326695, 77.81287876586704], [65.22756261362527, 22.433526969106104]], [[-143.41597399126437, 42.16291427595722], [29.65394242947209, -30.75828551000014]], [[-176.78270946865504, 12.255734829619973], [-95.68370296280752, -46.86609474196278]], [[164.57049109489148, -2.0832338382009126], [154.36737198755782, -18.704450451867398]], [[164.57049109489148, -2.0832338382009126], [-130.95234387645579, -26.339062268928494]], [[146.87136417099737, 27.36659619542643], [29.65394242947209, -30.75828551000014]], [[-96.27949826006387, 29.76801548636899], [-58.65924800158934, -34.45397017946746]], [[98.88873271961096, 28.984125522265987], [-157.33302890070195, 17.985889305012194]], [[19.215472430709664, 45.74346447320901], [70.01004917999494, 24.421302811833524]], [[19.215472430709664, 45.74346447320901], [-1.44039286123028, 62.94896985596778]], [[19.215472430709664, 45.74346447320901], [-95.68370296280752, -46.86609474196278]], [[19.215472430709664, 45.74346447320901], [142.35199602097444, 37.10201246716144]], [[62.107840311650584, 2.2862137782255143], [-29.411812477124606, 46.33758693241536]], [[89.11811459940456, -17.371969583207743], [72.66417408779412, 52.94675429385009]], [[-37.921939134504676, 15.758532844166945], [18.353934243495566, 7.434611847064904]], [[-1.717526299068171, -30.030093939901594], [176.44663030592454, -64.19336498685475]], [[62.05558525611916, 27.135537613008527], [-157.33302890070195, 17.985889305012194]], [[-6.731193953146306, 24.40761185330698], [-77.4501825060042, -42.66112880019883]], [[18.353934243495566, 7.434611847064904], [-34.61900022964542, 41.24827031948259]], [[29.65394242947209, -30.75828551000014], [-58.65924800158934, -34.45397017946746]], [[-104.98088124395066, -6.885296057101825], [-34.61900022964542, 41.24827031948259]]]}}]}