{"type": "FeatureCollection", "name": "E8_proj_seed354 grid", "properties": {"shape": "E8_proj_seed354", "lock_lat": 55.0, "lock_lon": 65.0, "bearing": 350.0}, "features": [{"type": "Feature", "properties": {"kind": "grid_vertices", "shape": "E8_proj_seed354", "count": 240, "ids": ["V1", "V2", "V3", "V4", "V5", "V6", "V7", "V8", "V9", "V10", "V11", "V12", "V13", "V14", "V15", "V16", "V17", "V18", "V19", "V20", "V21", "V22", "V23", "V24", "V25", "V26", "V27", "V28", "V29", "V30", "V31", "V32", "V33", "V34", "V35", "V36", "V37", "V38", "V39", "V40", "V41", "V42", "V43", "V44", "V45", "V46", "V47", "V48", "V49", "V50", "V51", "V52", "V53", "V54", "V55", "V56", "V57", "V58", "V59", "V60", "V61", "V62", "V63", "V64", "V65", "V66", "V67", "V68", "V69", "V70", "V71", "V72", "V73", "V74", "V75", "V76", "V77", "V78", "V79", "V80", "V81", "V82", "V83", "V84", "V85", "V86", "V87", "V88", "V89", "V90", "V91", "V92", "V93", "V94", "V95", "V96", "V97", "V98", "V99", "V100", "V101", "V102", "V103", "V104", "V105", "V106", "V107", "V108", "V109", "V110", "V111", "V112", "V113", "V114", "V115", "V116", "V117", "V118", "V119", "V120", "V121", "V122", "V123", "V124", "V125", "V126", "V127", "V128", "V129", "V130", "V131", "V132", "V133", "V134", "V135", "V136", "V137", "V138", "V139", "V140", "V141", "V142", "V143", "V144", "V145", "V146", "V147", "V148", "V149", "V150", "V151", "V152", "V153", "V154", "V155", "V156", "V157", "V158", "V159", "V160", "V161", "V162", "V163", "V164", "V165", "V166", "V167", "V168", "V169", "V170", "V171", "V172", "V173", "V174", "V175", "V176", "V177", "V178", "V179", "V180", "V181", "V182", "V183", "V184", "V185", "V186", "V187", "V188", "V189", "V190", "V191", "V192", "V193", "V194", "V195", "V196", "V197", "V198", "V199", "V200", "V201", "V202", "V203", "V204", "V205", "V206", "V207", "V208", "V209", "V210", "V211", "V212", "V213", "V214", "V215", "V216", "V217", "V218", "V219", "V220", "V221", "V222", "V223", "V224", "V225", "V226", "V227", "V228", "V229", "V230", "V231", "V232", "V233", "V234", "V235", "V236", "V237", "V238", "V239", "V240"]}, "geometry": {"type": "MultiPoint", "coordinates": [[-135.76914805450934, -51.74497068173501], [-126.6281085225823, 42.30070269230757], [53.371891477417705, -42.30070269230757], [44.23085194549068, 51.74497068173501], [-98.0560602996368, -4.928821454131131], [157.63423212028712, 14.715997728880428], [-22.36576787971291, -14.715997728880428], [81.94393970036322, 4.928821454131131], [-149.8197749271875, 28.625582987216912], [-84.55986791747497, -45.02890368254076], [95.44013208252501, 45.02890368254076], [30.180225072812494, -28.625582987216912], [-99.08758558752159, 22.12062616276556], [-163.06143063219415, -17.926503827826494], [16.93856936780587, 17.926503827826494], [80.91241441247841, -22.12062616276556], [-153.92286684413725, -17.387692215852184], [-54.18933833330643, 42.01309383932411], [125.81066166669358, -42.01309383932411], [26.07713315586276, 17.387692215852184], [-120.32556877508775, 2.674336893969909], [-162.15498766008304, 4.980886633926093], [17.845012339916952, -4.980886633926093], [59.674431224912254, -2.674336893969909], [-105.51547885426032, -21.012425202434056], [-155.4257737340985, 26.61434327469077], [24.57422626590152, -26.61434327469077], [74.48452114573969, 21.012425202434056], [-64.78459952711107, -50.25922173676951], [101.55332399333741, -29.991561755349892], [-78.44667600666259, 29.991561755349892], [115.21540047288893, 50.25922173676951], [163.27478405299954, -21.013442517502693], [17.033523845566663, -65.7089691367638], [-162.96647615443334, 65.7089691367638], [-16.725215947000486, 21.013442517502693], [-21.43219861022356, -47.04672880837853], [119.83478511953757, -63.35393505755799], [-60.16521488046242, 63.35393505755799], [158.56780138977643, 47.04672880837853], [173.648165658751, -58.84060856620032], [14.804072425221818, -16.80126036513618], [-165.19592757477818, 16.80126036513618], [-6.351834341249018, 58.84060856620032], [-100.49054996916226, -69.14642641164552], [73.74750974369339, -51.2174072051597], [-106.25249025630661, 51.2174072051597], [79.50945003083774, 69.14642641164552], [-12.105112332347826, -74.01967045631758], [116.53529373662327, -43.82228147806806], [-63.464706263376726, 43.82228147806806], [167.8948876676522, 74.01967045631758], [-105.94424504262707, 24.413973759563188], [-46.75200544877576, -32.994741929711346], [133.24799455122422, 32.994741929711346], [74.05575495737294, -24.413973759563188], [-62.88453202414014, 6.387658484722442], [-96.41137356461651, -41.078932926070785], [83.5886264353835, 41.078932926070785], [117.11546797585986, -6.387658484722442], [-120.4056975240975, -31.30698572318061], [-35.877075436415886, 13.638444185173784], [144.12292456358412, -13.638444185173784], [59.59430247590251, 31.30698572318061], [-83.17578589576969, -6.785089054053868], [-47.560189932087674, -17.35114784340307], [132.4398100679123, 17.35114784340307], [96.82421410423032, 6.785089054053868], [-64.31467170022249, -23.40587710447995], [-88.50740213349484, 16.51547170069724], [91.49259786650518, -16.51547170069724], [115.68532829977751, 23.40587710447995], [-119.75162256649324, 66.87878144740061], [161.0747187867473, 16.580344009847384], [-18.925281213252713, -16.580344009847384], [60.24837743350678, -66.87878144740061], [-175.97762553418605, 3.8404991273297013], [10.300608092420328, 74.31910800191785], [-169.6993919075797, -74.31910800191785], [4.0223744658139555, -3.8404991273297013], [-143.97121768987557, 37.07885488903181], [134.0307944787813, 44.28673377820974], [-45.96920552121869, -44.28673377820974], [36.02878231012444, -37.07885488903181], [-137.49222207614008, 32.01559707387707], [165.12662474141618, 49.49389349329339], [-14.873375258583826, -49.49389349329339], [42.507777923859905, -32.01559707387707], [-141.56602247116496, -15.991242791652], [-11.71332598778328, 34.502079431937815], [168.28667401221674, -34.502079431937815], [38.43397752883505, 15.991242791652], [-73.91055233394695, 22.49574502973918], [16.205890255354017, 33.240050269185694], [-163.794109744646, -33.240050269185694], [106.08944766605305, -22.49574502973918], [-42.64847891247831, -2.9414251421958992], [-47.94151206520997, 80.11160633434159], [132.05848793479004, -80.11160633434159], [137.35152108752172, 2.9414251421958992], [-151.03717421800053, -24.34002463360767], [152.44456609335538, -32.342641177095686], [-27.555433906644627, 32.342641177095686], [28.962825781999484, 24.34002463360767], [-152.0547144141994, -52.95501720451084], [171.94169654927964, -7.23555621108967], [-8.05830345072036, 7.23555621108967], [27.945285585800626, 52.95501720451084], [-78.20883440620595, -26.802654070513686], [-149.50736222340038, 40.68258121763627], [30.49263777659965, -40.68258121763627], [101.79116559379405, 26.802654070513686], [-113.37400384442626, -18.097587796949057], [-142.20496802272527, -4.971692336619337], [-85.97170421564991, 26.456705053531167], [-56.680649821220435, 4.882639680479911], [-150.00098500496844, -16.59286640883813], [-150.25372499433786, -41.69047717451075], [-91.25912445538769, -16.90509864733773], [-144.2661909551083, 29.110246304265907], [-104.37358110310277, -34.07260158293606], [-79.48517927845603, -54.60285221843881], [-52.08170259795325, -20.397513771377987], [-30.18684237965192, -11.306136886977642], [-110.63782574608054, -55.81913806633059], [-159.83156694809836, -63.475494494776264], [-64.82386679375902, -38.20927544062244], [-27.251485650872063, -50.07668931310531], [-175.55025375074453, 5.910587474975107], [168.35297766528075, -21.038848983400236], [-79.1257373408716, 45.976606222055935], [102.27583580422476, 52.83532686137999], [179.65020859289677, -26.994047248600037], [151.54950827537684, -8.773140433725718], [150.40362154559534, 24.64570118359661], [108.32110077463571, -8.375626692031489], [-131.4835915356508, -65.36531708889366], [135.73294872139542, -41.6551383223634], [2.616259179523423, 3.0130545554099224], [18.719994665532937, -25.965266825319112], [163.2008923369686, -42.12303069967337], [135.08722102160476, -60.1445217908595], [23.285219612051563, -68.64349368813063], [82.93649577279412, -21.72737388295319], [-126.6722713784994, 27.291200285549735], [-117.08787573835674, 18.980640061842138], [-78.57215590710582, 33.49286262515452], [-78.9890202845586, 63.441118560755136], [-131.52706062480428, 1.5899234249231646], [-161.58010682858097, 19.282737316618388], [-114.94037142048431, 48.39992337223798], [-85.93194151854209, 46.20692269205455], [-91.93721346527059, -10.025004584169702], [-106.0598388505422, 9.726997602703248], [-62.59240907104361, 28.588606738137642], [-41.62672545438108, 11.934867554140473], [-129.3407591175067, -10.849146129985627], [-115.41482055794191, -42.35500020593849], [-64.25155140711621, -2.953749758233434], [-39.5653240873543, 36.54519106313453], [-150.93879935612017, 28.49975422503342], [168.20505435506428, 40.930723640178215], [-148.67752702995904, 76.9856015992908], [28.10786882332006, 83.73030434162949], [177.0093134473974, 21.487976269121624], [164.5899113061275, 10.056958343868404], [-167.4400736527781, 62.90647734450546], [129.55664225119395, 53.69083503386707], [-158.94802117697088, 25.614212876968896], [-179.3740438802977, -20.478046782475428], [-36.24100283249425, 34.41174705344238], [39.18152539726003, 58.63771867174219], [-168.47593603109752, -29.89168522185404], [145.6509926621389, -2.042963049521678], [115.3398357902221, 68.35321371202492], [53.24571687931014, 12.174509133958223], [-126.75428312068988, -12.174509133958223], [-64.6601642097779, -68.35321371202492], [-34.34900733786111, 2.042963049521678], [11.524063968902494, 29.89168522185404], [-140.81847460274, -58.63771867174219], [143.75899716750575, -34.41174705344238], [0.625956119702301, 20.478046782475428], [21.05197882302913, -25.614212876968896], [-50.44335774880604, -53.69083503386707], [12.559926347221923, -62.90647734450546], [-15.410088693872494, -10.056958343868404], [-2.9906865526026247, -21.487976269121624], [-151.89213117667992, -83.73030434162949], [31.32247297004094, -76.9856015992908], [-11.794945644935725, -40.930723640178215], [29.06120064387983, -28.49975422503342], [140.4346759126457, -36.54519106313453], [115.7484485928838, 2.953749758233434], [64.58517944205809, 42.35500020593849], [50.65924088249329, 10.849146129985627], [138.37327454561893, -11.934867554140473], [117.4075909289564, -28.588606738137642], [73.9401611494578, -9.726997602703248], [88.06278653472941, 10.025004584169702], [94.06805848145792, -46.20692269205455], [65.05962857951569, -48.39992337223798], [18.419893171419027, -19.282737316618388], [48.47293937519572, -1.5899234249231646], [101.01097971544141, -63.441118560755136], [101.42784409289418, -33.49286262515452], [62.912124261643264, -18.980640061842138], [53.327728621500604, -27.291200285549735], [-97.0635042272059, 21.72737388295319], [-156.71478038794845, 68.64349368813063], [-44.91277897839524, 60.1445217908595], [-16.799107663031407, 42.12303069967337], [-161.28000533446706, 25.965266825319112], [-177.3837408204766, -3.0130545554099224], [-44.2670512786046, 41.6551383223634], [48.51640846434921, 65.36531708889366], [-71.6788992253643, 8.375626692031489], [-29.596378454404665, -24.64570118359661], [-28.450491724623166, 8.773140433725718], [-0.349791407103244, 26.994047248600037], [-77.72416419577524, -52.83532686137999], [100.8742626591284, -45.976606222055935], [-11.64702233471926, 21.038848983400236], [4.449746249255471, -5.910587474975107], [152.74851434912796, 50.07668931310531], [115.17613320624098, 38.20927544062244], [20.16843305190165, 63.475494494776264], [69.36217425391946, 55.81913806633059], [149.81315762034808, 11.306136886977642], [127.91829740204676, 20.397513771377987], [100.51482072154397, 54.60285221843881], [75.62641889689723, 34.07260158293606], [35.73380904489168, -29.110246304265907], [88.74087554461232, 16.90509864733773], [29.746275005662135, 41.69047717451075], [29.999014995031562, 16.59286640883813], [123.31935017877957, -4.882639680479911], [94.0282957843501, -26.456705053531167], [37.79503197727474, 4.971692336619337], [66.62599615557374, 18.097587796949057]]}}, {"type": "Feature", "properties": {"kind": "grid_edges", "shape": "E8_proj_seed354", "count": 333, "ids": ["E1", "E2", "E3", "E4", "E5", "E6", "E7", "E8", "E9", "E10", "E11", "E12", "E13", "E14", "E15", "E16", "E17", "E18", "E19", "E20", "E21", "E22", "E23", "E24", "E25", "E26", "E27", "E28", "E29", "E30", "E31", "E32", "E33", "E34", "E35", "E36", "E37", "E38", "E39", "E40", "E41", "E42", "E43", "E44", "E45", "E46", "E47", "E48", "E49", "E50", "E51", "E52", "E53", "E54", "E55", "E56", "E57", "E58", "E59", "E60", "E61", "E62", "E63", "E64", "E65", "E66", "E67", "E68", "E69", "E70", "E71", "E72", "E73", "E74", "E75", "E76", "E77", "E78", "E79", "E80", "E81", "E82", "E83", "E84", "E85", "E86", "E87", "E88", "E89", "E90", "E91", "E92", "E93", "E94", "E95", "E96", "E97", "E98", "E99", "E100", "E101", "E102", "E103", "E104", "E105", "E106", "E107", "E108", "E109", "E110", "E111", "E112", "E113", "E114", "E115", "E116", "E117", "E118", "E119", "E120", "E121", "E122", "E123", "E124", "E125", "E126", "E127", "E128", "E129", "E130", "E131", "E132", "E133", "E134", "E135", "E136", "E137", "E138", "E139", "E140", "E141", "E142", "E143", "E144", "E145", "E146", "E147", "E148", "E149", "E150", "E151", "E152", "E153", "E154", "E155", "E156", "E157", "E158", "E159", "E160", "E161", "E162", "E163", "E164", "E165", "E166", "E167", "E168", "E169", "E170", "E171", "E172", "E173", "E174", "E175", "E176", "E177", "E178", "E179", "E180", "E181", "E182", "E183", "E184", "E185", "E186", "E187", "E188", "E189", "E190", "E191", "E192", "E193", "E194", "E195", "E196", "E197", "E198", "E199", "E200", "E201", "E202", "E203", "E204", "E205", "E206", "E207", "E208", "E209", "E210", "E211", "E212", "E213", "E214", "E215", "E216", "E217", "E218", "E219", "E220", "E221", "E222", "E223", "E224", "E225", "E226", "E227", "E228", "E229", "E230", "E231", "E232", "E233", "E234", "E235", "E236", "E237", "E238", "E239", "E240", "E241", "E242", "E243", "E244", "E245", "E246", "E247", "E248", "E249", "E250", "E251", "E252", "E253", "E254", "E255", "E256", "E257", "E258", "E259", "E260", "E261", "E262", "E263", "E264", "E265", "E266", "E267", "E268", "E269", "E270", "E271", "E272", "E273", "E274", "E275", "E276", "E277", "E278", "E279", "E280", "E281", "E282", "E283", "E284", "E285", "E286", "E287", "E288", "E289", "E290", "E291", "E292", "E293", "E294", "E295", "E296", "E297", "E298", "E299", "E300", "E301", "E302", "E303", "E304", "E305", "E306", "E307", "E308", "E309", "E310", "E311", "E312", "E313", "E314", "E315", "E316", "E317", "E318", "E319", "E320", "E321", "E322", "E323", "E324", "E325", "E326", "E327", "E328", "E329", "E330", "E331", "E332", "E333"], "pairs": [[0, 24], [0, 123], [0, 131], [2, 187], [3, 208], [3, 233], [3, 238], [4, 147], [5, 58], [5, 131], [5, 135], [5, 140], [6, 19], [6, 60], [7, 63], [8, 132], [8, 162], [8, 163], [9, 123], [9, 158], [9, 171], [10, 22], [10, 34], [10, 177], [10, 178], [10, 180], [10, 211], [11, 190], [11, 217], [12, 74], [12, 123], [12, 162], [13, 91], [14, 218], [15, 19], [15, 99], [15, 214], [16, 153], [17, 21], [17, 24], [17, 158], [19, 186], [19, 199], [20, 138], [21, 131], [22, 108], [22, 186], [22, 196], [22, 236], [23, 26], [23, 199], [23, 217], [24, 48], [24, 106], [25, 138], [25, 154], [26, 50], [26, 108], [26, 178], [27, 182], [27, 222], [27, 224], [27, 229], [27, 234], [27, 236], [28, 182], [28, 191], [29, 136], [31, 39], [31, 50], [31, 173], [31, 236], [32, 41], [32, 114], [32, 131], [32, 134], [32, 194], [33, 139], [34, 225], [35, 43], [35, 157], [35, 220], [35, 234], [36, 56], [36, 203], [38, 43], [38, 93], [38, 160], [38, 169], [39, 151], [40, 192], [40, 193], [40, 201], [41, 49], [41, 77], [41, 183], [42, 101], [42, 233], [43, 89], [43, 91], [43, 150], [43, 155], [43, 175], [43, 211], [43, 227], [43, 231], [43, 234], [43, 239], [44, 138], [44, 186], [45, 101], [45, 193], [45, 203], [46, 166], [47, 50], [47, 233], [49, 97], [49, 128], [49, 182], [49, 196], [50, 169], [50, 225], [52, 81], [52, 149], [53, 189], [54, 80], [54, 131], [55, 74], [56, 65], [56, 153], [56, 217], [57, 191], [57, 212], [57, 222], [58, 62], [58, 92], [58, 161], [58, 192], [58, 235], [59, 71], [59, 174], [60, 101], [60, 209], [61, 119], [62, 164], [63, 167], [63, 226], [64, 190], [65, 147], [65, 181], [65, 215], [66, 202], [66, 228], [66, 230], [67, 71], [68, 115], [68, 214], [69, 105], [69, 125], [69, 150], [70, 160], [70, 225], [71, 87], [71, 206], [72, 84], [72, 88], [72, 113], [72, 147], [73, 80], [73, 182], [73, 199], [73, 230], [74, 83], [74, 232], [75, 236], [77, 84], [77, 85], [77, 106], [77, 114], [77, 151], [77, 182], [77, 195], [77, 199], [77, 231], [79, 158], [80, 92], [80, 132], [81, 117], [83, 159], [83, 233], [86, 155], [86, 238], [87, 109], [87, 111], [88, 93], [88, 169], [88, 177], [88, 200], [89, 218], [89, 226], [90, 212], [90, 229], [90, 236], [91, 191], [92, 232], [93, 113], [94, 150], [94, 158], [94, 166], [94, 174], [94, 230], [94, 238], [95, 159], [95, 189], [96, 130], [96, 184], [96, 225], [97, 227], [98, 207], [98, 214], [99, 181], [99, 199], [99, 221], [101, 137], [101, 201], [103, 171], [104, 165], [104, 225], [104, 232], [106, 122], [106, 146], [106, 183], [106, 207], [106, 235], [107, 126], [107, 131], [107, 186], [107, 194], [108, 130], [109, 120], [109, 162], [109, 236], [110, 225], [113, 121], [113, 177], [113, 181], [114, 179], [115, 121], [116, 124], [116, 196], [118, 135], [118, 182], [118, 214], [119, 125], [119, 159], [119, 179], [121, 189], [123, 143], [125, 159], [126, 222], [127, 141], [127, 191], [128, 138], [128, 196], [129, 131], [129, 163], [129, 197], [129, 201], [130, 146], [130, 192], [131, 133], [131, 134], [131, 139], [137, 171], [138, 194], [139, 170], [139, 171], [140, 143], [140, 164], [141, 172], [141, 201], [145, 163], [145, 217], [147, 219], [151, 157], [151, 183], [153, 154], [153, 171], [156, 236], [158, 220], [158, 223], [159, 171], [159, 239], [160, 169], [162, 194], [168, 171], [169, 235], [171, 173], [171, 219], [174, 222], [177, 225], [178, 183], [178, 194], [179, 185], [182, 183], [182, 186], [182, 199], [183, 214], [183, 223], [185, 191], [188, 191], [190, 238], [191, 219], [194, 200], [199, 215], [199, 227], [202, 206], [207, 231], [208, 224], [208, 232], [209, 217], [209, 225], [210, 219], [211, 227], [215, 231], [216, 221], [218, 226], [221, 222], [223, 231], [225, 232], [229, 230], [232, 234], [232, 238]], "support_counts": [1, 1, 1, 1, 1, 1, 1, 1, 1, 2, 1, 1, 1, 1, 1, 1, 1, 1, 1, 1, 1, 1, 1, 1, 1, 1, 1, 1, 1, 1, 1, 1, 1, 1, 1, 1, 1, 1, 1, 1, 1, 1, 1, 1, 1, 1, 1, 1, 1, 1, 1, 1, 1, 1, 1, 1, 1, 1, 1, 1, 1, 1, 2, 1, 1, 1, 2, 1, 1, 1, 1, 1, 1, 1, 1, 1, 1, 1, 1, 1, 1, 1, 1, 1, 1, 1, 1, 1, 1, 1, 1, 1, 1, 1, 1, 1, 1, 1, 1, 1, 1, 1, 1, 1, 1, 1, 1, 1, 1, 1, 1, 1, 1, 1, 1, 1, 1, 1, 1, 1, 1, 1, 2, 1, 1, 1, 1, 1, 1, 1, 1, 1, 1, 1, 1, 1, 1, 1, 1, 1, 1, 1, 1, 1, 1, 1, 1, 1, 1, 1, 1, 1, 1, 1, 1, 1, 1, 1, 1, 1, 1, 1, 1, 1, 1, 1, 1, 1, 1, 2, 1, 1, 1, 1, 1, 1, 1, 1, 1, 1, 1, 1, 1, 1, 1, 1, 1, 1, 1, 1, 1, 1, 1, 1, 1, 1, 1, 1, 1, 1, 1, 1, 1, 1, 1, 1, 1, 1, 1, 1, 1, 1, 2, 1, 1, 1, 2, 1, 1, 1, 1, 1, 1, 1, 1, 1, 1, 2, 1, 1, 1, 1, 1, 1, 1, 1, 1, 1, 1, 1, 1, 1, 1, 1, 1, 1, 1, 1, 1, 1, 1, 1, 1, 1, 1, 1, 1, 1, 1, 1, 1, 1, 1, 1, 1, 1, 1, 1, 1, 1, 1, 1, 1, 1, 1, 1, 1, 1, 1, 1, 1, 1, 1, 1, 1, 1, 1, 1, 1, 1, 1, 1, 1, 1, 1, 1, 1, 1, 1, 1, 1, 1, 1, 1, 1, 1, 1, 1, 1, 1, 1, 1, 1, 1, 1, 1, 1, 1, 1, 1, 1, 1, 1, 1, 1, 1, 1, 1, 1, 1, 1, 1, 1], "support_class": ["single", "single", "single", "single", "single", "single", "single", "single", "single", "shared", "single", "single", "single", "single", "single", "single", "single", "single", "single", "single", "single", "single", "single", "single", "single", "single", "single", "single", "single", "single", "single", "single", "single", "single", "single", "single", "single", "single", "single", "single", "single", "single", "single", "single", "single", "single", "single", "single", "single", "single", "single", "single", "single", "single", "single", "single", "single", "single", "single", "single", "single", "single", "shared", "single", "single", "single", "shared", "single", "single", "single", "single", "single", "single", "single", "single", "single", "single", "single", "single", "single", "single", "single", "single", "single", "single", "single", "single", "single", "single", "single", "single", "single", "single", "single", "single", "single", "single", "single", "single", "single", "single", "single", "single", "single", "single", "single", "single", "single", "single", "single", "single", "single", "single", "single", "single", "single", "single", "single", "single", "single", "single", "single", "shared", "single", "single", "single", "single", "single", "single", "single", "single", "single", "single", "single", "single", "single", "single", "single", "single", "single", "single", "single", "single", "single", "single", "single", "single", "single", "single", "single", "single", "single", "single", "single", "single", "single", "single", "single", "single", "single", "single", "single", "single", "single", "single", "single", "single", "single", "single", "shared", "single", "single", "single", "single", "single", "single", "single", "single", "single", "single", "single", "single", "single", "single", "single", "single", "single", "single", "single", "single", "single", "single", "single", "single", "single", "single", "single", "single", "single", "single", "single", "single", "single", "single", "single", "single", "single", "single", "single", "single", "single", "single", "shared", "single", "single", "single", "shared", "single", "single", "single", "single", "single", "single", "single", "single", "single", "single", "shared", "single", "single", "single", "single", "single", "single", "single", "single", "single", "single", "single", "single", "single", "single", "single", "single", "single", "single", "single", "single", "single", "single", "single", "single", "single", "single", "single", "single", "single", "single", "single", "single", "single", "single", "single", "single", "single", "single", "single", "single", "single", "single", "single", "single", "single", "single", "single", "single", "single", "single", "single", "single", "single", "single", "single", "single", "single", "single", "single", "single", "single", "single", "single", "single", "single", "single", "single", "single", "single", "single", "single", "single", "single", "single", "single", "single", "single", "single", "single", "single", "single", "single", "single", "single", "single", "single", "single", "single", "single", "single", "single", "single", "single", "single", "single", "single", "single", "single", "single", "single", "single", "single", "single", "single", "single"]}, "geometry": {"type": "MultiLineString", "coordinates": [[[-135.76914805450934, -51.74497068173501], [-105.51547885426032, -21.012425202434056]], [[-135.76914805450934, -51.74497068173501], [-30.18684237965192, -11.306136886977642]], [[-135.76914805450934, -51.74497068173501], [102.27583580422476, 52.83532686137999]], [[53.371891477417705, -42.30070269230757], [-2.9906865526026247, -21.487976269121624]], [[44.23085194549068, 51.74497068173501], [-97.0635042272059, 21.72737388295319]], [[44.23085194549068, 51.74497068173501], [88.74087554461232, 16.90509864733773]], [[44.23085194549068, 51.74497068173501], [37.79503197727474, 4.971692336619337]], [[-98.0560602996368, -4.928821454131131], [-78.9890202845586, 63.441118560755136]], [[157.63423212028712, 14.715997728880428], [83.5886264353835, 41.078932926070785]], [[157.63423212028712, 14.715997728880428], [102.27583580422476, 52.83532686137999]], [[157.63423212028712, 14.715997728880428], [108.32110077463571, -8.375626692031489]], [[157.63423212028712, 14.715997728880428], [163.2008923369686, -42.12303069967337]], [[-22.36576787971291, -14.715997728880428], [26.07713315586276, 17.387692215852184]], [[-22.36576787971291, -14.715997728880428], [-120.4056975240975, -31.30698572318061]], [[81.94393970036322, 4.928821454131131], [59.59430247590251, 31.30698572318061]], [[-149.8197749271875, 28.625582987216912], [179.65020859289677, -26.994047248600037]], [[-149.8197749271875, 28.625582987216912], [-148.67752702995904, 76.9856015992908]], [[-149.8197749271875, 28.625582987216912], [28.10786882332006, 83.73030434162949]], [[-84.55986791747497, -45.02890368254076], [-30.18684237965192, -11.306136886977642]], [[-84.55986791747497, -45.02890368254076], [-64.25155140711621, -2.953749758233434]], [[-84.55986791747497, -45.02890368254076], [39.18152539726003, 58.63771867174219]], [[95.44013208252501, 45.02890368254076], [17.845012339916952, -4.980886633926093]], [[95.44013208252501, 45.02890368254076], [-162.96647615443334, 65.7089691367638]], [[95.44013208252501, 45.02890368254076], [-64.6601642097779, -68.35321371202492]], [[95.44013208252501, 45.02890368254076], [-34.34900733786111, 2.042963049521678]], [[95.44013208252501, 45.02890368254076], [-140.81847460274, -58.63771867174219]], [[95.44013208252501, 45.02890368254076], [-16.799107663031407, 42.12303069967337]], [[30.180225072812494, -28.625582987216912], [-11.794945644935725, -40.930723640178215]], [[30.180225072812494, -28.625582987216912], [-29.596378454404665, -24.64570118359661]], [[-99.08758558752159, 22.12062616276556], [-18.925281213252713, -16.580344009847384]], [[-99.08758558752159, 22.12062616276556], [-30.18684237965192, -11.306136886977642]], [[-99.08758558752159, 22.12062616276556], [-148.67752702995904, 76.9856015992908]], [[-163.06143063219415, -17.926503827826494], [38.43397752883505, 15.991242791652]], [[16.93856936780587, 17.926503827826494], [-28.450491724623166, 8.773140433725718]], [[80.91241441247841, -22.12062616276556], [26.07713315586276, 17.387692215852184]], [[80.91241441247841, -22.12062616276556], [137.35152108752172, 2.9414251421958992]], [[80.91241441247841, -22.12062616276556], [-44.2670512786046, 41.6551383223634]], [[-153.92286684413725, -17.387692215852184], [-106.0598388505422, 9.726997602703248]], [[-54.18933833330643, 42.01309383932411], [-162.15498766008304, 4.980886633926093]], [[-54.18933833330643, 42.01309383932411], [-105.51547885426032, -21.012425202434056]], [[-54.18933833330643, 42.01309383932411], [-64.25155140711621, -2.953749758233434]], [[26.07713315586276, 17.387692215852184], [-15.410088693872494, -10.056958343868404]], [[26.07713315586276, 17.387692215852184], [88.06278653472941, 10.025004584169702]], [[-120.32556877508775, 2.674336893969909], [2.616259179523423, 3.0130545554099224]], [[-162.15498766008304, 4.980886633926093], [102.27583580422476, 52.83532686137999]], [[17.845012339916952, -4.980886633926093], [-78.20883440620595, -26.802654070513686]], [[17.845012339916952, -4.980886633926093], [-15.410088693872494, -10.056958343868404]], [[17.845012339916952, -4.980886633926093], [138.37327454561893, -11.934867554140473]], [[17.845012339916952, -4.980886633926093], [123.31935017877957, -4.882639680479911]], [[59.674431224912254, -2.674336893969909], [24.57422626590152, -26.61434327469077]], [[59.674431224912254, -2.674336893969909], [88.06278653472941, 10.025004584169702]], [[59.674431224912254, -2.674336893969909], [-29.596378454404665, -24.64570118359661]], [[-105.51547885426032, -21.012425202434056], [-12.105112332347826, -74.01967045631758]], [[-105.51547885426032, -21.012425202434056], [-8.05830345072036, 7.23555621108967]], [[-155.4257737340985, 26.61434327469077], [2.616259179523423, 3.0130545554099224]], [[-155.4257737340985, 26.61434327469077], [-62.59240907104361, 28.588606738137642]], [[24.57422626590152, -26.61434327469077], [-63.464706263376726, 43.82228147806806]], [[24.57422626590152, -26.61434327469077], [-78.20883440620595, -26.802654070513686]], [[24.57422626590152, -26.61434327469077], [-34.34900733786111, 2.042963049521678]], [[74.48452114573969, 21.012425202434056], [0.625956119702301, 20.478046782475428]], [[74.48452114573969, 21.012425202434056], [-11.64702233471926, 21.038848983400236]], [[74.48452114573969, 21.012425202434056], [152.74851434912796, 50.07668931310531]], [[74.48452114573969, 21.012425202434056], [127.91829740204676, 20.397513771377987]], [[74.48452114573969, 21.012425202434056], [29.746275005662135, 41.69047717451075]], [[74.48452114573969, 21.012425202434056], [123.31935017877957, -4.882639680479911]], [[-64.78459952711107, -50.25922173676951], [0.625956119702301, 20.478046782475428]], [[-64.78459952711107, -50.25922173676951], [29.06120064387983, -28.49975422503342]], [[101.55332399333741, -29.991561755349892], [-131.4835915356508, -65.36531708889366]], [[115.21540047288893, 50.25922173676951], [158.56780138977643, 47.04672880837853]], [[115.21540047288893, 50.25922173676951], [-63.464706263376726, 43.82228147806806]], [[115.21540047288893, 50.25922173676951], [145.6509926621389, -2.042963049521678]], [[115.21540047288893, 50.25922173676951], [123.31935017877957, -4.882639680479911]], [[163.27478405299954, -21.013442517502693], [14.804072425221818, -16.80126036513618]], [[163.27478405299954, -21.013442517502693], [-85.97170421564991, 26.456705053531167]], [[163.27478405299954, -21.013442517502693], [102.27583580422476, 52.83532686137999]], [[163.27478405299954, -21.013442517502693], [150.40362154559534, 24.64570118359661]], [[163.27478405299954, -21.013442517502693], [64.58517944205809, 42.35500020593849]], [[17.033523845566663, -65.7089691367638], [18.719994665532937, -25.965266825319112]], [[-162.96647615443334, 65.7089691367638], [115.17613320624098, 38.20927544062244]], [[-16.725215947000486, 21.013442517502693], [-6.351834341249018, 58.84060856620032]], [[-16.725215947000486, 21.013442517502693], [-115.41482055794191, -42.35500020593849]], [[-16.725215947000486, 21.013442517502693], [-77.72416419577524, -52.83532686137999]], [[-16.725215947000486, 21.013442517502693], [29.746275005662135, 41.69047717451075]], [[-21.43219861022356, -47.04672880837853], [-62.88453202414014, 6.387658484722442]], [[-21.43219861022356, -47.04672880837853], [48.47293937519572, -1.5899234249231646]], [[-60.16521488046242, 63.35393505755799], [-6.351834341249018, 58.84060856620032]], [[-60.16521488046242, 63.35393505755799], [16.205890255354017, 33.240050269185694]], [[-60.16521488046242, 63.35393505755799], [-150.93879935612017, 28.49975422503342]], [[-60.16521488046242, 63.35393505755799], [-179.3740438802977, -20.478046782475428]], [[158.56780138977643, 47.04672880837853], [-85.93194151854209, 46.20692269205455]], [[173.648165658751, -58.84060856620032], [140.4346759126457, -36.54519106313453]], [[173.648165658751, -58.84060856620032], [115.7484485928838, 2.953749758233434]], [[173.648165658751, -58.84060856620032], [65.05962857951569, -48.39992337223798]], [[14.804072425221818, -16.80126036513618], [116.53529373662327, -43.82228147806806]], [[14.804072425221818, -16.80126036513618], [10.300608092420328, 74.31910800191785]], [[14.804072425221818, -16.80126036513618], [21.05197882302913, -25.614212876968896]], [[-165.19592757477818, 16.80126036513618], [152.44456609335538, -32.342641177095686]], [[-165.19592757477818, 16.80126036513618], [88.74087554461232, 16.90509864733773]], [[-6.351834341249018, 58.84060856620032], [-11.71332598778328, 34.502079431937815]], [[-6.351834341249018, 58.84060856620032], [38.43397752883505, 15.991242791652]], [[-6.351834341249018, 58.84060856620032], [-114.94037142048431, 48.39992337223798]], [[-6.351834341249018, 58.84060856620032], [-41.62672545438108, 11.934867554140473]], [[-6.351834341249018, 58.84060856620032], [53.24571687931014, 12.174509133958223]], [[-6.351834341249018, 58.84060856620032], [-16.799107663031407, 42.12303069967337]], [[-6.351834341249018, 58.84060856620032], [69.36217425391946, 55.81913806633059]], [[-6.351834341249018, 58.84060856620032], [75.62641889689723, 34.07260158293606]], [[-6.351834341249018, 58.84060856620032], [29.746275005662135, 41.69047717451075]], [[-6.351834341249018, 58.84060856620032], [66.62599615557374, 18.097587796949057]], [[-100.49054996916226, -69.14642641164552], [2.616259179523423, 3.0130545554099224]], [[-100.49054996916226, -69.14642641164552], [-15.410088693872494, -10.056958343868404]], [[73.74750974369339, -51.2174072051597], [152.44456609335538, -32.342641177095686]], [[73.74750974369339, -51.2174072051597], [115.7484485928838, 2.953749758233434]], [[73.74750974369339, -51.2174072051597], [48.47293937519572, -1.5899234249231646]], [[-106.25249025630661, 51.2174072051597], [-167.4400736527781, 62.90647734450546]], [[79.50945003083774, 69.14642641164552], [-63.464706263376726, 43.82228147806806]], [[79.50945003083774, 69.14642641164552], [88.74087554461232, 16.90509864733773]], [[116.53529373662327, -43.82228147806806], [-47.94151206520997, 80.11160633434159]], [[116.53529373662327, -43.82228147806806], [-175.55025375074453, 5.910587474975107]], [[116.53529373662327, -43.82228147806806], [0.625956119702301, 20.478046782475428]], [[116.53529373662327, -43.82228147806806], [138.37327454561893, -11.934867554140473]], [[-63.464706263376726, 43.82228147806806], [-179.3740438802977, -20.478046782475428]], [[-63.464706263376726, 43.82228147806806], [115.17613320624098, 38.20927544062244]], [[-105.94424504262707, 24.413973759563188], [134.0307944787813, 44.28673377820974]], [[-105.94424504262707, 24.413973759563188], [-161.58010682858097, 19.282737316618388]], [[-46.75200544877576, -32.994741929711346], [31.32247297004094, -76.9856015992908]], [[133.24799455122422, 32.994741929711346], [-143.97121768987557, 37.07885488903181]], [[133.24799455122422, 32.994741929711346], [102.27583580422476, 52.83532686137999]], [[74.05575495737294, -24.413973759563188], [-18.925281213252713, -16.580344009847384]], [[-62.88453202414014, 6.387658484722442], [-47.560189932087674, -17.35114784340307]], [[-62.88453202414014, 6.387658484722442], [-106.0598388505422, 9.726997602703248]], [[-62.88453202414014, 6.387658484722442], [-29.596378454404665, -24.64570118359661]], [[-96.41137356461651, -41.078932926070785], [29.06120064387983, -28.49975422503342]], [[-96.41137356461651, -41.078932926070785], [-161.28000533446706, 25.965266825319112]], [[-96.41137356461651, -41.078932926070785], [-11.64702233471926, 21.038848983400236]], [[83.5886264353835, 41.078932926070785], [144.12292456358412, -13.638444185173784]], [[83.5886264353835, 41.078932926070785], [-73.91055233394695, 22.49574502973918]], [[83.5886264353835, 41.078932926070785], [168.20505435506428, 40.930723640178215]], [[83.5886264353835, 41.078932926070785], [140.4346759126457, -36.54519106313453]], [[83.5886264353835, 41.078932926070785], [29.999014995031562, 16.59286640883813]], [[117.11546797585986, -6.387658484722442], [115.68532829977751, 23.40587710447995]], [[117.11546797585986, -6.387658484722442], [115.3398357902221, 68.35321371202492]], [[-120.4056975240975, -31.30698572318061], [152.44456609335538, -32.342641177095686]], [[-120.4056975240975, -31.30698572318061], [-156.71478038794845, 68.64349368813063]], [[-35.877075436415886, 13.638444185173784], [-144.2661909551083, 29.110246304265907]], [[144.12292456358412, -13.638444185173784], [177.0093134473974, 21.487976269121624]], [[59.59430247590251, 31.30698572318061], [129.55664225119395, 53.69083503386707]], [[59.59430247590251, 31.30698572318061], [20.16843305190165, 63.475494494776264]], [[-83.17578589576969, -6.785089054053868], [-11.794945644935725, -40.930723640178215]], [[-47.560189932087674, -17.35114784340307], [-78.9890202845586, 63.441118560755136]], [[-47.560189932087674, -17.35114784340307], [143.75899716750575, -34.41174705344238]], [[-47.560189932087674, -17.35114784340307], [48.51640846434921, 65.36531708889366]], [[132.4398100679123, 17.35114784340307], [18.419893171419027, -19.282737316618388]], [[132.4398100679123, 17.35114784340307], [149.81315762034808, 11.306136886977642]], [[132.4398100679123, 17.35114784340307], [100.51482072154397, 54.60285221843881]], [[96.82421410423032, 6.785089054053868], [115.68532829977751, 23.40587710447995]], [[-64.31467170022249, -23.40587710447995], [-56.680649821220435, 4.882639680479911]], [[-64.31467170022249, -23.40587710447995], [-44.2670512786046, 41.6551383223634]], [[-88.50740213349484, 16.51547170069724], [171.94169654927964, -7.23555621108967]], [[-88.50740213349484, 16.51547170069724], [-159.83156694809836, -63.475494494776264]], [[-88.50740213349484, 16.51547170069724], [-114.94037142048431, 48.39992337223798]], [[91.49259786650518, -16.51547170069724], [-150.93879935612017, 28.49975422503342]], [[91.49259786650518, -16.51547170069724], [115.17613320624098, 38.20927544062244]], [[115.68532829977751, 23.40587710447995], [42.507777923859905, -32.01559707387707]], [[115.68532829977751, 23.40587710447995], [62.912124261643264, -18.980640061842138]], [[-119.75162256649324, 66.87878144740061], [-137.49222207614008, 32.01559707387707]], [[-119.75162256649324, 66.87878144740061], [-141.56602247116496, -15.991242791652]], [[-119.75162256649324, 66.87878144740061], [-142.20496802272527, -4.971692336619337]], [[-119.75162256649324, 66.87878144740061], [-78.9890202845586, 63.441118560755136]], [[161.0747187867473, 16.580344009847384], [-143.97121768987557, 37.07885488903181]], [[161.0747187867473, 16.580344009847384], [0.625956119702301, 20.478046782475428]], [[161.0747187867473, 16.580344009847384], [88.06278653472941, 10.025004584169702]], [[161.0747187867473, 16.580344009847384], [100.51482072154397, 54.60285221843881]], [[-18.925281213252713, -16.580344009847384], [36.02878231012444, -37.07885488903181]], [[-18.925281213252713, -16.580344009847384], [35.73380904489168, -29.110246304265907]], [[60.24837743350678, -66.87878144740061], [123.31935017877957, -4.882639680479911]], [[10.300608092420328, 74.31910800191785], [-137.49222207614008, 32.01559707387707]], [[10.300608092420328, 74.31910800191785], [165.12662474141618, 49.49389349329339]], [[10.300608092420328, 74.31910800191785], [-8.05830345072036, 7.23555621108967]], [[10.300608092420328, 74.31910800191785], [-85.97170421564991, 26.456705053531167]], [[10.300608092420328, 74.31910800191785], [-85.93194151854209, 46.20692269205455]], [[10.300608092420328, 74.31910800191785], [0.625956119702301, 20.478046782475428]], [[10.300608092420328, 74.31910800191785], [50.65924088249329, 10.849146129985627]], [[10.300608092420328, 74.31910800191785], [88.06278653472941, 10.025004584169702]], [[10.300608092420328, 74.31910800191785], [75.62641889689723, 34.07260158293606]], [[4.0223744658139555, -3.8404991273297013], [-64.25155140711621, -2.953749758233434]], [[-143.97121768987557, 37.07885488903181], [-73.91055233394695, 22.49574502973918]], [[-143.97121768987557, 37.07885488903181], [179.65020859289677, -26.994047248600037]], [[134.0307944787813, 44.28673377820974], [-150.25372499433786, -41.69047717451075]], [[36.02878231012444, -37.07885488903181], [-39.5653240873543, 36.54519106313453]], [[36.02878231012444, -37.07885488903181], [88.74087554461232, 16.90509864733773]], [[-14.873375258583826, -49.49389349329339], [-41.62672545438108, 11.934867554140473]], [[-14.873375258583826, -49.49389349329339], [37.79503197727474, 4.971692336619337]], [[42.507777923859905, -32.01559707387707], [-149.50736222340038, 40.68258121763627]], [[42.507777923859905, -32.01559707387707], [101.79116559379405, 26.802654070513686]], [[-141.56602247116496, -15.991242791652], [16.205890255354017, 33.240050269185694]], [[-141.56602247116496, -15.991242791652], [-179.3740438802977, -20.478046782475428]], [[-141.56602247116496, -15.991242791652], [-64.6601642097779, -68.35321371202492]], [[-141.56602247116496, -15.991242791652], [94.06805848145792, -46.20692269205455]], [[-11.71332598778328, 34.502079431937815], [-28.450491724623166, 8.773140433725718]], [[-11.71332598778328, 34.502079431937815], [20.16843305190165, 63.475494494776264]], [[168.28667401221674, -34.502079431937815], [-161.28000533446706, 25.965266825319112]], [[168.28667401221674, -34.502079431937815], [127.91829740204676, 20.397513771377987]], [[168.28667401221674, -34.502079431937815], [123.31935017877957, -4.882639680479911]], [[38.43397752883505, 15.991242791652], [29.06120064387983, -28.49975422503342]], [[-73.91055233394695, 22.49574502973918], [35.73380904489168, -29.110246304265907]], [[16.205890255354017, 33.240050269185694], [-142.20496802272527, -4.971692336619337]], [[-163.794109744646, -33.240050269185694], [-114.94037142048431, 48.39992337223798]], [[-163.794109744646, -33.240050269185694], [-64.25155140711621, -2.953749758233434]], [[-163.794109744646, -33.240050269185694], [-167.4400736527781, 62.90647734450546]], [[-163.794109744646, -33.240050269185694], [115.3398357902221, 68.35321371202492]], [[-163.794109744646, -33.240050269185694], [100.51482072154397, 54.60285221843881]], [[-163.794109744646, -33.240050269185694], [37.79503197727474, 4.971692336619337]], [[106.08944766605305, -22.49574502973918], [-39.5653240873543, 36.54519106313453]], [[106.08944766605305, -22.49574502973918], [31.32247297004094, -76.9856015992908]], [[-42.64847891247831, -2.9414251421958992], [-79.1257373408716, 45.976606222055935]], [[-42.64847891247831, -2.9414251421958992], [-50.44335774880604, -53.69083503386707]], [[-42.64847891247831, -2.9414251421958992], [115.17613320624098, 38.20927544062244]], [[-47.94151206520997, 80.11160633434159], [69.36217425391946, 55.81913806633059]], [[132.05848793479004, -80.11160633434159], [53.327728621500604, -27.291200285549735]], [[132.05848793479004, -80.11160633434159], [-44.2670512786046, 41.6551383223634]], [[137.35152108752172, 2.9414251421958992], [143.75899716750575, -34.41174705344238]], [[137.35152108752172, 2.9414251421958992], [88.06278653472941, 10.025004584169702]], [[137.35152108752172, 2.9414251421958992], [100.8742626591284, -45.976606222055935]], [[152.44456609335538, -32.342641177095686], [135.73294872139542, -41.6551383223634]], [[152.44456609335538, -32.342641177095686], [65.05962857951569, -48.39992337223798]], [[28.962825781999484, 24.34002463360767], [39.18152539726003, 58.63771867174219]], [[-152.0547144141994, -52.95501720451084], [164.5899113061275, 10.056958343868404]], [[-152.0547144141994, -52.95501720451084], [115.17613320624098, 38.20927544062244]], [[-152.0547144141994, -52.95501720451084], [35.73380904489168, -29.110246304265907]], [[-8.05830345072036, 7.23555621108967], [-52.08170259795325, -20.397513771377987]], [[-8.05830345072036, 7.23555621108967], [-78.57215590710582, 33.49286262515452]], [[-8.05830345072036, 7.23555621108967], [21.05197882302913, -25.614212876968896]], [[-8.05830345072036, 7.23555621108967], [53.327728621500604, -27.291200285549735]], [[-8.05830345072036, 7.23555621108967], [29.999014995031562, 16.59286640883813]], [[27.945285585800626, 52.95501720451084], [-64.82386679375902, -38.20927544062244]], [[27.945285585800626, 52.95501720451084], [102.27583580422476, 52.83532686137999]], [[27.945285585800626, 52.95501720451084], [-15.410088693872494, -10.056958343868404]], [[27.945285585800626, 52.95501720451084], [64.58517944205809, 42.35500020593849]], [[-78.20883440620595, -26.802654070513686], [-79.1257373408716, 45.976606222055935]], [[-149.50736222340038, 40.68258121763627], [-104.37358110310277, -34.07260158293606]], [[-149.50736222340038, 40.68258121763627], [-148.67752702995904, 76.9856015992908]], [[-149.50736222340038, 40.68258121763627], [123.31935017877957, -4.882639680479911]], [[30.49263777659965, -40.68258121763627], [115.17613320624098, 38.20927544062244]], [[-142.20496802272527, -4.971692336619337], [-79.48517927845603, -54.60285221843881]], [[-142.20496802272527, -4.971692336619337], [-64.6601642097779, -68.35321371202492]], [[-142.20496802272527, -4.971692336619337], [143.75899716750575, -34.41174705344238]], [[-85.97170421564991, 26.456705053531167], [11.524063968902494, 29.89168522185404]], [[-56.680649821220435, 4.882639680479911], [-79.48517927845603, -54.60285221843881]], [[-150.00098500496844, -16.59286640883813], [-110.63782574608054, -55.81913806633059]], [[-150.00098500496844, -16.59286640883813], [138.37327454561893, -11.934867554140473]], [[-91.25912445538769, -16.90509864733773], [108.32110077463571, -8.375626692031489]], [[-91.25912445538769, -16.90509864733773], [0.625956119702301, 20.478046782475428]], [[-91.25912445538769, -16.90509864733773], [-44.2670512786046, 41.6551383223634]], [[-144.2661909551083, 29.110246304265907], [-159.83156694809836, -63.475494494776264]], [[-144.2661909551083, 29.110246304265907], [-39.5653240873543, 36.54519106313453]], [[-144.2661909551083, 29.110246304265907], [11.524063968902494, 29.89168522185404]], [[-79.48517927845603, -54.60285221843881], [31.32247297004094, -76.9856015992908]], [[-30.18684237965192, -11.306136886977642], [82.93649577279412, -21.72737388295319]], [[-159.83156694809836, -63.475494494776264], [-39.5653240873543, 36.54519106313453]], [[-64.82386679375902, -38.20927544062244], [-11.64702233471926, 21.038848983400236]], [[-27.251485650872063, -50.07668931310531], [135.08722102160476, -60.1445217908595]], [[-27.251485650872063, -50.07668931310531], [29.06120064387983, -28.49975422503342]], [[-175.55025375074453, 5.910587474975107], [2.616259179523423, 3.0130545554099224]], [[-175.55025375074453, 5.910587474975107], [138.37327454561893, -11.934867554140473]], [[168.35297766528075, -21.038848983400236], [102.27583580422476, 52.83532686137999]], [[168.35297766528075, -21.038848983400236], [28.10786882332006, 83.73030434162949]], [[168.35297766528075, -21.038848983400236], [117.4075909289564, -28.588606738137642]], [[168.35297766528075, -21.038848983400236], [65.05962857951569, -48.39992337223798]], [[-79.1257373408716, 45.976606222055935], [-78.57215590710582, 33.49286262515452]], [[-79.1257373408716, 45.976606222055935], [140.4346759126457, -36.54519106313453]], [[102.27583580422476, 52.83532686137999], [151.54950827537684, -8.773140433725718]], [[102.27583580422476, 52.83532686137999], [150.40362154559534, 24.64570118359661]], [[102.27583580422476, 52.83532686137999], [18.719994665532937, -25.965266825319112]], [[135.73294872139542, -41.6551383223634], [39.18152539726003, 58.63771867174219]], [[2.616259179523423, 3.0130545554099224], [64.58517944205809, 42.35500020593849]], [[18.719994665532937, -25.965266825319112], [-36.24100283249425, 34.41174705344238]], [[18.719994665532937, -25.965266825319112], [39.18152539726003, 58.63771867174219]], [[163.2008923369686, -42.12303069967337], [82.93649577279412, -21.72737388295319]], [[163.2008923369686, -42.12303069967337], [177.0093134473974, 21.487976269121624]], [[135.08722102160476, -60.1445217908595], [-168.47593603109752, -29.89168522185404]], [[135.08722102160476, -60.1445217908595], [65.05962857951569, -48.39992337223798]], [[-117.08787573835674, 18.980640061842138], [28.10786882332006, 83.73030434162949]], [[-117.08787573835674, 18.980640061842138], [-29.596378454404665, -24.64570118359661]], [[-78.9890202845586, 63.441118560755136], [-0.349791407103244, 26.994047248600037]], [[-85.93194151854209, 46.20692269205455], [-115.41482055794191, -42.35500020593849]], [[-85.93194151854209, 46.20692269205455], [21.05197882302913, -25.614212876968896]], [[-106.0598388505422, 9.726997602703248], [-62.59240907104361, 28.588606738137642]], [[-106.0598388505422, 9.726997602703248], [39.18152539726003, 58.63771867174219]], [[-129.3407591175067, -10.849146129985627], [123.31935017877957, -4.882639680479911]], [[-64.25155140711621, -2.953749758233434], [-77.72416419577524, -52.83532686137999]], [[-64.25155140711621, -2.953749758233434], [4.449746249255471, -5.910587474975107]], [[-39.5653240873543, 36.54519106313453], [39.18152539726003, 58.63771867174219]], [[-39.5653240873543, 36.54519106313453], [66.62599615557374, 18.097587796949057]], [[-150.93879935612017, 28.49975422503342], [-179.3740438802977, -20.478046782475428]], [[-148.67752702995904, 76.9856015992908], [64.58517944205809, 42.35500020593849]], [[-158.94802117697088, 25.614212876968896], [39.18152539726003, 58.63771867174219]], [[-179.3740438802977, -20.478046782475428], [29.999014995031562, 16.59286640883813]], [[39.18152539726003, 58.63771867174219], [145.6509926621389, -2.042963049521678]], [[39.18152539726003, 58.63771867174219], [-0.349791407103244, 26.994047248600037]], [[115.3398357902221, 68.35321371202492], [-11.64702233471926, 21.038848983400236]], [[-64.6601642097779, -68.35321371202492], [115.17613320624098, 38.20927544062244]], [[-34.34900733786111, 2.042963049521678], [21.05197882302913, -25.614212876968896]], [[-34.34900733786111, 2.042963049521678], [64.58517944205809, 42.35500020593849]], [[11.524063968902494, 29.89168522185404], [12.559926347221923, -62.90647734450546]], [[0.625956119702301, 20.478046782475428], [21.05197882302913, -25.614212876968896]], [[0.625956119702301, 20.478046782475428], [-15.410088693872494, -10.056958343868404]], [[0.625956119702301, 20.478046782475428], [88.06278653472941, 10.025004584169702]], [[21.05197882302913, -25.614212876968896], [-44.2670512786046, 41.6551383223634]], [[21.05197882302913, -25.614212876968896], [4.449746249255471, -5.910587474975107]], [[12.559926347221923, -62.90647734450546], [29.06120064387983, -28.49975422503342]], [[-151.89213117667992, -83.73030434162949], [29.06120064387983, -28.49975422503342]], [[-11.794945644935725, -40.930723640178215], [37.79503197727474, 4.971692336619337]], [[29.06120064387983, -28.49975422503342], [-0.349791407103244, 26.994047248600037]], [[64.58517944205809, 42.35500020593849], [94.06805848145792, -46.20692269205455]], [[88.06278653472941, 10.025004584169702], [48.51640846434921, 65.36531708889366]], [[88.06278653472941, 10.025004584169702], [69.36217425391946, 55.81913806633059]], [[18.419893171419027, -19.282737316618388], [62.912124261643264, -18.980640061842138]], [[53.327728621500604, -27.291200285549735], [75.62641889689723, 34.07260158293606]], [[-97.0635042272059, 21.72737388295319], [152.74851434912796, 50.07668931310531]], [[-97.0635042272059, 21.72737388295319], [35.73380904489168, -29.110246304265907]], [[-156.71478038794845, 68.64349368813063], [-29.596378454404665, -24.64570118359661]], [[-156.71478038794845, 68.64349368813063], [115.17613320624098, 38.20927544062244]], [[-44.91277897839524, 60.1445217908595], [-0.349791407103244, 26.994047248600037]], [[-16.799107663031407, 42.12303069967337], [69.36217425391946, 55.81913806633059]], [[48.51640846434921, 65.36531708889366], [75.62641889689723, 34.07260158293606]], [[-71.6788992253643, 8.375626692031489], [100.8742626591284, -45.976606222055935]], [[-28.450491724623166, 8.773140433725718], [20.16843305190165, 63.475494494776264]], [[100.8742626591284, -45.976606222055935], [-11.64702233471926, 21.038848983400236]], [[4.449746249255471, -5.910587474975107], [75.62641889689723, 34.07260158293606]], [[115.17613320624098, 38.20927544062244], [35.73380904489168, -29.110246304265907]], [[127.91829740204676, 20.397513771377987], [100.51482072154397, 54.60285221843881]], [[35.73380904489168, -29.110246304265907], [29.746275005662135, 41.69047717451075]], [[35.73380904489168, -29.110246304265907], [37.79503197727474, 4.971692336619337]]]}}]}