{"type": "FeatureCollection", "name": "E8_proj_seed1328 grid", "properties": {"shape": "E8_proj_seed1328", "lock_lat": 35.0, "lock_lon": -165.0, "bearing": 60.0}, "features": [{"type": "Feature", "properties": {"kind": "grid_vertices", "shape": "E8_proj_seed1328", "count": 240, "ids": ["V1", "V2", "V3", "V4", "V5", "V6", "V7", "V8", "V9", "V10", "V11", "V12", "V13", "V14", "V15", "V16", "V17", "V18", "V19", "V20", "V21", "V22", "V23", "V24", "V25", "V26", "V27", "V28", "V29", "V30", "V31", "V32", "V33", "V34", "V35", "V36", "V37", "V38", "V39", "V40", "V41", "V42", "V43", "V44", "V45", "V46", "V47", "V48", "V49", "V50", "V51", "V52", "V53", "V54", "V55", "V56", "V57", "V58", "V59", "V60", "V61", "V62", "V63", "V64", "V65", "V66", "V67", "V68", "V69", "V70", "V71", "V72", "V73", "V74", "V75", "V76", "V77", "V78", "V79", "V80", "V81", "V82", "V83", "V84", "V85", "V86", "V87", "V88", "V89", "V90", "V91", "V92", "V93", "V94", "V95", "V96", "V97", "V98", "V99", "V100", "V101", "V102", "V103", "V104", "V105", "V106", "V107", "V108", "V109", "V110", "V111", "V112", "V113", "V114", "V115", "V116", "V117", "V118", "V119", "V120", "V121", "V122", "V123", "V124", "V125", "V126", "V127", "V128", "V129", "V130", "V131", "V132", "V133", "V134", "V135", "V136", "V137", "V138", "V139", "V140", "V141", "V142", "V143", "V144", "V145", "V146", "V147", "V148", "V149", "V150", "V151", "V152", "V153", "V154", "V155", "V156", "V157", "V158", "V159", "V160", "V161", "V162", "V163", "V164", "V165", "V166", "V167", "V168", "V169", "V170", "V171", "V172", "V173", "V174", "V175", "V176", "V177", "V178", "V179", "V180", "V181", "V182", "V183", "V184", "V185", "V186", "V187", "V188", "V189", "V190", "V191", "V192", "V193", "V194", "V195", "V196", "V197", "V198", "V199", "V200", "V201", "V202", "V203", "V204", "V205", "V206", "V207", "V208", "V209", "V210", "V211", "V212", "V213", "V214", "V215", "V216", "V217", "V218", "V219", "V220", "V221", "V222", "V223", "V224", "V225", "V226", "V227", "V228", "V229", "V230", "V231", "V232", "V233", "V234", "V235", "V236", "V237", "V238", "V239", "V240"]}, "geometry": {"type": "MultiPoint", "coordinates": [[-68.47805830092688, -40.83258441203489], [-33.70802113767409, -15.149463290694035], [146.29197886232592, 15.149463290694035], [111.52194169907314, 40.83258441203489], [-20.84314789413151, -59.14495876062062], [-63.628461524617336, -7.755840339834301], [116.37153847538266, 7.755840339834301], [159.1568521058685, 59.14495876062062], [-53.86394179696535, -1.6744276658842259], [-46.98313425602558, -63.15844857380203], [133.01686574397442, 63.15844857380203], [126.13605820303465, 1.6744276658842259], [-59.988182752970225, 2.5689895985554645], [-39.96584617319292, -56.82060919113016], [140.03415382680708, 56.82060919113016], [120.01181724702978, -2.5689895985554645], [-92.14667217421322, -22.2450535125871], [-13.275914527293724, -27.78585567499714], [166.7240854727063, 27.78585567499714], [87.85332782578679, 22.2450535125871], [-42.49519687877778, -29.830396503863156], [-61.667967371292455, -32.028460046858314], [118.33203262870757, 32.028460046858314], [137.5048031212222, 29.830396503863156], [-20.593299400194798, -11.694592180721171], [-96.89703970400862, -40.53864956126763], [83.10296029599138, 40.53864956126763], [159.4067005998052, 11.694592180721171], [128.49949134219943, -59.19485203673187], [-101.4967828748505, 4.597036462590683], [78.50321712514952, -4.597036462590683], [-51.500508657800566, 59.19485203673187], [-90.49265587412742, 21.693550098549615], [163.99719304576934, -63.55184566460397], [-16.002806954230643, 63.55184566460397], [89.50734412587259, -21.693550098549615], [-116.05493754340185, 31.290619264218993], [172.88763266633183, -78.54242469846727], [-7.112367333668205, 78.54242469846727], [63.94506245659816, -31.290619264218993], [-141.15230838907647, -12.304030355369498], [29.652012981418114, -39.38390273857392], [-150.34798701858188, 39.38390273857392], [38.84769161092354, 12.304030355369498], [-115.20760229475665, -63.66308037363817], [-139.72769232731918, -35.6574901417187], [40.27230767268084, 35.6574901417187], [64.79239770524336, 63.66308037363817], [4.88087482663574, -3.1927671991349276], [-152.5008395181236, -30.518185364855576], [27.499160481876405, 30.518185364855576], [-175.11912517336427, 3.1927671991349276], [54.334205303836825, 31.410313895196555], [106.18785778179243, -45.14633266401509], [-73.81214221820757, 45.14633266401509], [-125.66579469616318, -31.410313895196555], [102.87755757318003, 38.55030845886495], [92.60966401778526, -52.12065887685686], [-87.39033598221475, 52.12065887685686], [-77.12244242681997, -38.55030845886495], [172.99353613348433, -23.322472757887105], [59.94814599548872, -21.8405562141368], [-120.05185400451128, 21.8405562141368], [-7.006463866515675, 23.322472757887105], [81.80592675558383, -30.551808807845294], [112.71788334906707, -37.8036894284061], [-67.28211665093293, 37.8036894284061], [-98.19407324441617, 30.551808807845294], [50.736098033700976, -4.984999393234684], [159.5826601385096, -39.55924893887099], [-20.417339861490415, 39.55924893887099], [-129.26390196629902, 4.984999393234684], [-72.1130605734618, 62.598930671157895], [-23.151671995947808, -20.760183926717716], [156.8483280040522, 20.760183926717716], [107.88693942653822, -62.598930671157895], [-118.45516408637407, 34.53507646932125], [8.496219953686824, 28.3010994845029], [-171.50378004631318, -28.3010994845029], [61.54483591362593, -34.53507646932125], [-36.58775692708268, 51.93420279902769], [-81.69462142306932, 51.65823713772323], [98.30537857693068, -51.65823713772323], [143.4122430729173, -51.93420279902769], [-4.677724741784957, 42.167363103330956], [-130.44774070942802, 17.583248640120512], [49.55225929057199, -17.583248640120512], [175.32227525821506, -42.167363103330956], [-132.84526718511282, 36.69818233705905], [19.528335123640456, 39.82621272293485], [-160.47166487635957, -39.82621272293485], [47.15473281488717, -36.69818233705905], [-52.2716460993595, 72.20354789209793], [-116.41771629927746, 60.0117202721104], [63.58228370072255, -60.0117202721104], [127.72835390064051, -72.20354789209793], [1.5807651614147484, 52.98360273072003], [-145.4005499499353, 20.96413603890192], [34.599450050064675, -20.96413603890192], [-178.41923483858525, -52.98360273072003], [-142.2026517681784, 8.539093116451225], [-145.21687433841808, 4.4565610082940275], [34.78312566158193, -4.4565610082940275], [37.797348231821594, -8.539093116451225], [-68.98015611454528, 60.261679187949206], [-151.80868932484373, -7.745560637214793], [28.191310675156288, 7.745560637214793], [111.01984388545472, -60.261679187949206], [21.69914453458506, 18.146335297816655], [-162.28739920748652, -25.23401479515107], [17.712600792513506, 25.23401479515107], [-158.30085546541494, -18.146335297816655], [-56.74847092151704, 11.56921221381136], [-118.40881193490883, -9.114031003998154], [-51.118282281394286, -27.21280718163092], [-11.728902866812088, 2.8437131284282073], [-119.48004068492385, -49.69861123283156], [-58.7247724094552, -47.24551209171159], [7.949731463525659, -29.28642697703301], [-50.19670386507099, -73.67517509752112], [-138.43827577438014, -43.49360778856085], [-85.92122282824012, -53.58076589841421], [16.47585048825786, -30.27219293670873], [-118.05110015858466, -81.52266572887372], [5.40225940619385, -80.02045466786393], [-154.3827972495577, -60.774585378137175], [64.37849567119282, -80.29639082339934], [30.647217282728917, -55.219719029644054], [-102.04960852687582, 9.266557354888658], [-76.82049967523011, 22.722319837595197], [-31.43505236080686, 19.41699242023319], [-78.4874116638583, 7.619843118934004], [-63.18102820446451, -6.546977072805446], [-109.12541260581877, -17.935529968118605], [-61.538124777889315, -32.77370273739077], [-27.429126791705258, -11.062399560263716], [-74.26842996238464, -1.4641648470188247], [-119.86835656229134, -14.112546721472157], [-76.19707881303451, -33.980975761081616], [-28.693518110933564, -8.025637148854097], [-121.20722374389918, -45.60875722084592], [-81.47089131729182, -47.09885772712198], [-4.435905442405931, -40.14241687759785], [-88.00057123758603, -68.52479504633588], [-102.74571432888295, 14.967035221424318], [-44.252908571206234, 36.49697344333412], [5.590660491252052, 17.061598127100225], [-31.90319234463954, 9.72348409370926], [-9.659072110889266, -16.134813072043965], [-120.7565315783328, -42.81074483164771], [10.907462634994337, -46.291995265217885], [14.531110016505732, -13.420331285346053], [-1.035852572309111, -12.582207596805556], [-144.28424135868076, -32.91538912344302], [33.21357345964173, -52.39589075925642], [23.457229271174704, -10.615945412132932], [-175.41183508513888, -72.14019150930177], [32.32472982274228, -68.05588633543235], [34.20437825450316, -32.784969669266694], [64.53951822135241, -70.26202966800068], [-54.73101341972807, 37.65532767616916], [-100.44734836485786, 23.303312165045003], [-51.29980182741373, 27.765943959477745], [-24.310555801681026, 31.239554558814643], [-94.22682075069636, -5.20821593336688], [-55.304020110417184, 12.693110815700152], [-8.238260218656723, 5.518135376773767], [-51.00416874014855, -14.63305009387681], [-109.44058514658549, 0.515750070624374], [-65.91184030415702, 22.70793617345174], [-4.92040323024861, 11.457818896433977], [-64.53553156812946, -10.182813958852842], [-35.10936158466792, -31.543678559033278], [-122.39955675128077, -39.39764453160333], [-16.8423855524147, -61.659356478001584], [4.37071531587947, -24.401696809018283], [-175.62928468412053, 24.401696809018283], [163.1576144475853, 61.659356478001584], [57.60044324871924, 39.39764453160333], [144.89063841533206, 31.543678559033278], [115.46446843187056, 10.182813958852842], [175.0795967697514, -11.457818896433977], [114.08815969584299, -22.70793617345174], [70.55941485341451, -0.515750070624374], [128.99583125985146, 14.63305009387681], [171.7617397813433, -5.518135376773767], [124.69597988958283, -12.693110815700152], [85.77317924930364, 5.20821593336688], [155.689444198319, -31.239554558814643], [128.70019817258625, -27.765943959477745], [79.55265163514215, -23.303312165045003], [125.26898658027193, -37.65532767616916], [-115.46048177864758, 70.26202966800068], [-145.79562174549685, 32.784969669266694], [-147.67527017725774, 68.05588633543235], [4.588164914861124, 72.14019150930177], [-156.5427707288253, 10.615945412132932], [-146.78642654035826, 52.39589075925642], [35.71575864131925, 32.91538912344302], [178.9641474276909, 12.582207596805556], [-165.46888998349428, 13.420331285346053], [-169.09253736500565, 46.291995265217885], [59.24346842166722, 42.81074483164771], [170.34092788911073, 16.134813072043965], [148.09680765536046, -9.72348409370926], [-174.40933950874796, -17.061598127100225], [135.7470914287938, -36.49697344333412], [77.25428567111705, -14.967035221424318], [91.99942876241398, 68.52479504633588], [175.56409455759407, 40.14241687759785], [98.5291086827082, 47.09885772712198], [58.79277625610082, 45.60875722084592], [151.30648188906645, 8.025637148854097], [103.80292118696549, 33.980975761081616], [60.13164343770867, 14.112546721472157], [105.73157003761537, 1.4641648470188247], [152.57087320829476, 11.062399560263716], [118.46187522211069, 32.77370273739077], [70.87458739418123, 17.935529968118605], [116.81897179553549, 6.546977072805446], [101.51258833614172, -7.619843118934004], [148.56494763919315, -19.41699242023319], [103.17950032476989, -22.722319837595197], [77.95039147312418, -9.266557354888658], [-149.35278271727108, 55.219719029644054], [-115.62150432880716, 80.29639082339934], [25.617202750442313, 60.774585378137175], [-174.59774059380615, 80.02045466786393], [61.94889984141536, 81.52266572887372], [-163.52414951174214, 30.27219293670873], [94.07877717175988, 53.58076589841421], [41.56172422561988, 43.49360778856085], [129.803296134929, 73.67517509752112], [-172.05026853647433, 29.28642697703301], [121.2752275905448, 47.24551209171159], [60.51995931507614, 49.69861123283156], [168.2710971331879, -2.8437131284282073], [128.88171771860573, 27.21280718163092], [61.59118806509119, 9.114031003998154], [123.25152907848297, -11.56921221381136]]}}, {"type": "Feature", "properties": {"kind": "grid_edges", "shape": "E8_proj_seed1328", "count": 375, "ids": ["E1", "E2", "E3", "E4", "E5", "E6", "E7", "E8", "E9", "E10", "E11", "E12", "E13", "E14", "E15", "E16", "E17", "E18", "E19", "E20", "E21", "E22", "E23", "E24", "E25", "E26", "E27", "E28", "E29", "E30", "E31", "E32", "E33", "E34", "E35", "E36", "E37", "E38", "E39", "E40", "E41", "E42", "E43", "E44", "E45", "E46", "E47", "E48", "E49", "E50", "E51", "E52", "E53", "E54", "E55", "E56", "E57", "E58", "E59", "E60", "E61", "E62", "E63", "E64", "E65", "E66", "E67", "E68", "E69", "E70", "E71", "E72", "E73", "E74", "E75", "E76", "E77", "E78", "E79", "E80", "E81", "E82", "E83", "E84", "E85", "E86", "E87", "E88", "E89", "E90", "E91", "E92", "E93", "E94", "E95", "E96", "E97", "E98", "E99", "E100", "E101", "E102", "E103", "E104", "E105", "E106", "E107", "E108", "E109", "E110", "E111", "E112", "E113", "E114", "E115", "E116", "E117", "E118", "E119", "E120", "E121", "E122", "E123", "E124", "E125", "E126", "E127", "E128", "E129", "E130", "E131", "E132", "E133", "E134", "E135", "E136", "E137", "E138", "E139", "E140", "E141", "E142", "E143", "E144", "E145", "E146", "E147", "E148", "E149", "E150", "E151", "E152", "E153", "E154", "E155", "E156", "E157", "E158", "E159", "E160", "E161", "E162", "E163", "E164", "E165", "E166", "E167", "E168", "E169", "E170", "E171", "E172", "E173", "E174", "E175", "E176", "E177", "E178", "E179", "E180", "E181", "E182", "E183", "E184", "E185", "E186", "E187", "E188", "E189", "E190", "E191", "E192", "E193", "E194", "E195", "E196", "E197", "E198", "E199", "E200", "E201", "E202", "E203", "E204", "E205", "E206", "E207", "E208", "E209", "E210", "E211", "E212", "E213", "E214", "E215", "E216", "E217", "E218", "E219", "E220", "E221", "E222", "E223", "E224", "E225", "E226", "E227", "E228", "E229", "E230", "E231", "E232", "E233", "E234", "E235", "E236", "E237", "E238", "E239", "E240", "E241", "E242", "E243", "E244", "E245", "E246", "E247", "E248", "E249", "E250", "E251", "E252", "E253", "E254", "E255", "E256", "E257", "E258", "E259", "E260", "E261", "E262", "E263", "E264", "E265", "E266", "E267", "E268", "E269", "E270", "E271", "E272", "E273", "E274", "E275", "E276", "E277", "E278", "E279", "E280", "E281", "E282", "E283", "E284", "E285", "E286", "E287", "E288", "E289", "E290", "E291", "E292", "E293", "E294", "E295", "E296", "E297", "E298", "E299", "E300", "E301", "E302", "E303", "E304", "E305", "E306", "E307", "E308", "E309", "E310", "E311", "E312", "E313", "E314", "E315", "E316", "E317", "E318", "E319", "E320", "E321", "E322", "E323", "E324", "E325", "E326", "E327", "E328", "E329", "E330", "E331", "E332", "E333", "E334", "E335", "E336", "E337", "E338", "E339", "E340", "E341", "E342", "E343", "E344", "E345", "E346", "E347", "E348", "E349", "E350", "E351", "E352", "E353", "E354", "E355", "E356", "E357", "E358", "E359", "E360", "E361", "E362", "E363", "E364", "E365", "E366", "E367", "E368", "E369", "E370", "E371", "E372", "E373", "E374", "E375"], "pairs": [[0, 131], [1, 31], [1, 38], [1, 42], [2, 44], [2, 182], [2, 198], [2, 204], [3, 19], [4, 112], [5, 130], [5, 139], [6, 28], [6, 65], [6, 177], [6, 191], [7, 26], [7, 203], [8, 133], [8, 146], [9, 141], [9, 168], [10, 54], [10, 183], [11, 202], [12, 74], [12, 93], [12, 129], [14, 216], [14, 218], [15, 90], [15, 95], [15, 213], [15, 231], [16, 112], [18, 189], [18, 221], [19, 22], [19, 41], [19, 63], [19, 102], [19, 195], [19, 231], [20, 66], [20, 112], [20, 156], [21, 93], [21, 131], [21, 161], [22, 186], [22, 190], [22, 198], [22, 204], [23, 45], [23, 215], [23, 225], [23, 235], [24, 108], [24, 136], [25, 71], [25, 171], [26, 96], [26, 189], [26, 204], [26, 226], [29, 70], [29, 139], [29, 192], [29, 206], [30, 211], [31, 35], [31, 66], [31, 171], [31, 232], [31, 237], [32, 116], [32, 134], [32, 177], [32, 179], [32, 180], [32, 193], [33, 86], [34, 39], [34, 77], [35, 234], [35, 237], [36, 93], [36, 122], [36, 192], [36, 202], [37, 142], [37, 188], [37, 196], [37, 204], [38, 144], [38, 152], [38, 219], [39, 73], [39, 212], [40, 78], [40, 184], [40, 192], [40, 204], [41, 134], [41, 198], [42, 104], [42, 152], [43, 158], [43, 215], [43, 227], [44, 126], [44, 130], [44, 180], [44, 198], [46, 51], [46, 66], [46, 108], [46, 144], [46, 164], [46, 172], [46, 210], [46, 212], [46, 220], [47, 103], [47, 111], [47, 147], [47, 151], [47, 175], [47, 209], [48, 86], [48, 141], [49, 206], [50, 152], [50, 175], [50, 213], [50, 218], [51, 230], [52, 72], [52, 76], [52, 80], [52, 147], [52, 176], [52, 179], [52, 181], [52, 209], [53, 56], [54, 71], [54, 76], [54, 77], [54, 165], [54, 166], [55, 237], [56, 65], [56, 123], [56, 144], [57, 117], [57, 151], [58, 62], [58, 136], [58, 168], [60, 180], [61, 106], [61, 118], [62, 70], [62, 228], [63, 134], [63, 138], [63, 171], [63, 239], [64, 126], [65, 101], [65, 110], [65, 117], [65, 151], [65, 181], [65, 217], [66, 71], [66, 174], [66, 194], [66, 202], [66, 236], [67, 70], [67, 231], [67, 233], [68, 104], [68, 148], [68, 184], [69, 97], [69, 215], [70, 86], [70, 129], [70, 204], [71, 87], [72, 85], [72, 89], [72, 112], [72, 115], [72, 209], [72, 224], [73, 85], [73, 198], [74, 218], [76, 84], [76, 192], [77, 107], [77, 162], [77, 230], [79, 123], [79, 235], [80, 85], [80, 194], [81, 133], [81, 179], [81, 213], [81, 231], [82, 108], [82, 136], [82, 152], [82, 184], [82, 232], [83, 110], [83, 155], [84, 129], [84, 132], [84, 178], [84, 214], [86, 104], [86, 235], [86, 238], [87, 154], [87, 216], [87, 234], [88, 112], [88, 208], [89, 115], [89, 138], [89, 202], [89, 219], [92, 100], [92, 114], [92, 162], [93, 103], [93, 110], [93, 161], [93, 235], [94, 100], [94, 156], [94, 212], [95, 189], [95, 191], [95, 237], [95, 239], [96, 121], [96, 130], [96, 163], [96, 187], [96, 218], [97, 216], [98, 104], [98, 165], [98, 237], [99, 206], [100, 108], [101, 173], [102, 106], [102, 108], [102, 122], [102, 162], [102, 238], [103, 163], [103, 167], [104, 189], [104, 220], [105, 221], [106, 198], [107, 131], [107, 147], [109, 162], [110, 141], [110, 157], [110, 235], [111, 209], [112, 120], [113, 121], [113, 145], [114, 182], [114, 210], [115, 195], [122, 136], [122, 154], [122, 178], [122, 202], [124, 156], [126, 188], [128, 160], [128, 194], [129, 160], [130, 139], [130, 226], [132, 142], [134, 135], [134, 150], [134, 166], [134, 199], [135, 167], [137, 171], [137, 205], [139, 202], [142, 238], [144, 216], [145, 217], [148, 151], [151, 167], [151, 183], [151, 223], [152, 172], [152, 184], [154, 162], [154, 219], [155, 211], [155, 217], [157, 217], [157, 220], [159, 191], [161, 171], [161, 227], [163, 226], [167, 175], [167, 239], [172, 228], [175, 207], [175, 237], [176, 208], [176, 209], [177, 189], [178, 226], [179, 210], [180, 228], [182, 194], [183, 195], [183, 211], [184, 187], [184, 204], [187, 203], [188, 222], [189, 197], [189, 201], [192, 202], [193, 205], [194, 210], [196, 224], [197, 231], [198, 206], [203, 235], [204, 228], [204, 232], [204, 237], [208, 217], [209, 210], [211, 218], [211, 223], [212, 230], [213, 214], [213, 215], [213, 221], [213, 225], [214, 231], [215, 230], [215, 231], [218, 226], [219, 222], [220, 237], [231, 239], [234, 236], [238, 239]], "support_counts": [1, 1, 1, 1, 1, 1, 1, 1, 1, 1, 1, 1, 1, 1, 1, 1, 1, 1, 1, 1, 1, 1, 1, 1, 1, 1, 1, 1, 1, 1, 1, 1, 1, 1, 1, 1, 1, 1, 1, 1, 1, 1, 1, 1, 1, 1, 1, 1, 1, 1, 1, 1, 1, 1, 1, 1, 1, 1, 1, 1, 1, 1, 1, 1, 1, 1, 2, 1, 1, 1, 1, 1, 1, 1, 1, 1, 1, 1, 1, 1, 1, 1, 1, 1, 1, 1, 1, 1, 1, 2, 1, 1, 1, 1, 1, 1, 1, 1, 1, 1, 1, 1, 1, 1, 1, 1, 1, 1, 1, 1, 1, 2, 1, 1, 1, 2, 1, 1, 1, 1, 1, 1, 1, 1, 2, 1, 1, 1, 1, 1, 1, 1, 1, 1, 1, 1, 1, 1, 1, 1, 1, 1, 1, 1, 1, 1, 1, 1, 1, 1, 1, 1, 1, 1, 1, 1, 1, 1, 1, 1, 1, 1, 1, 1, 1, 1, 1, 1, 1, 1, 1, 1, 1, 1, 1, 1, 1, 1, 1, 1, 1, 1, 1, 1, 2, 1, 1, 1, 1, 1, 1, 1, 1, 1, 1, 1, 1, 1, 1, 1, 1, 1, 1, 1, 1, 1, 1, 1, 1, 1, 1, 1, 1, 1, 1, 1, 1, 1, 1, 1, 1, 1, 1, 1, 1, 1, 1, 1, 1, 1, 1, 1, 1, 1, 1, 1, 1, 1, 1, 1, 1, 1, 1, 1, 1, 1, 1, 1, 1, 1, 1, 1, 1, 1, 1, 1, 1, 1, 1, 1, 1, 1, 1, 1, 1, 1, 1, 1, 1, 1, 1, 1, 1, 1, 1, 1, 1, 1, 1, 1, 1, 1, 1, 1, 1, 2, 3, 1, 1, 1, 1, 1, 1, 1, 1, 1, 1, 1, 1, 1, 1, 1, 1, 1, 1, 1, 1, 1, 1, 1, 1, 1, 1, 1, 1, 1, 1, 1, 1, 1, 1, 1, 1, 1, 1, 1, 2, 1, 1, 1, 1, 1, 1, 1, 1, 1, 1, 1, 1, 1, 1, 1, 1, 1, 1, 1, 1, 1, 1, 1, 1, 1, 1, 1, 2, 1, 1, 1, 1, 1, 1, 1, 1, 1, 1, 1, 1, 1, 1, 1, 1, 1, 1, 1, 1], "support_class": ["single", "single", "single", "single", "single", "single", "single", "single", "single", "single", "single", "single", "single", "single", "single", "single", "single", "single", "single", "single", "single", "single", "single", "single", "single", "single", "single", "single", "single", "single", "single", "single", "single", "single", "single", "single", "single", "single", "single", "single", "single", "single", "single", "single", "single", "single", "single", "single", "single", "single", "single", "single", "single", "single", "single", "single", "single", "single", "single", "single", "single", "single", "single", "single", "single", "single", "shared", "single", "single", "single", "single", "single", "single", "single", "single", "single", "single", "single", "single", "single", "single", "single", "single", "single", "single", "single", "single", "single", "single", "shared", "single", "single", "single", "single", "single", "single", "single", "single", "single", "single", "single", "single", "single", "single", "single", "single", "single", "single", "single", "single", "single", "shared", "single", "single", "single", "shared", "single", "single", "single", "single", "single", "single", "single", "single", "shared", "single", "single", "single", "single", "single", "single", "single", "single", "single", "single", "single", "single", "single", "single", "single", "single", "single", "single", "single", "single", "single", "single", "single", "single", "single", "single", "single", "single", "single", "single", "single", "single", "single", "single", "single", "single", "single", "single", "single", "single", "single", "single", "single", "single", "single", "single", "single", "single", "single", "single", "single", "single", "single", "single", "single", "single", "single", "single", "single", "shared", "single", "single", "single", "single", "single", "single", "single", "single", "single", "single", "single", "single", "single", "single", "single", "single", "single", "single", "single", "single", "single", "single", "single", "single", "single", "single", "single", "single", "single", "single", "single", "single", "single", "single", "single", "single", "single", "single", "single", "single", "single", "single", "single", "single", "single", "single", "single", "single", "single", "single", "single", "single", "single", "single", "single", "single", "single", "single", "single", "single", "single", "single", "single", "single", "single", "single", "single", "single", "single", "single", "single", "single", "single", "single", "single", "single", "single", "single", "single", "single", "single", "single", "single", "single", "single", "single", "single", "single", "single", "single", "single", "single", "single", "single", "single", "single", "single", "single", "single", "single", "shared", "shared", "single", "single", "single", "single", "single", "single", "single", "single", "single", "single", "single", "single", "single", "single", "single", "single", "single", "single", "single", "single", "single", "single", "single", "single", "single", "single", "single", "single", "single", "single", "single", "single", "single", "single", "single", "single", "single", "single", "single", "shared", "single", "single", "single", "single", "single", "single", "single", "single", "single", "single", "single", "single", "single", "single", "single", "single", "single", "single", "single", "single", "single", "single", "single", "single", "single", "single", "single", "shared", "single", "single", "single", "single", "single", "single", "single", "single", "single", "single", "single", "single", "single", "single", "single", "single", "single", "single", "single", "single"]}, "geometry": {"type": "MultiLineString", "coordinates": [[[-68.47805830092688, -40.83258441203489], [-78.4874116638583, 7.619843118934004]], [[-33.70802113767409, -15.149463290694035], [-51.500508657800566, 59.19485203673187]], [[-33.70802113767409, -15.149463290694035], [-7.112367333668205, 78.54242469846727]], [[-33.70802113767409, -15.149463290694035], [-150.34798701858188, 39.38390273857392]], [[146.29197886232592, 15.149463290694035], [-115.20760229475665, -63.66308037363817]], [[146.29197886232592, 15.149463290694035], [114.08815969584299, -22.70793617345174]], [[146.29197886232592, 15.149463290694035], [35.71575864131925, 32.91538912344302]], [[146.29197886232592, 15.149463290694035], [148.09680765536046, -9.72348409370926]], [[111.52194169907314, 40.83258441203489], [87.85332782578679, 22.2450535125871]], [[-20.84314789413151, -59.14495876062062], [-56.74847092151704, 11.56921221381136]], [[-63.628461524617336, -7.755840339834301], [-31.43505236080686, 19.41699242023319]], [[-63.628461524617336, -7.755840339834301], [-28.693518110933564, -8.025637148854097]], [[116.37153847538266, 7.755840339834301], [128.49949134219943, -59.19485203673187]], [[116.37153847538266, 7.755840339834301], [112.71788334906707, -37.8036894284061]], [[116.37153847538266, 7.755840339834301], [163.1576144475853, 61.659356478001584]], [[116.37153847538266, 7.755840339834301], [125.26898658027193, -37.65532767616916]], [[159.1568521058685, 59.14495876062062], [83.10296029599138, 40.53864956126763]], [[159.1568521058685, 59.14495876062062], [170.34092788911073, 16.134813072043965]], [[-53.86394179696535, -1.6744276658842259], [-109.12541260581877, -17.935529968118605]], [[-53.86394179696535, -1.6744276658842259], [5.590660491252052, 17.061598127100225]], [[-46.98313425602558, -63.15844857380203], [-81.47089131729182, -47.09885772712198]], [[-46.98313425602558, -63.15844857380203], [-109.44058514658549, 0.515750070624374]], [[133.01686574397442, 63.15844857380203], [-73.81214221820757, 45.14633266401509]], [[133.01686574397442, 63.15844857380203], [70.55941485341451, -0.515750070624374]], [[126.13605820303465, 1.6744276658842259], [59.24346842166722, 42.81074483164771]], [[-59.988182752970225, 2.5689895985554645], [156.8483280040522, 20.760183926717716]], [[-59.988182752970225, 2.5689895985554645], [-116.41771629927746, 60.0117202721104]], [[-59.988182752970225, 2.5689895985554645], [-76.82049967523011, 22.722319837595197]], [[140.03415382680708, 56.82060919113016], [152.57087320829476, 11.062399560263716]], [[140.03415382680708, 56.82060919113016], [70.87458739418123, 17.935529968118605]], [[120.01181724702978, -2.5689895985554645], [-160.47166487635957, -39.82621272293485]], [[120.01181724702978, -2.5689895985554645], [127.72835390064051, -72.20354789209793]], [[120.01181724702978, -2.5689895985554645], [103.80292118696549, 33.980975761081616]], [[120.01181724702978, -2.5689895985554645], [41.56172422561988, 43.49360778856085]], [[-92.14667217421322, -22.2450535125871], [-56.74847092151704, 11.56921221381136]], [[166.7240854727063, 27.78585567499714], [128.70019817258625, -27.765943959477745]], [[166.7240854727063, 27.78585567499714], [148.56494763919315, -19.41699242023319]], [[87.85332782578679, 22.2450535125871], [118.33203262870757, 32.028460046858314]], [[87.85332782578679, 22.2450535125871], [29.652012981418114, -39.38390273857392]], [[87.85332782578679, 22.2450535125871], [-7.006463866515675, 23.322472757887105]], [[87.85332782578679, 22.2450535125871], [34.78312566158193, -4.4565610082940275]], [[87.85332782578679, 22.2450535125871], [4.588164914861124, 72.14019150930177]], [[87.85332782578679, 22.2450535125871], [41.56172422561988, 43.49360778856085]], [[-42.49519687877778, -29.830396503863156], [-67.28211665093293, 37.8036894284061]], [[-42.49519687877778, -29.830396503863156], [-56.74847092151704, 11.56921221381136]], [[-42.49519687877778, -29.830396503863156], [-175.41183508513888, -72.14019150930177]], [[-61.667967371292455, -32.028460046858314], [-116.41771629927746, 60.0117202721104]], [[-61.667967371292455, -32.028460046858314], [-78.4874116638583, 7.619843118934004]], [[-61.667967371292455, -32.028460046858314], [-100.44734836485786, 23.303312165045003]], [[118.33203262870757, 32.028460046858314], [124.69597988958283, -12.693110815700152]], [[118.33203262870757, 32.028460046858314], [79.55265163514215, -23.303312165045003]], [[118.33203262870757, 32.028460046858314], [35.71575864131925, 32.91538912344302]], [[118.33203262870757, 32.028460046858314], [148.09680765536046, -9.72348409370926]], [[137.5048031212222, 29.830396503863156], [-139.72769232731918, -35.6574901417187]], [[137.5048031212222, 29.830396503863156], [105.73157003761537, 1.4641648470188247]], [[137.5048031212222, 29.830396503863156], [-115.62150432880716, 80.29639082339934]], [[137.5048031212222, 29.830396503863156], [60.51995931507614, 49.69861123283156]], [[-20.593299400194798, -11.694592180721171], [21.69914453458506, 18.146335297816655]], [[-20.593299400194798, -11.694592180721171], [-74.26842996238464, -1.4641648470188247]], [[-96.89703970400862, -40.53864956126763], [-129.26390196629902, 4.984999393234684]], [[-96.89703970400862, -40.53864956126763], [-64.53553156812946, -10.182813958852842]], [[83.10296029599138, 40.53864956126763], [1.5807651614147484, 52.98360273072003]], [[83.10296029599138, 40.53864956126763], [128.70019817258625, -27.765943959477745]], [[83.10296029599138, 40.53864956126763], [148.09680765536046, -9.72348409370926]], [[83.10296029599138, 40.53864956126763], [25.617202750442313, 60.774585378137175]], [[-101.4967828748505, 4.597036462590683], [-20.417339861490415, 39.55924893887099]], [[-101.4967828748505, 4.597036462590683], [-28.693518110933564, -8.025637148854097]], [[-101.4967828748505, 4.597036462590683], [-115.46048177864758, 70.26202966800068]], [[-101.4967828748505, 4.597036462590683], [135.7470914287938, -36.49697344333412]], [[78.50321712514952, -4.597036462590683], [58.79277625610082, 45.60875722084592]], [[-51.500508657800566, 59.19485203673187], [89.50734412587259, -21.693550098549615]], [[-51.500508657800566, 59.19485203673187], [-67.28211665093293, 37.8036894284061]], [[-51.500508657800566, 59.19485203673187], [-64.53553156812946, -10.182813958852842]], [[-51.500508657800566, 59.19485203673187], [129.803296134929, 73.67517509752112]], [[-51.500508657800566, 59.19485203673187], [128.88171771860573, 27.21280718163092]], [[-90.49265587412742, 21.693550098549615], [-119.48004068492385, -49.69861123283156]], [[-90.49265587412742, 21.693550098549615], [-61.538124777889315, -32.77370273739077]], [[-90.49265587412742, 21.693550098549615], [163.1576144475853, 61.659356478001584]], [[-90.49265587412742, 21.693550098549615], [144.89063841533206, 31.543678559033278]], [[-90.49265587412742, 21.693550098549615], [115.46446843187056, 10.182813958852842]], [[-90.49265587412742, 21.693550098549615], [-145.79562174549685, 32.784969669266694]], [[163.99719304576934, -63.55184566460397], [49.55225929057199, -17.583248640120512]], [[-16.002806954230643, 63.55184566460397], [63.94506245659816, -31.290619264218993]], [[-16.002806954230643, 63.55184566460397], [8.496219953686824, 28.3010994845029]], [[89.50734412587259, -21.693550098549615], [121.2752275905448, 47.24551209171159]], [[89.50734412587259, -21.693550098549615], [128.88171771860573, 27.21280718163092]], [[-116.05493754340185, 31.290619264218993], [-116.41771629927746, 60.0117202721104]], [[-116.05493754340185, 31.290619264218993], [16.47585048825786, -30.27219293670873]], [[-116.05493754340185, 31.290619264218993], [-115.46048177864758, 70.26202966800068]], [[-116.05493754340185, 31.290619264218993], [59.24346842166722, 42.81074483164771]], [[172.88763266633183, -78.54242469846727], [-4.435905442405931, -40.14241687759785]], [[172.88763266633183, -78.54242469846727], [155.689444198319, -31.239554558814643]], [[172.88763266633183, -78.54242469846727], [-156.5427707288253, 10.615945412132932]], [[172.88763266633183, -78.54242469846727], [148.09680765536046, -9.72348409370926]], [[-7.112367333668205, 78.54242469846727], [-102.74571432888295, 14.967035221424318]], [[-7.112367333668205, 78.54242469846727], [-1.035852572309111, -12.582207596805556]], [[-7.112367333668205, 78.54242469846727], [116.81897179553549, 6.546977072805446]], [[63.94506245659816, -31.290619264218993], [-23.151671995947808, -20.760183926717716]], [[63.94506245659816, -31.290619264218993], [151.30648188906645, 8.025637148854097]], [[-141.15230838907647, -12.304030355369498], [-171.50378004631318, -28.3010994845029]], [[-141.15230838907647, -12.304030355369498], [128.99583125985146, 14.63305009387681]], [[-141.15230838907647, -12.304030355369498], [-115.46048177864758, 70.26202966800068]], [[-141.15230838907647, -12.304030355369498], [148.09680765536046, -9.72348409370926]], [[29.652012981418114, -39.38390273857392], [-61.538124777889315, -32.77370273739077]], [[29.652012981418114, -39.38390273857392], [35.71575864131925, 32.91538912344302]], [[-150.34798701858188, 39.38390273857392], [-68.98015611454528, 60.261679187949206]], [[-150.34798701858188, 39.38390273857392], [-1.035852572309111, -12.582207596805556]], [[38.84769161092354, 12.304030355369498], [34.20437825450316, -32.784969669266694]], [[38.84769161092354, 12.304030355369498], [105.73157003761537, 1.4641648470188247]], [[38.84769161092354, 12.304030355369498], [-174.59774059380615, 80.02045466786393]], [[-115.20760229475665, -63.66308037363817], [64.37849567119282, -80.29639082339934]], [[-115.20760229475665, -63.66308037363817], [-31.43505236080686, 19.41699242023319]], [[-115.20760229475665, -63.66308037363817], [115.46446843187056, 10.182813958852842]], [[-115.20760229475665, -63.66308037363817], [35.71575864131925, 32.91538912344302]], [[40.27230767268084, 35.6574901417187], [-175.11912517336427, 3.1927671991349276]], [[40.27230767268084, 35.6574901417187], [-67.28211665093293, 37.8036894284061]], [[40.27230767268084, 35.6574901417187], [21.69914453458506, 18.146335297816655]], [[40.27230767268084, 35.6574901417187], [-102.74571432888295, 14.967035221424318]], [[40.27230767268084, 35.6574901417187], [-94.22682075069636, -5.20821593336688]], [[40.27230767268084, 35.6574901417187], [-35.10936158466792, -31.543678559033278]], [[40.27230767268084, 35.6574901417187], [98.5291086827082, 47.09885772712198]], [[40.27230767268084, 35.6574901417187], [151.30648188906645, 8.025637148854097]], [[40.27230767268084, 35.6574901417187], [101.51258833614172, -7.619843118934004]], [[64.79239770524336, 63.66308037363817], [37.797348231821594, -8.539093116451225]], [[64.79239770524336, 63.66308037363817], [-158.30085546541494, -18.146335297816655]], [[64.79239770524336, 63.66308037363817], [-31.90319234463954, 9.72348409370926]], [[64.79239770524336, 63.66308037363817], [14.531110016505732, -13.420331285346053]], [[64.79239770524336, 63.66308037363817], [4.37071531587947, -24.401696809018283]], [[64.79239770524336, 63.66308037363817], [175.56409455759407, 40.14241687759785]], [[4.88087482663574, -3.1927671991349276], [49.55225929057199, -17.583248640120512]], [[4.88087482663574, -3.1927671991349276], [-81.47089131729182, -47.09885772712198]], [[-152.5008395181236, -30.518185364855576], [135.7470914287938, -36.49697344333412]], [[27.499160481876405, 30.518185364855576], [-1.035852572309111, -12.582207596805556]], [[27.499160481876405, 30.518185364855576], [4.37071531587947, -24.401696809018283]], [[27.499160481876405, 30.518185364855576], [103.80292118696549, 33.980975761081616]], [[27.499160481876405, 30.518185364855576], [70.87458739418123, 17.935529968118605]], [[-175.11912517336427, 3.1927671991349276], [94.07877717175988, 53.58076589841421]], [[54.334205303836825, 31.410313895196555], [-72.1130605734618, 62.598930671157895]], [[54.334205303836825, 31.410313895196555], [-118.45516408637407, 34.53507646932125]], [[54.334205303836825, 31.410313895196555], [-36.58775692708268, 51.93420279902769]], [[54.334205303836825, 31.410313895196555], [-31.90319234463954, 9.72348409370926]], [[54.334205303836825, 31.410313895196555], [-175.62928468412053, 24.401696809018283]], [[54.334205303836825, 31.410313895196555], [144.89063841533206, 31.543678559033278]], [[54.334205303836825, 31.410313895196555], [175.0795967697514, -11.457818896433977]], [[54.334205303836825, 31.410313895196555], [175.56409455759407, 40.14241687759785]], [[106.18785778179243, -45.14633266401509], [102.87755757318003, 38.55030845886495]], [[-73.81214221820757, 45.14633266401509], [-129.26390196629902, 4.984999393234684]], [[-73.81214221820757, 45.14633266401509], [-118.45516408637407, 34.53507646932125]], [[-73.81214221820757, 45.14633266401509], [8.496219953686824, 28.3010994845029]], [[-73.81214221820757, 45.14633266401509], [-55.304020110417184, 12.693110815700152]], [[-73.81214221820757, 45.14633266401509], [-8.238260218656723, 5.518135376773767]], [[-125.66579469616318, -31.410313895196555], [128.88171771860573, 27.21280718163092]], [[102.87755757318003, 38.55030845886495], [112.71788334906707, -37.8036894284061]], [[102.87755757318003, 38.55030845886495], [-118.05110015858466, -81.52266572887372]], [[102.87755757318003, 38.55030845886495], [-102.74571432888295, 14.967035221424318]], [[92.60966401778526, -52.12065887685686], [-58.7247724094552, -47.24551209171159]], [[92.60966401778526, -52.12065887685686], [14.531110016505732, -13.420331285346053]], [[-87.39033598221475, 52.12065887685686], [-120.05185400451128, 21.8405562141368]], [[-87.39033598221475, 52.12065887685686], [-74.26842996238464, -1.4641648470188247]], [[-87.39033598221475, 52.12065887685686], [-109.44058514658549, 0.515750070624374]], [[172.99353613348433, -23.322472757887105], [115.46446843187056, 10.182813958852842]], [[59.94814599548872, -21.8405562141368], [28.191310675156288, 7.745560637214793]], [[59.94814599548872, -21.8405562141368], [7.949731463525659, -29.28642697703301]], [[-120.05185400451128, 21.8405562141368], [-20.417339861490415, 39.55924893887099]], [[-120.05185400451128, 21.8405562141368], [61.94889984141536, 81.52266572887372]], [[-7.006463866515675, 23.322472757887105], [-61.538124777889315, -32.77370273739077]], [[-7.006463866515675, 23.322472757887105], [-76.19707881303451, -33.980975761081616]], [[-7.006463866515675, 23.322472757887105], [-64.53553156812946, -10.182813958852842]], [[-7.006463866515675, 23.322472757887105], [123.25152907848297, -11.56921221381136]], [[81.80592675558383, -30.551808807845294], [64.37849567119282, -80.29639082339934]], [[112.71788334906707, -37.8036894284061], [-145.21687433841808, 4.4565610082940275]], [[112.71788334906707, -37.8036894284061], [17.712600792513506, 25.23401479515107]], [[112.71788334906707, -37.8036894284061], [-58.7247724094552, -47.24551209171159]], [[112.71788334906707, -37.8036894284061], [14.531110016505732, -13.420331285346053]], [[112.71788334906707, -37.8036894284061], [175.0795967697514, -11.457818896433977]], [[112.71788334906707, -37.8036894284061], [118.46187522211069, 32.77370273739077]], [[-67.28211665093293, 37.8036894284061], [-129.26390196629902, 4.984999393234684]], [[-67.28211665093293, 37.8036894284061], [-16.8423855524147, -61.659356478001584]], [[-67.28211665093293, 37.8036894284061], [-147.67527017725774, 68.05588633543235]], [[-67.28211665093293, 37.8036894284061], [59.24346842166722, 42.81074483164771]], [[-67.28211665093293, 37.8036894284061], [168.2710971331879, -2.8437131284282073]], [[-98.19407324441617, 30.551808807845294], [-20.417339861490415, 39.55924893887099]], [[-98.19407324441617, 30.551808807845294], [41.56172422561988, 43.49360778856085]], [[-98.19407324441617, 30.551808807845294], [-172.05026853647433, 29.28642697703301]], [[50.736098033700976, -4.984999393234684], [-68.98015611454528, 60.261679187949206]], [[50.736098033700976, -4.984999393234684], [-9.659072110889266, -16.134813072043965]], [[50.736098033700976, -4.984999393234684], [128.99583125985146, 14.63305009387681]], [[159.5826601385096, -39.55924893887099], [-145.4005499499353, 20.96413603890192]], [[159.5826601385096, -39.55924893887099], [105.73157003761537, 1.4641648470188247]], [[-20.417339861490415, 39.55924893887099], [49.55225929057199, -17.583248640120512]], [[-20.417339861490415, 39.55924893887099], [-76.82049967523011, 22.722319837595197]], [[-20.417339861490415, 39.55924893887099], [148.09680765536046, -9.72348409370926]], [[-129.26390196629902, 4.984999393234684], [175.32227525821506, -42.167363103330956]], [[-72.1130605734618, 62.598930671157895], [-130.44774070942802, 17.583248640120512]], [[-72.1130605734618, 62.598930671157895], [19.528335123640456, 39.82621272293485]], [[-72.1130605734618, 62.598930671157895], [-56.74847092151704, 11.56921221381136]], [[-72.1130605734618, 62.598930671157895], [-11.728902866812088, 2.8437131284282073]], [[-72.1130605734618, 62.598930671157895], [175.56409455759407, 40.14241687759785]], [[-72.1130605734618, 62.598930671157895], [-149.35278271727108, 55.219719029644054]], [[-23.151671995947808, -20.760183926717716], [-130.44774070942802, 17.583248640120512]], [[-23.151671995947808, -20.760183926717716], [35.71575864131925, 32.91538912344302]], [[156.8483280040522, 20.760183926717716], [70.87458739418123, 17.935529968118605]], [[-118.45516408637407, 34.53507646932125], [-4.677724741784957, 42.167363103330956]], [[-118.45516408637407, 34.53507646932125], [-115.46048177864758, 70.26202966800068]], [[8.496219953686824, 28.3010994845029], [111.01984388545472, -60.261679187949206]], [[8.496219953686824, 28.3010994845029], [-51.29980182741373, 27.765943959477745]], [[8.496219953686824, 28.3010994845029], [94.07877717175988, 53.58076589841421]], [[61.54483591362593, -34.53507646932125], [-118.05110015858466, -81.52266572887372]], [[61.54483591362593, -34.53507646932125], [60.51995931507614, 49.69861123283156]], [[-36.58775692708268, 51.93420279902769], [-130.44774070942802, 17.583248640120512]], [[-36.58775692708268, 51.93420279902769], [-147.67527017725774, 68.05588633543235]], [[-81.69462142306932, 51.65823713772323], [-109.12541260581877, -17.935529968118605]], [[-81.69462142306932, 51.65823713772323], [144.89063841533206, 31.543678559033278]], [[-81.69462142306932, 51.65823713772323], [103.80292118696549, 33.980975761081616]], [[-81.69462142306932, 51.65823713772323], [41.56172422561988, 43.49360778856085]], [[98.30537857693068, -51.65823713772323], [21.69914453458506, 18.146335297816655]], [[98.30537857693068, -51.65823713772323], [-74.26842996238464, -1.4641648470188247]], [[98.30537857693068, -51.65823713772323], [-1.035852572309111, -12.582207596805556]], [[98.30537857693068, -51.65823713772323], [128.99583125985146, 14.63305009387681]], [[98.30537857693068, -51.65823713772323], [129.803296134929, 73.67517509752112]], [[143.4122430729173, -51.93420279902769], [17.712600792513506, 25.23401479515107]], [[143.4122430729173, -51.93420279902769], [23.457229271174704, -10.615945412132932]], [[-4.677724741784957, 42.167363103330956], [-76.82049967523011, 22.722319837595197]], [[-4.677724741784957, 42.167363103330956], [-63.18102820446451, -6.546977072805446]], [[-4.677724741784957, 42.167363103330956], [57.60044324871924, 39.39764453160333]], [[-4.677724741784957, 42.167363103330956], [60.13164343770867, 14.112546721472157]], [[49.55225929057199, -17.583248640120512], [-68.98015611454528, 60.261679187949206]], [[49.55225929057199, -17.583248640120512], [60.51995931507614, 49.69861123283156]], [[49.55225929057199, -17.583248640120512], [61.59118806509119, 9.114031003998154]], [[175.32227525821506, -42.167363103330956], [33.21357345964173, -52.39589075925642]], [[175.32227525821506, -42.167363103330956], [152.57087320829476, 11.062399560263716]], [[175.32227525821506, -42.167363103330956], [121.2752275905448, 47.24551209171159]], [[-132.84526718511282, 36.69818233705905], [-56.74847092151704, 11.56921221381136]], [[-132.84526718511282, 36.69818233705905], [91.99942876241398, 68.52479504633588]], [[19.528335123640456, 39.82621272293485], [-11.728902866812088, 2.8437131284282073]], [[19.528335123640456, 39.82621272293485], [-76.19707881303451, -33.980975761081616]], [[19.528335123640456, 39.82621272293485], [59.24346842166722, 42.81074483164771]], [[19.528335123640456, 39.82621272293485], [116.81897179553549, 6.546977072805446]], [[-52.2716460993595, 72.20354789209793], [-142.2026517681784, 8.539093116451225]], [[-52.2716460993595, 72.20354789209793], [-51.118282281394286, -27.21280718163092]], [[-52.2716460993595, 72.20354789209793], [-51.29980182741373, 27.765943959477745]], [[-116.41771629927746, 60.0117202721104], [37.797348231821594, -8.539093116451225]], [[-116.41771629927746, 60.0117202721104], [17.712600792513506, 25.23401479515107]], [[-116.41771629927746, 60.0117202721104], [-100.44734836485786, 23.303312165045003]], [[-116.41771629927746, 60.0117202721104], [60.51995931507614, 49.69861123283156]], [[63.58228370072255, -60.0117202721104], [-142.2026517681784, 8.539093116451225]], [[63.58228370072255, -60.0117202721104], [-175.41183508513888, -72.14019150930177]], [[63.58228370072255, -60.0117202721104], [151.30648188906645, 8.025637148854097]], [[127.72835390064051, -72.20354789209793], [128.70019817258625, -27.765943959477745]], [[127.72835390064051, -72.20354789209793], [125.26898658027193, -37.65532767616916]], [[127.72835390064051, -72.20354789209793], [128.88171771860573, 27.21280718163092]], [[127.72835390064051, -72.20354789209793], [123.25152907848297, -11.56921221381136]], [[1.5807651614147484, 52.98360273072003], [-85.92122282824012, -53.58076589841421]], [[1.5807651614147484, 52.98360273072003], [-31.43505236080686, 19.41699242023319]], [[1.5807651614147484, 52.98360273072003], [-24.310555801681026, 31.239554558814643]], [[1.5807651614147484, 52.98360273072003], [85.77317924930364, 5.20821593336688]], [[1.5807651614147484, 52.98360273072003], [70.87458739418123, 17.935529968118605]], [[-145.4005499499353, 20.96413603890192], [152.57087320829476, 11.062399560263716]], [[34.599450050064675, -20.96413603890192], [-68.98015611454528, 60.261679187949206]], [[34.599450050064675, -20.96413603890192], [-55.304020110417184, 12.693110815700152]], [[34.599450050064675, -20.96413603890192], [128.88171771860573, 27.21280718163092]], [[-178.41923483858525, -52.98360273072003], [135.7470914287938, -36.49697344333412]], [[-142.2026517681784, 8.539093116451225], [21.69914453458506, 18.146335297816655]], [[-145.21687433841808, 4.4565610082940275], [-122.39955675128077, -39.39764453160333]], [[34.78312566158193, -4.4565610082940275], [28.191310675156288, 7.745560637214793]], [[34.78312566158193, -4.4565610082940275], [21.69914453458506, 18.146335297816655]], [[34.78312566158193, -4.4565610082940275], [16.47585048825786, -30.27219293670873]], [[34.78312566158193, -4.4565610082940275], [-51.29980182741373, 27.765943959477745]], [[34.78312566158193, -4.4565610082940275], [61.59118806509119, 9.114031003998154]], [[37.797348231821594, -8.539093116451225], [-24.310555801681026, 31.239554558814643]], [[37.797348231821594, -8.539093116451225], [-51.00416874014855, -14.63305009387681]], [[-68.98015611454528, 60.261679187949206], [128.70019817258625, -27.765943959477745]], [[-68.98015611454528, 60.261679187949206], [101.51258833614172, -7.619843118934004]], [[-151.80868932484373, -7.745560637214793], [148.56494763919315, -19.41699242023319]], [[28.191310675156288, 7.745560637214793], [35.71575864131925, 32.91538912344302]], [[111.01984388545472, -60.261679187949206], [-78.4874116638583, 7.619843118934004]], [[111.01984388545472, -60.261679187949206], [-31.90319234463954, 9.72348409370926]], [[-162.28739920748652, -25.23401479515107], [-51.29980182741373, 27.765943959477745]], [[17.712600792513506, 25.23401479515107], [-81.47089131729182, -47.09885772712198]], [[17.712600792513506, 25.23401479515107], [32.32472982274228, -68.05588633543235]], [[17.712600792513506, 25.23401479515107], [60.51995931507614, 49.69861123283156]], [[-158.30085546541494, -18.146335297816655], [175.56409455759407, 40.14241687759785]], [[-56.74847092151704, 11.56921221381136], [-138.43827577438014, -43.49360778856085]], [[-118.40881193490883, -9.114031003998154], [-85.92122282824012, -53.58076589841421]], [[-118.40881193490883, -9.114031003998154], [-44.252908571206234, 36.49697344333412]], [[-51.118282281394286, -27.21280718163092], [114.08815969584299, -22.70793617345174]], [[-51.118282281394286, -27.21280718163092], [98.5291086827082, 47.09885772712198]], [[-11.728902866812088, 2.8437131284282073], [4.588164914861124, 72.14019150930177]], [[16.47585048825786, -30.27219293670873], [-74.26842996238464, -1.4641648470188247]], [[16.47585048825786, -30.27219293670873], [33.21357345964173, -52.39589075925642]], [[16.47585048825786, -30.27219293670873], [57.60044324871924, 39.39764453160333]], [[16.47585048825786, -30.27219293670873], [59.24346842166722, 42.81074483164771]], [[5.40225940619385, -80.02045466786393], [-175.41183508513888, -72.14019150930177]], [[64.37849567119282, -80.29639082339934], [155.689444198319, -31.239554558814643]], [[-102.04960852687582, 9.266557354888658], [-54.73101341972807, 37.65532767616916]], [[-102.04960852687582, 9.266557354888658], [-147.67527017725774, 68.05588633543235]], [[-76.82049967523011, 22.722319837595197], [-54.73101341972807, 37.65532767616916]], [[-31.43505236080686, 19.41699242023319], [-28.693518110933564, -8.025637148854097]], [[-31.43505236080686, 19.41699242023319], [25.617202750442313, 60.774585378137175]], [[-63.18102820446451, -6.546977072805446], [-4.435905442405931, -40.14241687759785]], [[-61.538124777889315, -32.77370273739077], [-27.429126791705258, -11.062399560263716]], [[-61.538124777889315, -32.77370273739077], [10.907462634994337, -46.291995265217885]], [[-61.538124777889315, -32.77370273739077], [-8.238260218656723, 5.518135376773767]], [[-61.538124777889315, -32.77370273739077], [178.9641474276909, 12.582207596805556]], [[-27.429126791705258, -11.062399560263716], [-51.00416874014855, -14.63305009387681]], [[-119.86835656229134, -14.112546721472157], [-64.53553156812946, -10.182813958852842]], [[-119.86835656229134, -14.112546721472157], [-174.40933950874796, -17.061598127100225]], [[-28.693518110933564, -8.025637148854097], [59.24346842166722, 42.81074483164771]], [[-4.435905442405931, -40.14241687759785], [61.59118806509119, 9.114031003998154]], [[-102.74571432888295, 14.967035221424318], [152.57087320829476, 11.062399560263716]], [[-44.252908571206234, 36.49697344333412], [118.46187522211069, 32.77370273739077]], [[-9.659072110889266, -16.134813072043965], [14.531110016505732, -13.420331285346053]], [[14.531110016505732, -13.420331285346053], [-51.00416874014855, -14.63305009387681]], [[14.531110016505732, -13.420331285346053], [70.55941485341451, -0.515750070624374]], [[14.531110016505732, -13.420331285346053], [77.95039147312418, -9.266557354888658]], [[-1.035852572309111, -12.582207596805556], [-35.10936158466792, -31.543678559033278]], [[-1.035852572309111, -12.582207596805556], [128.99583125985146, 14.63305009387681]], [[33.21357345964173, -52.39589075925642], [-51.29980182741373, 27.765943959477745]], [[33.21357345964173, -52.39589075925642], [116.81897179553549, 6.546977072805446]], [[23.457229271174704, -10.615945412132932], [58.79277625610082, 45.60875722084592]], [[23.457229271174704, -10.615945412132932], [118.46187522211069, 32.77370273739077]], [[32.32472982274228, -68.05588633543235], [118.46187522211069, 32.77370273739077]], [[32.32472982274228, -68.05588633543235], [101.51258833614172, -7.619843118934004]], [[64.53951822135241, -70.26202966800068], [125.26898658027193, -37.65532767616916]], [[-100.44734836485786, 23.303312165045003], [-64.53553156812946, -10.182813958852842]], [[-100.44734836485786, 23.303312165045003], [-174.59774059380615, 80.02045466786393]], [[-24.310555801681026, 31.239554558814643], [25.617202750442313, 60.774585378137175]], [[-51.00416874014855, -14.63305009387681], [4.37071531587947, -24.401696809018283]], [[-51.00416874014855, -14.63305009387681], [123.25152907848297, -11.56921221381136]], [[-35.10936158466792, -31.543678559033278], [61.94889984141536, 81.52266572887372]], [[4.37071531587947, -24.401696809018283], [77.25428567111705, -14.967035221424318]], [[4.37071531587947, -24.401696809018283], [128.88171771860573, 27.21280718163092]], [[-175.62928468412053, 24.401696809018283], [91.99942876241398, 68.52479504633588]], [[-175.62928468412053, 24.401696809018283], [175.56409455759407, 40.14241687759785]], [[163.1576144475853, 61.659356478001584], [128.70019817258625, -27.765943959477745]], [[57.60044324871924, 39.39764453160333], [25.617202750442313, 60.774585378137175]], [[144.89063841533206, 31.543678559033278], [98.5291086827082, 47.09885772712198]], [[115.46446843187056, 10.182813958852842], [61.94889984141536, 81.52266572887372]], [[114.08815969584299, -22.70793617345174], [-147.67527017725774, 68.05588633543235]], [[70.55941485341451, -0.515750070624374], [4.588164914861124, 72.14019150930177]], [[70.55941485341451, -0.515750070624374], [58.79277625610082, 45.60875722084592]], [[128.99583125985146, 14.63305009387681], [85.77317924930364, 5.20821593336688]], [[128.99583125985146, 14.63305009387681], [148.09680765536046, -9.72348409370926]], [[85.77317924930364, 5.20821593336688], [170.34092788911073, 16.134813072043965]], [[155.689444198319, -31.239554558814643], [103.17950032476989, -22.722319837595197]], [[128.70019817258625, -27.765943959477745], [-146.78642654035826, 52.39589075925642]], [[128.70019817258625, -27.765943959477745], [-169.09253736500565, 46.291995265217885]], [[-115.46048177864758, 70.26202966800068], [59.24346842166722, 42.81074483164771]], [[-145.79562174549685, 32.784969669266694], [-174.40933950874796, -17.061598127100225]], [[-147.67527017725774, 68.05588633543235], [98.5291086827082, 47.09885772712198]], [[-156.5427707288253, 10.615945412132932], [-149.35278271727108, 55.219719029644054]], [[-146.78642654035826, 52.39589075925642], [41.56172422561988, 43.49360778856085]], [[35.71575864131925, 32.91538912344302], [135.7470914287938, -36.49697344333412]], [[170.34092788911073, 16.134813072043965], [60.51995931507614, 49.69861123283156]], [[148.09680765536046, -9.72348409370926], [61.94889984141536, 81.52266572887372]], [[148.09680765536046, -9.72348409370926], [129.803296134929, 73.67517509752112]], [[148.09680765536046, -9.72348409370926], [128.88171771860573, 27.21280718163092]], [[91.99942876241398, 68.52479504633588], [118.46187522211069, 32.77370273739077]], [[175.56409455759407, 40.14241687759785], [98.5291086827082, 47.09885772712198]], [[58.79277625610082, 45.60875722084592], [70.87458739418123, 17.935529968118605]], [[58.79277625610082, 45.60875722084592], [77.95039147312418, -9.266557354888658]], [[151.30648188906645, 8.025637148854097], [94.07877717175988, 53.58076589841421]], [[103.80292118696549, 33.980975761081616], [60.13164343770867, 14.112546721472157]], [[103.80292118696549, 33.980975761081616], [105.73157003761537, 1.4641648470188247]], [[103.80292118696549, 33.980975761081616], [148.56494763919315, -19.41699242023319]], [[103.80292118696549, 33.980975761081616], [-115.62150432880716, 80.29639082339934]], [[60.13164343770867, 14.112546721472157], [41.56172422561988, 43.49360778856085]], [[105.73157003761537, 1.4641648470188247], [94.07877717175988, 53.58076589841421]], [[105.73157003761537, 1.4641648470188247], [41.56172422561988, 43.49360778856085]], [[70.87458739418123, 17.935529968118605], [25.617202750442313, 60.774585378137175]], [[116.81897179553549, 6.546977072805446], [103.17950032476989, -22.722319837595197]], [[101.51258833614172, -7.619843118934004], [128.88171771860573, 27.21280718163092]], [[41.56172422561988, 43.49360778856085], [123.25152907848297, -11.56921221381136]], [[121.2752275905448, 47.24551209171159], [168.2710971331879, -2.8437131284282073]], [[61.59118806509119, 9.114031003998154], [123.25152907848297, -11.56921221381136]]]}}]}