{"type": "FeatureCollection", "name": "E8_proj_seed797 sites", "properties": {"shape": "E8_proj_seed797", "lock_lat": -65.0, "lock_lon": -65.0, "bearing": 90.0, "thresholds": {"close": 0.09892531138990063, "medium": 0.13489815189531904, "close_km": 11.0, "medium_km": 15.0, "dist_mode": "edge_exact"}}, "features": [{"type": "Feature", "properties": {"kind": "site", "name": "Glastonbury Tor", "dist_deg": 0.0154312, "dist_km": 1.716, "class": "close", "dist_source": "ks_full_grid", "edges_supported": 2}, "geometry": {"type": "Point", "coordinates": [-2.7, 51.0]}}, {"type": "Feature", "properties": {"kind": "site", "name": "Shaftesbury", "dist_deg": 0.0626692, "dist_km": 6.968, "class": "close", "dist_source": "ks_full_grid", "edges_supported": 1}, "geometry": {"type": "Point", "coordinates": [-2.195, 51.0]}}, {"type": "Feature", "properties": {"kind": "site", "name": "Brandenburg Gate", "dist_deg": 0.0265391, "dist_km": 2.951, "class": "close", "dist_source": "ks_full_grid", "edges_supported": 3}, "geometry": {"type": "Point", "coordinates": [13.3778, 52.5164]}}, {"type": "Feature", "properties": {"kind": "site", "name": "Placa de Catalunya", "dist_deg": 0.0166122, "dist_km": 1.847, "class": "close", "dist_source": "ks_full_grid", "edges_supported": 3}, "geometry": {"type": "Point", "coordinates": [2.17, 41.387]}}, {"type": "Feature", "properties": {"kind": "site", "name": "Island of the Sun", "dist_deg": 0.0048412, "dist_km": 0.538, "class": "close", "dist_source": "ks_full_grid", "edges_supported": 2}, "geometry": {"type": "Point", "coordinates": [-69.1717, -16.0167]}}, {"type": "Feature", "properties": {"kind": "site", "name": "Plaza Mayor Lima", "dist_deg": 0.0055497, "dist_km": 0.617, "class": "close", "dist_source": "ks_full_grid", "edges_supported": 3}, "geometry": {"type": "Point", "coordinates": [-77.0306, -12.0458]}}, {"type": "Feature", "properties": {"kind": "site", "name": "Rio Ucayali-Rio Maranon confluence", "dist_deg": 0.0252052, "dist_km": 2.803, "class": "close", "dist_source": "ks_full_grid", "edges_supported": 3}, "geometry": {"type": "Point", "coordinates": [-73.45, -4.45]}}, {"type": "Feature", "properties": {"kind": "site", "name": "Uluru", "dist_deg": 0.072064, "dist_km": 8.013, "class": "close", "dist_source": "ks_full_grid", "edges_supported": 1}, "geometry": {"type": "Point", "coordinates": [130.9917, -25.3433]}}, {"type": "Feature", "properties": {"kind": "site", "name": "Kata Tjuta", "dist_deg": 0.0460368, "dist_km": 5.119, "class": "close", "dist_source": "ks_full_grid", "edges_supported": 1}, "geometry": {"type": "Point", "coordinates": [130.7528, -25.2981]}}, {"type": "Feature", "properties": {"kind": "site", "name": "Nourlangie Rock", "dist_deg": 0.0285229, "dist_km": 3.172, "class": "close", "dist_source": "ks_full_grid", "edges_supported": 3}, "geometry": {"type": "Point", "coordinates": [132.8111, -12.8669]}}, {"type": "Feature", "properties": {"kind": "site", "name": "Hamelin Pool", "dist_deg": 0.0789798, "dist_km": 8.782, "class": "close", "dist_source": "ks_full_grid", "edges_supported": 1}, "geometry": {"type": "Point", "coordinates": [114.2003, -26.435]}}, {"type": "Feature", "properties": {"kind": "site", "name": "Tirta Empul", "dist_deg": 0.0806849, "dist_km": 8.972, "class": "close", "dist_source": "ks_full_grid", "edges_supported": 1}, "geometry": {"type": "Point", "coordinates": [115.3111, -8.4167]}}, {"type": "Feature", "properties": {"kind": "site", "name": "Borobudur", "dist_deg": 0.0328645, "dist_km": 3.654, "class": "close", "dist_source": "ks_full_grid", "edges_supported": 4}, "geometry": {"type": "Point", "coordinates": [110.2042, -7.6081]}}, {"type": "Feature", "properties": {"kind": "site", "name": "Mount Kinabalu", "dist_deg": 0.0684919, "dist_km": 7.616, "class": "close", "dist_source": "ks_full_grid", "edges_supported": 1}, "geometry": {"type": "Point", "coordinates": [116.5628, 6.0744]}}, {"type": "Feature", "properties": {"kind": "site", "name": "Mount Kailash", "dist_deg": 0.0323598, "dist_km": 3.598, "class": "close", "dist_source": "ks_full_grid", "edges_supported": 1}, "geometry": {"type": "Point", "coordinates": [81.3125, 31.0675]}}, {"type": "Feature", "properties": {"kind": "site", "name": "Karakul Lake", "dist_deg": 0.0494471, "dist_km": 5.498, "class": "close", "dist_source": "ks_full_grid", "edges_supported": 4}, "geometry": {"type": "Point", "coordinates": [73.4886, 39.0217]}}, {"type": "Feature", "properties": {"kind": "site", "name": "Sundarbans-Sagar Island", "dist_deg": 0.0777357, "dist_km": 8.644, "class": "close", "dist_source": "ks_full_grid", "edges_supported": 1}, "geometry": {"type": "Point", "coordinates": [88.2953, 22.5564]}}, {"type": "Feature", "properties": {"kind": "site", "name": "Mount Shasta", "dist_deg": 0.0173688, "dist_km": 1.931, "class": "close", "dist_source": "ks_full_grid", "edges_supported": 1}, "geometry": {"type": "Point", "coordinates": [-122.31, 41.31]}}, {"type": "Feature", "properties": {"kind": "site", "name": "Kachina Peaks Wilderness", "dist_deg": 0.183059, "dist_km": 20.355, "class": "far", "dist_source": "ks_full_grid", "edges_supported": 0}, "geometry": {"type": "Point", "coordinates": [-111.6625, 35.3394]}}, {"type": "Feature", "properties": {"kind": "site", "name": "Golden Hinde", "dist_deg": 0.0913802, "dist_km": 10.161, "class": "close", "dist_source": "ks_full_grid", "edges_supported": 1}, "geometry": {"type": "Point", "coordinates": [-125.4494, 49.6506]}}, {"type": "Feature", "properties": {"kind": "site", "name": "El Tule-Palenque", "dist_deg": 0.0008836, "dist_km": 0.098, "class": "close", "dist_source": "ks_full_grid", "edges_supported": 3}, "geometry": {"type": "Point", "coordinates": [-91.9817, 17.51]}}, {"type": "Feature", "properties": {"kind": "site", "name": "Laguna Corcovado", "dist_deg": 0.0948096, "dist_km": 10.542, "class": "close", "dist_source": "ks_full_grid", "edges_supported": 2}, "geometry": {"type": "Point", "coordinates": [-83.6167, 8.55]}}, {"type": "Feature", "properties": {"kind": "site", "name": "Cerro de la Silla", "dist_deg": 0.0101478, "dist_km": 1.128, "class": "close", "dist_source": "ks_full_grid", "edges_supported": 2}, "geometry": {"type": "Point", "coordinates": [-100.3092, 25.6733]}}, {"type": "Feature", "properties": {"kind": "site", "name": "Mount Fuji", "dist_deg": 0.0230362, "dist_km": 2.562, "class": "close", "dist_source": "ks_full_grid", "edges_supported": 2}, "geometry": {"type": "Point", "coordinates": [138.7317, 35.3628]}}, {"type": "Feature", "properties": {"kind": "site", "name": "Mani San", "dist_deg": 0.0198127, "dist_km": 2.203, "class": "close", "dist_source": "ks_full_grid", "edges_supported": 3}, "geometry": {"type": "Point", "coordinates": [126.4347, 37.6117]}}, {"type": "Feature", "properties": {"kind": "site", "name": "Sefa Utaki", "dist_deg": 0.0212314, "dist_km": 2.361, "class": "close", "dist_source": "ks_full_grid", "edges_supported": 3}, "geometry": {"type": "Point", "coordinates": [127.7669, 26.1444]}}, {"type": "Feature", "properties": {"kind": "site", "name": "Haleakala Crater", "dist_deg": 0.026387, "dist_km": 2.934, "class": "close", "dist_source": "ks_full_grid", "edges_supported": 1}, "geometry": {"type": "Point", "coordinates": [-156.1828, 20.7186]}}, {"type": "Feature", "properties": {"kind": "site", "name": "Midway Atoll", "dist_deg": 0.0081986, "dist_km": 0.912, "class": "close", "dist_source": "ks_full_grid", "edges_supported": 2}, "geometry": {"type": "Point", "coordinates": [-177.3833, 28.25]}}, {"type": "Feature", "properties": {"kind": "site", "name": "Mauna Loa", "dist_deg": 0.0103165, "dist_km": 1.147, "class": "close", "dist_source": "ks_full_grid", "edges_supported": 2}, "geometry": {"type": "Point", "coordinates": [-155.5356, 19.7569]}}, {"type": "Feature", "properties": {"kind": "site", "name": "Lake Rotopounamu", "dist_deg": 0.0024416, "dist_km": 0.272, "class": "close", "dist_source": "ks_full_grid", "edges_supported": 1}, "geometry": {"type": "Point", "coordinates": [175.7372, -39.0258]}}, {"type": "Feature", "properties": {"kind": "site", "name": "Mount Panié", "dist_deg": 0.045689, "dist_km": 5.08, "class": "close", "dist_source": "ks_full_grid", "edges_supported": 2}, "geometry": {"type": "Point", "coordinates": [164.7706, -20.5894]}}, {"type": "Feature", "properties": {"kind": "site", "name": "Macquarie Island", "dist_deg": 0.0314104, "dist_km": 3.493, "class": "close", "dist_source": "ks_full_grid", "edges_supported": 1}, "geometry": {"type": "Point", "coordinates": [158.8956, -54.5947]}}, {"type": "Feature", "properties": {"kind": "site", "name": "Great Pyramid of Giza", "dist_deg": 8.77e-05, "dist_km": 0.01, "class": "close", "dist_source": "ks_full_grid", "edges_supported": 2}, "geometry": {"type": "Point", "coordinates": [31.1342, 29.9792]}}, {"type": "Feature", "properties": {"kind": "site", "name": "Mount Sinai", "dist_deg": 0.010526, "dist_km": 1.17, "class": "close", "dist_source": "ks_full_grid", "edges_supported": 1}, "geometry": {"type": "Point", "coordinates": [33.973, 28.5394]}}, {"type": "Feature", "properties": {"kind": "site", "name": "Mount of Olives", "dist_deg": 0.0036896, "dist_km": 0.41, "class": "close", "dist_source": "ks_full_grid", "edges_supported": 3}, "geometry": {"type": "Point", "coordinates": [35.2439, 31.778]}}, {"type": "Feature", "properties": {"kind": "site", "name": "Mecca", "dist_deg": 0.0237623, "dist_km": 2.642, "class": "close", "dist_source": "ks_full_grid", "edges_supported": 2}, "geometry": {"type": "Point", "coordinates": [39.8147, 21.4275]}}, {"type": "Feature", "properties": {"kind": "site", "name": "Takht-e Soleiman", "dist_deg": 0.0597076, "dist_km": 6.639, "class": "close", "dist_source": "ks_full_grid", "edges_supported": 3}, "geometry": {"type": "Point", "coordinates": [47.2361, 36.6033]}}, {"type": "Feature", "properties": {"kind": "site", "name": "Table Mountain", "dist_deg": 0.0259543, "dist_km": 2.886, "class": "close", "dist_source": "ks_full_grid", "edges_supported": 2}, "geometry": {"type": "Point", "coordinates": [18.43, -33.9247]}}, {"type": "Feature", "properties": {"kind": "site", "name": "Pilansberg", "dist_deg": 0.0944978, "dist_km": 10.508, "class": "close", "dist_source": "ks_full_grid", "edges_supported": 1}, "geometry": {"type": "Point", "coordinates": [27.0322, -25.2294]}}, {"type": "Feature", "properties": {"kind": "site", "name": "Mont-aux-Sources", "dist_deg": 0.0668627, "dist_km": 7.435, "class": "close", "dist_source": "ks_full_grid", "edges_supported": 2}, "geometry": {"type": "Point", "coordinates": [28.8847, -28.7592]}}, {"type": "Feature", "properties": {"kind": "site", "name": "Sergiev Posad", "dist_deg": 0.1173831, "dist_km": 13.052, "class": "medium", "dist_source": "ks_full_grid", "edges_supported": 0}, "geometry": {"type": "Point", "coordinates": [37.6175, 55.7558]}}, {"type": "Feature", "properties": {"kind": "site", "name": "Mount Konzhakovsky Kamen", "dist_deg": 0.058496, "dist_km": 6.505, "class": "close", "dist_source": "ks_full_grid", "edges_supported": 1}, "geometry": {"type": "Point", "coordinates": [60.0, 59.0]}}, {"type": "Feature", "properties": {"kind": "site", "name": "Mount Elbrus", "dist_deg": 0.0316851, "dist_km": 3.523, "class": "close", "dist_source": "ks_full_grid", "edges_supported": 3}, "geometry": {"type": "Point", "coordinates": [42.4392, 43.355]}}, {"type": "Feature", "properties": {"kind": "site", "name": "Po Lin Monastery", "dist_deg": 0.0111182, "dist_km": 1.236, "class": "close", "dist_source": "ks_full_grid", "edges_supported": 2}, "geometry": {"type": "Point", "coordinates": [113.9078, 22.2556]}}, {"type": "Feature", "properties": {"kind": "site", "name": "Emei Shan", "dist_deg": 0.0107576, "dist_km": 1.196, "class": "close", "dist_source": "ks_full_grid", "edges_supported": 4}, "geometry": {"type": "Point", "coordinates": [104.0756, 30.6511]}}, {"type": "Feature", "properties": {"kind": "site", "name": "Mount Pulag", "dist_deg": 0.0659535, "dist_km": 7.334, "class": "close", "dist_source": "ks_full_grid", "edges_supported": 1}, "geometry": {"type": "Point", "coordinates": [120.8836, 16.5836]}}, {"type": "Feature", "properties": {"kind": "site", "name": "Niagara Falls", "dist_deg": 0.0762827, "dist_km": 8.482, "class": "close", "dist_source": "ks_full_grid", "edges_supported": 1}, "geometry": {"type": "Point", "coordinates": [-79.0853, 43.0903]}}, {"type": "Feature", "properties": {"kind": "site", "name": "Pilot Knob State Park", "dist_deg": 0.0015049, "dist_km": 0.167, "class": "close", "dist_source": "ks_full_grid", "edges_supported": 3}, "geometry": {"type": "Point", "coordinates": [-93.5533, 43.2528]}}, {"type": "Feature", "properties": {"kind": "site", "name": "Akimiski Island", "dist_deg": 0.0024037, "dist_km": 0.267, "class": "close", "dist_source": "ks_full_grid", "edges_supported": 1}, "geometry": {"type": "Point", "coordinates": [-81.3172, 52.9872]}}, {"type": "Feature", "properties": {"kind": "site", "name": "Mount Dimlang", "dist_deg": 0.0381091, "dist_km": 4.237, "class": "close", "dist_source": "ks_full_grid", "edges_supported": 4}, "geometry": {"type": "Point", "coordinates": [11.75, 8.5]}}, {"type": "Feature", "properties": {"kind": "site", "name": "Lake Chad", "dist_deg": 0.0202259, "dist_km": 2.249, "class": "close", "dist_source": "ks_full_grid", "edges_supported": 1}, "geometry": {"type": "Point", "coordinates": [14.1, 13.3303]}}, {"type": "Feature", "properties": {"kind": "site", "name": "Isangila Falls", "dist_deg": 0.0278048, "dist_km": 3.092, "class": "close", "dist_source": "ks_full_grid", "edges_supported": 2}, "geometry": {"type": "Point", "coordinates": [12.0, -6.0]}}, {"type": "Feature", "properties": {"kind": "site", "name": "Marco Zero Recife", "dist_deg": 0.0230276, "dist_km": 2.561, "class": "close", "dist_source": "ks_full_grid", "edges_supported": 2}, "geometry": {"type": "Point", "coordinates": [-34.8711, -8.0633]}}, {"type": "Feature", "properties": {"kind": "site", "name": "Peter and Paul Rocks", "dist_deg": 0.0185086, "dist_km": 2.058, "class": "close", "dist_source": "ks_full_grid", "edges_supported": 2}, "geometry": {"type": "Point", "coordinates": [-29.3353, -0.9169]}}, {"type": "Feature", "properties": {"kind": "site", "name": "Parnaiba River Headwaters", "dist_deg": 0.0646611, "dist_km": 7.19, "class": "close", "dist_source": "ks_full_grid", "edges_supported": 3}, "geometry": {"type": "Point", "coordinates": [-43.1747, -8.3231]}}, {"type": "Feature", "properties": {"kind": "site", "name": "Plaza de Mayo", "dist_deg": 0.1820635, "dist_km": 20.244, "class": "far", "dist_source": "ks_full_grid", "edges_supported": 0}, "geometry": {"type": "Point", "coordinates": [-58.3722, -34.6083]}}, {"type": "Feature", "properties": {"kind": "site", "name": "Iguazu Falls", "dist_deg": 0.0275135, "dist_km": 3.059, "class": "close", "dist_source": "ks_full_grid", "edges_supported": 3}, "geometry": {"type": "Point", "coordinates": [-54.4453, -25.6803]}}, {"type": "Feature", "properties": {"kind": "site", "name": "Plaza de Armas Santiago", "dist_deg": 0.0300978, "dist_km": 3.347, "class": "close", "dist_source": "ks_full_grid", "edges_supported": 4}, "geometry": {"type": "Point", "coordinates": [-70.6519, -33.4431]}}, {"type": "Feature", "properties": {"kind": "site", "name": "Jebel Toubkal", "dist_deg": 0.0618785, "dist_km": 6.881, "class": "close", "dist_source": "ks_full_grid", "edges_supported": 1}, "geometry": {"type": "Point", "coordinates": [-7.9161, 31.0619]}}, {"type": "Feature", "properties": {"kind": "site", "name": "Pico de Teide", "dist_deg": 0.0003309, "dist_km": 0.037, "class": "close", "dist_source": "ks_full_grid", "edges_supported": 2}, "geometry": {"type": "Point", "coordinates": [-16.6333, 28.2667]}}, {"type": "Feature", "properties": {"kind": "site", "name": "Chott el Djerid", "dist_deg": 0.1462754, "dist_km": 16.265, "class": "far", "dist_source": "ks_full_grid", "edges_supported": 0}, "geometry": {"type": "Point", "coordinates": [9.5375, 33.8869]}}, {"type": "Feature", "properties": {"kind": "site", "name": "Teatro Amazonas", "dist_deg": 0.0031249, "dist_km": 0.347, "class": "close", "dist_source": "ks_full_grid", "edges_supported": 2}, "geometry": {"type": "Point", "coordinates": [-60.0231, -3.1306]}}, {"type": "Feature", "properties": {"kind": "site", "name": "Angel Falls", "dist_deg": 0.0111037, "dist_km": 1.235, "class": "close", "dist_source": "ks_full_grid", "edges_supported": 2}, "geometry": {"type": "Point", "coordinates": [-62.5356, 5.9675]}}, {"type": "Feature", "properties": {"kind": "site", "name": "Lago Arari", "dist_deg": 0.0599018, "dist_km": 6.661, "class": "close", "dist_source": "ks_full_grid", "edges_supported": 2}, "geometry": {"type": "Point", "coordinates": [-58.75, -3.4167]}}, {"type": "Feature", "properties": {"kind": "site", "name": "Christ the Redeemer", "dist_deg": 0.0291372, "dist_km": 3.24, "class": "close", "dist_source": "ks_full_grid", "edges_supported": 2}, "geometry": {"type": "Point", "coordinates": [-43.2106, -22.9519]}}, {"type": "Feature", "properties": {"kind": "site", "name": "Praca dos Tres Poderes", "dist_deg": 0.0249102, "dist_km": 2.77, "class": "close", "dist_source": "ks_full_grid", "edges_supported": 3}, "geometry": {"type": "Point", "coordinates": [-47.8611, -15.7997]}}, {"type": "Feature", "properties": {"kind": "site", "name": "Terreiro de Jesus", "dist_deg": 0.0127766, "dist_km": 1.421, "class": "close", "dist_source": "ks_full_grid", "edges_supported": 6}, "geometry": {"type": "Point", "coordinates": [-38.51, -12.9733]}}, {"type": "Feature", "properties": {"kind": "site", "name": "High Tatra", "dist_deg": 0.0084339, "dist_km": 0.938, "class": "close", "dist_source": "ks_full_grid", "edges_supported": 3}, "geometry": {"type": "Point", "coordinates": [20.0, 49.1667]}}, {"type": "Feature", "properties": {"kind": "site", "name": "Stortorget Stockholm", "dist_deg": 0.0253336, "dist_km": 2.817, "class": "close", "dist_source": "ks_full_grid", "edges_supported": 2}, "geometry": {"type": "Point", "coordinates": [18.0708, 59.325]}}, {"type": "Feature", "properties": {"kind": "site", "name": "Mount Olympus", "dist_deg": 0.0091801, "dist_km": 1.021, "class": "close", "dist_source": "ks_full_grid", "edges_supported": 1}, "geometry": {"type": "Point", "coordinates": [22.35, 40.0833]}}, {"type": "Feature", "properties": {"kind": "site", "name": "Arunachala Hill", "dist_deg": 0.0407168, "dist_km": 4.527, "class": "close", "dist_source": "ks_full_grid", "edges_supported": 3}, "geometry": {"type": "Point", "coordinates": [79.0517, 12.2406]}}, {"type": "Feature", "properties": {"kind": "site", "name": "Piram Island", "dist_deg": 0.0029528, "dist_km": 0.328, "class": "close", "dist_source": "ks_full_grid", "edges_supported": 1}, "geometry": {"type": "Point", "coordinates": [72.35, 21.6]}}, {"type": "Feature", "properties": {"kind": "site", "name": "Adam’s Peak", "dist_deg": 0.0168791, "dist_km": 1.877, "class": "close", "dist_source": "ks_full_grid", "edges_supported": 1}, "geometry": {"type": "Point", "coordinates": [80.4997, 6.8092]}}, {"type": "Feature", "properties": {"kind": "site", "name": "Uhuru Peak Kilimanjaro", "dist_deg": 0.03101, "dist_km": 3.448, "class": "close", "dist_source": "ks_full_grid", "edges_supported": 1}, "geometry": {"type": "Point", "coordinates": [37.3533, -3.0758]}}, {"type": "Feature", "properties": {"kind": "site", "name": "Lake Victoria (Ukerewe Island)", "dist_deg": 0.0632959, "dist_km": 7.038, "class": "close", "dist_source": "ks_full_grid", "edges_supported": 1}, "geometry": {"type": "Point", "coordinates": [32.9, -0.9833]}}, {"type": "Feature", "properties": {"kind": "site", "name": "Mount Nkungwe", "dist_deg": 0.0482731, "dist_km": 5.368, "class": "close", "dist_source": "ks_full_grid", "edges_supported": 1}, "geometry": {"type": "Point", "coordinates": [29.8, -6.1167]}}, {"type": "Feature", "properties": {"kind": "site", "name": "Mount Belukha", "dist_deg": 0.0364807, "dist_km": 4.056, "class": "close", "dist_source": "ks_full_grid", "edges_supported": 2}, "geometry": {"type": "Point", "coordinates": [88.9, 48.5]}}, {"type": "Feature", "properties": {"kind": "site", "name": "Uzynaral Strait", "dist_deg": 0.0473816, "dist_km": 5.269, "class": "close", "dist_source": "ks_full_grid", "edges_supported": 4}, "geometry": {"type": "Point", "coordinates": [75.5, 46.6]}}, {"type": "Feature", "properties": {"kind": "site", "name": "Lake Baikal (Cape Khoboy)", "dist_deg": 0.0060434, "dist_km": 0.672, "class": "close", "dist_source": "ks_full_grid", "edges_supported": 6}, "geometry": {"type": "Point", "coordinates": [107.6667, 53.1667]}}, {"type": "Feature", "properties": {"kind": "site", "name": "Forbidden City Beijing", "dist_deg": 0.0239949, "dist_km": 2.668, "class": "close", "dist_source": "ks_full_grid", "edges_supported": 2}, "geometry": {"type": "Point", "coordinates": [116.4075, 39.9042]}}, {"type": "Feature", "properties": {"kind": "site", "name": "Tai Shan", "dist_deg": 0.0041044, "dist_km": 0.456, "class": "close", "dist_source": "ks_full_grid", "edges_supported": 4}, "geometry": {"type": "Point", "coordinates": [117.3333, 36.5]}}, {"type": "Feature", "properties": {"kind": "site", "name": "Karakorum", "dist_deg": 0.0212972, "dist_km": 2.368, "class": "close", "dist_source": "ks_full_grid", "edges_supported": 1}, "geometry": {"type": "Point", "coordinates": [102.8239, 47.1972]}}, {"type": "Feature", "properties": {"kind": "site", "name": "Boulder Colorado", "dist_deg": 0.0081609, "dist_km": 0.907, "class": "close", "dist_source": "ks_full_grid", "edges_supported": 1}, "geometry": {"type": "Point", "coordinates": [-105.2706, 40.015]}}, {"type": "Feature", "properties": {"kind": "site", "name": "Mount Whitney", "dist_deg": 0.0041334, "dist_km": 0.46, "class": "close", "dist_source": "ks_full_grid", "edges_supported": 3}, "geometry": {"type": "Point", "coordinates": [-118.292, 36.5786]}}, {"type": "Feature", "properties": {"kind": "site", "name": "Cahokia Mounds", "dist_deg": 0.0510588, "dist_km": 5.678, "class": "close", "dist_source": "ks_full_grid", "edges_supported": 2}, "geometry": {"type": "Point", "coordinates": [-90.0678, 38.6503]}}, {"type": "Feature", "properties": {"kind": "site", "name": "Three Sisters Blue Mountains", "dist_deg": 0.0158875, "dist_km": 1.767, "class": "close", "dist_source": "ks_full_grid", "edges_supported": 4}, "geometry": {"type": "Point", "coordinates": [150.5, -33.75]}}, {"type": "Feature", "properties": {"kind": "site", "name": "Mount Picton Tasmania", "dist_deg": 0.0562679, "dist_km": 6.257, "class": "close", "dist_source": "ks_full_grid", "edges_supported": 1}, "geometry": {"type": "Point", "coordinates": [146.6075, -43.1575]}}, {"type": "Feature", "properties": {"kind": "site", "name": "Fraser Island", "dist_deg": 0.0108377, "dist_km": 1.205, "class": "close", "dist_source": "ks_full_grid", "edges_supported": 3}, "geometry": {"type": "Point", "coordinates": [153.0294, -25.3925]}}, {"type": "Feature", "properties": {"kind": "site", "name": "Cerro de Puntas", "dist_deg": 0.0169057, "dist_km": 1.88, "class": "close", "dist_source": "ks_full_grid", "edges_supported": 2}, "geometry": {"type": "Point", "coordinates": [-67.2639, 18.3561]}}, {"type": "Feature", "properties": {"kind": "site", "name": "Great Exuma Island", "dist_deg": 0.0082175, "dist_km": 0.914, "class": "close", "dist_source": "ks_full_grid", "edges_supported": 3}, "geometry": {"type": "Point", "coordinates": [-75.8167, 23.5167]}}, {"type": "Feature", "properties": {"kind": "site", "name": "Montego Bay", "dist_deg": 0.0302678, "dist_km": 3.366, "class": "close", "dist_source": "ks_full_grid", "edges_supported": 2}, "geometry": {"type": "Point", "coordinates": [-77.9167, 18.4667]}}, {"type": "Feature", "properties": {"kind": "site", "name": "Mount Simpson PNG", "dist_deg": 0.0024167, "dist_km": 0.269, "class": "close", "dist_source": "ks_full_grid", "edges_supported": 6}, "geometry": {"type": "Point", "coordinates": [148.0, -9.5]}}, {"type": "Feature", "properties": {"kind": "site", "name": "Popomanaseu", "dist_deg": 0.0071837, "dist_km": 0.799, "class": "close", "dist_source": "ks_full_grid", "edges_supported": 6}, "geometry": {"type": "Point", "coordinates": [160.0667, -9.7]}}, {"type": "Feature", "properties": {"kind": "site", "name": "Puncak Jaya", "dist_deg": 0.0530295, "dist_km": 5.897, "class": "close", "dist_source": "ks_full_grid", "edges_supported": 1}, "geometry": {"type": "Point", "coordinates": [138.5, -4.5]}}, {"type": "Feature", "properties": {"kind": "site", "name": "Dakar", "dist_deg": 0.0442018, "dist_km": 4.915, "class": "close", "dist_source": "ks_full_grid", "edges_supported": 2}, "geometry": {"type": "Point", "coordinates": [-17.3333, 14.75]}}, {"type": "Feature", "properties": {"kind": "site", "name": "Timbuktu", "dist_deg": 0.1041727, "dist_km": 11.584, "class": "medium", "dist_source": "ks_full_grid", "edges_supported": 0}, "geometry": {"type": "Point", "coordinates": [-3.5, 15.0]}}, {"type": "Feature", "properties": {"kind": "site", "name": "Fogo Cape Verde", "dist_deg": 0.0078552, "dist_km": 0.874, "class": "close", "dist_source": "ks_full_grid", "edges_supported": 3}, "geometry": {"type": "Point", "coordinates": [-24.3817, 14.9133]}}, {"type": "Feature", "properties": {"kind": "site", "name": "Tsodilo Hill", "dist_deg": 0.0113174, "dist_km": 1.258, "class": "close", "dist_source": "ks_full_grid", "edges_supported": 1}, "geometry": {"type": "Point", "coordinates": [21.7667, -18.75]}}, {"type": "Feature", "properties": {"kind": "site", "name": "Kgalagadi Transfrontier Park", "dist_deg": 0.062646, "dist_km": 6.966, "class": "close", "dist_source": "ks_full_grid", "edges_supported": 2}, "geometry": {"type": "Point", "coordinates": [20.7122, -25.2872]}}, {"type": "Feature", "properties": {"kind": "site", "name": "Great Zimbabwe", "dist_deg": 0.0042966, "dist_km": 0.478, "class": "close", "dist_source": "ks_full_grid", "edges_supported": 1}, "geometry": {"type": "Point", "coordinates": [30.9275, -20.2672]}}, {"type": "Feature", "properties": {"kind": "site", "name": "Khao Nan Mia", "dist_deg": 0.019205, "dist_km": 2.135, "class": "close", "dist_source": "ks_full_grid", "edges_supported": 2}, "geometry": {"type": "Point", "coordinates": [99.5941, 8.8594]}}, {"type": "Feature", "properties": {"kind": "site", "name": "Lake Toba", "dist_deg": 0.0185374, "dist_km": 2.061, "class": "close", "dist_source": "ks_full_grid", "edges_supported": 1}, "geometry": {"type": "Point", "coordinates": [98.8756, 2.6845]}}, {"type": "Feature", "properties": {"kind": "site", "name": "Angkor Wat", "dist_deg": 0.0164251, "dist_km": 1.826, "class": "close", "dist_source": "ks_full_grid", "edges_supported": 2}, "geometry": {"type": "Point", "coordinates": [103.86, 13.4256]}}, {"type": "Feature", "properties": {"kind": "site", "name": "Mount Tomaniivi", "dist_deg": 0.0509104, "dist_km": 5.661, "class": "close", "dist_source": "ks_full_grid", "edges_supported": 2}, "geometry": {"type": "Point", "coordinates": [178.0167, -17.6167]}}, {"type": "Feature", "properties": {"kind": "site", "name": "Tarawa Island", "dist_deg": 0.0245045, "dist_km": 2.725, "class": "close", "dist_source": "ks_full_grid", "edges_supported": 6}, "geometry": {"type": "Point", "coordinates": [173.0764, 1.4403]}}, {"type": "Feature", "properties": {"kind": "site", "name": "Mount Silisili", "dist_deg": 0.0110984, "dist_km": 1.234, "class": "close", "dist_source": "ks_full_grid", "edges_supported": 2}, "geometry": {"type": "Point", "coordinates": [-172.4858, -13.6183]}}, {"type": "Feature", "properties": {"kind": "site", "name": "Denali (Mount McKinley)", "dist_deg": 0.0370015, "dist_km": 4.114, "class": "close", "dist_source": "ks_full_grid", "edges_supported": 3}, "geometry": {"type": "Point", "coordinates": [-149.4289, 63.0694]}}, {"type": "Feature", "properties": {"kind": "site", "name": "Great Bear Lake", "dist_deg": 0.0169199, "dist_km": 1.881, "class": "close", "dist_source": "ks_full_grid", "edges_supported": 3}, "geometry": {"type": "Point", "coordinates": [-120.3833, 66.1197]}}, {"type": "Feature", "properties": {"kind": "site", "name": "Fox Islands Aleutian", "dist_deg": 0.0867052, "dist_km": 9.641, "class": "close", "dist_source": "ks_full_grid", "edges_supported": 1}, "geometry": {"type": "Point", "coordinates": [-166.5833, 53.7667]}}, {"type": "Feature", "properties": {"kind": "site", "name": "Mount Maromokotro", "dist_deg": 0.0860413, "dist_km": 9.567, "class": "close", "dist_source": "ks_full_grid", "edges_supported": 1}, "geometry": {"type": "Point", "coordinates": [49.4847, -13.0183]}}, {"type": "Feature", "properties": {"kind": "site", "name": "Piton des Neiges", "dist_deg": 0.0542803, "dist_km": 6.036, "class": "close", "dist_source": "ks_full_grid", "edges_supported": 1}, "geometry": {"type": "Point", "coordinates": [55.7333, -21.3167]}}, {"type": "Feature", "properties": {"kind": "site", "name": "Morne Seychellois", "dist_deg": 0.116449, "dist_km": 12.948, "class": "medium", "dist_source": "ks_full_grid", "edges_supported": 0}, "geometry": {"type": "Point", "coordinates": [55.45, -4.6167]}}, {"type": "Feature", "properties": {"kind": "site", "name": "Mount Damavand", "dist_deg": 0.0375748, "dist_km": 4.178, "class": "close", "dist_source": "ks_full_grid", "edges_supported": 1}, "geometry": {"type": "Point", "coordinates": [52.1097, 35.9547]}}, {"type": "Feature", "properties": {"kind": "site", "name": "Vozrozhdeniya Island", "dist_deg": 0.0076854, "dist_km": 0.855, "class": "close", "dist_source": "ks_full_grid", "edges_supported": 3}, "geometry": {"type": "Point", "coordinates": [59.1419, 45.0917]}}, {"type": "Feature", "properties": {"kind": "site", "name": "Malek Siah Kuh", "dist_deg": 0.0348544, "dist_km": 3.876, "class": "close", "dist_source": "ks_full_grid", "edges_supported": 2}, "geometry": {"type": "Point", "coordinates": [60.8636, 29.4892]}}, {"type": "Feature", "properties": {"kind": "site", "name": "Klyuchevskaya Sopka", "dist_deg": 0.0250693, "dist_km": 2.788, "class": "close", "dist_source": "ks_full_grid", "edges_supported": 3}, "geometry": {"type": "Point", "coordinates": [160.6428, 56.0581]}}, {"type": "Feature", "properties": {"kind": "site", "name": "Sakhalin Island", "dist_deg": 0.0410428, "dist_km": 4.564, "class": "close", "dist_source": "ks_full_grid", "edges_supported": 1}, "geometry": {"type": "Point", "coordinates": [143.0028, 50.2247]}}, {"type": "Feature", "properties": {"kind": "site", "name": "Cherskiy", "dist_deg": 0.1333501, "dist_km": 14.828, "class": "medium", "dist_source": "ks_full_grid", "edges_supported": 0}, "geometry": {"type": "Point", "coordinates": [-115.9872, 34.6272]}}, {"type": "Feature", "properties": {"kind": "site", "name": "Easter Island", "dist_deg": 0.0039137, "dist_km": 0.435, "class": "close", "dist_source": "ks_full_grid", "edges_supported": 1}, "geometry": {"type": "Point", "coordinates": [-109.3664, -27.1211]}}, {"type": "Feature", "properties": {"kind": "site", "name": "Reykjavik-Thingvellir", "dist_deg": 0.0759358, "dist_km": 8.444, "class": "close", "dist_source": "ks_full_grid", "edges_supported": 1}, "geometry": {"type": "Point", "coordinates": [-21.8953, 64.1353]}}, {"type": "Feature", "properties": {"kind": "site", "name": "Callanish", "dist_deg": 0.0256485, "dist_km": 2.852, "class": "close", "dist_source": "ks_full_grid", "edges_supported": 1}, "geometry": {"type": "Point", "coordinates": [-6.7367, 58.1997]}}, {"type": "Feature", "properties": {"kind": "site", "name": "Nuuk Greenland", "dist_deg": 0.0599557, "dist_km": 6.667, "class": "close", "dist_source": "ks_full_grid", "edges_supported": 2}, "geometry": {"type": "Point", "coordinates": [-51.7214, 64.1836]}}, {"type": "Feature", "properties": {"kind": "site", "name": "Port Stanley", "dist_deg": 0.0103162, "dist_km": 1.147, "class": "close", "dist_source": "ks_full_grid", "edges_supported": 4}, "geometry": {"type": "Point", "coordinates": [-57.8492, -51.7011]}}, {"type": "Feature", "properties": {"kind": "site", "name": "South Georgia Island", "dist_deg": 0.0089683, "dist_km": 0.997, "class": "close", "dist_source": "ks_full_grid", "edges_supported": 4}, "geometry": {"type": "Point", "coordinates": [-36.75, -54.25]}}, {"type": "Feature", "properties": {"kind": "site", "name": "Lake Buenos Aires", "dist_deg": 0.0494965, "dist_km": 5.504, "class": "close", "dist_source": "ks_full_grid", "edges_supported": 2}, "geometry": {"type": "Point", "coordinates": [-71.3675, -46.5033]}}, {"type": "Feature", "properties": {"kind": "site", "name": "Wood Buffalo National Park", "dist_deg": 0.0102858, "dist_km": 1.144, "class": "close", "dist_source": "ks_full_grid", "edges_supported": 1}, "geometry": {"type": "Point", "coordinates": [-112.8542, 58.9239]}}, {"type": "Feature", "properties": {"kind": "site", "name": "Adelaide Peninsula", "dist_deg": 0.0347464, "dist_km": 3.864, "class": "close", "dist_source": "ks_full_grid", "edges_supported": 4}, "geometry": {"type": "Point", "coordinates": [-97.8, 68.0833]}}, {"type": "Feature", "properties": {"kind": "site", "name": "Bay of God’s Mercy", "dist_deg": 0.0012307, "dist_km": 0.137, "class": "close", "dist_source": "ks_full_grid", "edges_supported": 5}, "geometry": {"type": "Point", "coordinates": [-84.1333, 64.6]}}, {"type": "Feature", "properties": {"kind": "site", "name": "Ascension Island", "dist_deg": 0.0088244, "dist_km": 0.981, "class": "close", "dist_source": "ks_full_grid", "edges_supported": 5}, "geometry": {"type": "Point", "coordinates": [-14.3558, -7.9467]}}, {"type": "Feature", "properties": {"kind": "site", "name": "St. Helena Island", "dist_deg": 0.0544884, "dist_km": 6.059, "class": "close", "dist_source": "ks_full_grid", "edges_supported": 3}, "geometry": {"type": "Point", "coordinates": [-5.7167, -15.9333]}}, {"type": "Feature", "properties": {"kind": "site", "name": "Mount Loma", "dist_deg": 0.0131298, "dist_km": 1.46, "class": "close", "dist_source": "ks_full_grid", "edges_supported": 1}, "geometry": {"type": "Point", "coordinates": [-11.117, 9.217]}}, {"type": "Feature", "properties": {"kind": "site", "name": "Lena-Muna juncture", "dist_deg": 0.1184728, "dist_km": 13.174, "class": "medium", "dist_source": "ks_full_grid", "edges_supported": 0}, "geometry": {"type": "Point", "coordinates": [123.2833, 68.0167]}}, {"type": "Feature", "properties": {"kind": "site", "name": "Lake Ozero Taymyr", "dist_deg": 0.0142408, "dist_km": 1.583, "class": "close", "dist_source": "ks_full_grid", "edges_supported": 3}, "geometry": {"type": "Point", "coordinates": [101.7167, 74.5167]}}, {"type": "Feature", "properties": {"kind": "site", "name": "Tunguska", "dist_deg": 0.0722006, "dist_km": 8.028, "class": "close", "dist_source": "ks_full_grid", "edges_supported": 1}, "geometry": {"type": "Point", "coordinates": [102.7861, 52.6528]}}, {"type": "Feature", "properties": {"kind": "site", "name": "Mount Ross Kerguelen", "dist_deg": 0.0361236, "dist_km": 4.017, "class": "close", "dist_source": "ks_full_grid", "edges_supported": 2}, "geometry": {"type": "Point", "coordinates": [69.5, -49.5833]}}, {"type": "Feature", "properties": {"kind": "site", "name": "Big Ben Heard Island", "dist_deg": 0.0065334, "dist_km": 0.727, "class": "close", "dist_source": "ks_full_grid", "edges_supported": 4}, "geometry": {"type": "Point", "coordinates": [73.525, -53.1083]}}, {"type": "Feature", "properties": {"kind": "site", "name": "Prydz Bay", "dist_deg": 0.0586959, "dist_km": 6.527, "class": "close", "dist_source": "ks_full_grid", "edges_supported": 3}, "geometry": {"type": "Point", "coordinates": [75.0, -69.0]}}, {"type": "Feature", "properties": {"kind": "site", "name": "Mount Lamlam Guam", "dist_deg": 0.0359204, "dist_km": 3.994, "class": "close", "dist_source": "ks_full_grid", "edges_supported": 3}, "geometry": {"type": "Point", "coordinates": [144.6628, 13.3386]}}, {"type": "Feature", "properties": {"kind": "site", "name": "Yap Island", "dist_deg": 0.0298517, "dist_km": 3.319, "class": "close", "dist_source": "ks_full_grid", "edges_supported": 2}, "geometry": {"type": "Point", "coordinates": [134.3833, -2.55]}}, {"type": "Feature", "properties": {"kind": "site", "name": "Nan Madol", "dist_deg": 0.0516618, "dist_km": 5.745, "class": "close", "dist_source": "ks_full_grid", "edges_supported": 1}, "geometry": {"type": "Point", "coordinates": [158.3358, 6.8444]}}, {"type": "Feature", "properties": {"kind": "site", "name": "Mount Orohena", "dist_deg": 0.0033922, "dist_km": 0.377, "class": "close", "dist_source": "ks_full_grid", "edges_supported": 1}, "geometry": {"type": "Point", "coordinates": [-149.4842, -17.6197]}}, {"type": "Feature", "properties": {"kind": "site", "name": "Hivaoa Island", "dist_deg": 0.0352107, "dist_km": 3.915, "class": "close", "dist_source": "ks_full_grid", "edges_supported": 1}, "geometry": {"type": "Point", "coordinates": [-139.0211, -9.7547]}}, {"type": "Feature", "properties": {"kind": "site", "name": "Kiritimati (Christmas Island)", "dist_deg": 0.0212994, "dist_km": 2.368, "class": "close", "dist_source": "ks_full_grid", "edges_supported": 4}, "geometry": {"type": "Point", "coordinates": [-157.4278, 1.8722]}}, {"type": "Feature", "properties": {"kind": "site", "name": "Graciosa Azores", "dist_deg": 0.0063664, "dist_km": 0.708, "class": "close", "dist_source": "ks_full_grid", "edges_supported": 3}, "geometry": {"type": "Point", "coordinates": [-28.0069, 39.0525]}}, {"type": "Feature", "properties": {"kind": "site", "name": "St. George’s Island Bermuda", "dist_deg": 0.0329492, "dist_km": 3.664, "class": "close", "dist_source": "ks_full_grid", "edges_supported": 2}, "geometry": {"type": "Point", "coordinates": [-64.7786, 32.2811]}}, {"type": "Feature", "properties": {"kind": "site", "name": "Lisbon Portugal", "dist_deg": 0.0431965, "dist_km": 4.803, "class": "close", "dist_source": "ks_full_grid", "edges_supported": 2}, "geometry": {"type": "Point", "coordinates": [-9.1356, 38.7069]}}, {"type": "Feature", "properties": {"kind": "site", "name": "Longyearbyen Spitsbergen", "dist_deg": 0.0119575, "dist_km": 1.33, "class": "close", "dist_source": "ks_full_grid", "edges_supported": 3}, "geometry": {"type": "Point", "coordinates": [18.1642, 78.6481]}}, {"type": "Feature", "properties": {"kind": "site", "name": "Independence Fjord", "dist_deg": 0.0098245, "dist_km": 1.092, "class": "close", "dist_source": "ks_full_grid", "edges_supported": 1}, "geometry": {"type": "Point", "coordinates": [-28.2725, 81.9247]}}, {"type": "Feature", "properties": {"kind": "site", "name": "Yuzhny Novaya Zemlya", "dist_deg": 0.010438, "dist_km": 1.161, "class": "close", "dist_source": "ks_full_grid", "edges_supported": 5}, "geometry": {"type": "Point", "coordinates": [80.3667, 73.4833]}}, {"type": "Feature", "properties": {"kind": "site", "name": "Mount Hope Antarctica", "dist_deg": 0.0293697, "dist_km": 3.266, "class": "close", "dist_source": "ks_full_grid", "edges_supported": 2}, "geometry": {"type": "Point", "coordinates": [171.0, -83.75]}}, {"type": "Feature", "properties": {"kind": "site", "name": "Bear Island Antarctica", "dist_deg": 0.0531827, "dist_km": 5.914, "class": "close", "dist_source": "ks_full_grid", "edges_supported": 3}, "geometry": {"type": "Point", "coordinates": [-67.06, -68.18]}}, {"type": "Feature", "properties": {"kind": "site", "name": "Elephant Island", "dist_deg": 0.0091934, "dist_km": 1.022, "class": "close", "dist_source": "ks_full_grid", "edges_supported": 2}, "geometry": {"type": "Point", "coordinates": [-55.1167, -61.1333]}}, {"type": "Feature", "properties": {"kind": "site", "name": "South Pole", "dist_deg": 0.0679316, "dist_km": 7.554, "class": "close", "dist_source": "ks_full_grid", "edges_supported": 2}, "geometry": {"type": "Point", "coordinates": [0.0, -90.0]}}, {"type": "Feature", "properties": {"kind": "site", "name": "South Magnetic Pole", "dist_deg": 0.0468764, "dist_km": 5.212, "class": "close", "dist_source": "ks_full_grid", "edges_supported": 1}, "geometry": {"type": "Point", "coordinates": [138.0, -67.0]}}, {"type": "Feature", "properties": {"kind": "site", "name": "Sanae Antarctica", "dist_deg": 0.0019249, "dist_km": 0.214, "class": "close", "dist_source": "ks_full_grid", "edges_supported": 5}, "geometry": {"type": "Point", "coordinates": [127.5233, -71.6728]}}, {"type": "Feature", "properties": {"kind": "site", "name": "Halifax Nova Scotia", "dist_deg": 0.0149385, "dist_km": 1.661, "class": "close", "dist_source": "ks_full_grid", "edges_supported": 1}, "geometry": {"type": "Point", "coordinates": [-63.5753, 44.6489]}}, {"type": "Feature", "properties": {"kind": "site", "name": "Washington DC", "dist_deg": 0.0803047, "dist_km": 8.93, "class": "close", "dist_source": "ks_full_grid", "edges_supported": 1}, "geometry": {"type": "Point", "coordinates": [-77.0364, 38.895]}}]}