{"type": "FeatureCollection", "name": "E8_proj_seed1328 sites", "properties": {"shape": "E8_proj_seed1328", "lock_lat": 35.0, "lock_lon": -165.0, "bearing": 60.0, "thresholds": {"close": 0.09892531138990063, "medium": 0.13489815189531904, "close_km": 11.0, "medium_km": 15.0, "dist_mode": "edge_exact"}}, "features": [{"type": "Feature", "properties": {"kind": "site", "name": "Glastonbury Tor", "dist_deg": 0.01362, "dist_km": 1.514, "class": "close", "dist_source": "ks_full_grid"}, "geometry": {"type": "Point", "coordinates": [-2.7, 51.0]}}, {"type": "Feature", "properties": {"kind": "site", "name": "Shaftesbury", "dist_deg": 0.0003611, "dist_km": 0.04, "class": "close", "dist_source": "ks_full_grid"}, "geometry": {"type": "Point", "coordinates": [-2.195, 51.0]}}, {"type": "Feature", "properties": {"kind": "site", "name": "Brandenburg Gate", "dist_deg": 0.0143975, "dist_km": 1.601, "class": "close", "dist_source": "ks_full_grid"}, "geometry": {"type": "Point", "coordinates": [13.3778, 52.5164]}}, {"type": "Feature", "properties": {"kind": "site", "name": "Placa de Catalunya", "dist_deg": 0.0115297, "dist_km": 1.282, "class": "close", "dist_source": "ks_full_grid"}, "geometry": {"type": "Point", "coordinates": [2.17, 41.387]}}, {"type": "Feature", "properties": {"kind": "site", "name": "Island of the Sun", "dist_deg": 0.0331744, "dist_km": 3.689, "class": "close", "dist_source": "ks_full_grid"}, "geometry": {"type": "Point", "coordinates": [-69.1717, -16.0167]}}, {"type": "Feature", "properties": {"kind": "site", "name": "Plaza Mayor Lima", "dist_deg": 0.039999, "dist_km": 4.448, "class": "close", "dist_source": "ks_full_grid"}, "geometry": {"type": "Point", "coordinates": [-77.0306, -12.0458]}}, {"type": "Feature", "properties": {"kind": "site", "name": "Rio Ucayali-Rio Maranon confluence", "dist_deg": 0.0116771, "dist_km": 1.298, "class": "close", "dist_source": "ks_full_grid"}, "geometry": {"type": "Point", "coordinates": [-73.45, -4.45]}}, {"type": "Feature", "properties": {"kind": "site", "name": "Uluru", "dist_deg": 0.0467471, "dist_km": 5.198, "class": "close", "dist_source": "ks_full_grid"}, "geometry": {"type": "Point", "coordinates": [130.9917, -25.3433]}}, {"type": "Feature", "properties": {"kind": "site", "name": "Kata Tjuta", "dist_deg": 0.0334031, "dist_km": 3.714, "class": "close", "dist_source": "ks_full_grid"}, "geometry": {"type": "Point", "coordinates": [130.7528, -25.2981]}}, {"type": "Feature", "properties": {"kind": "site", "name": "Nourlangie Rock", "dist_deg": 0.0251871, "dist_km": 2.801, "class": "close", "dist_source": "ks_full_grid"}, "geometry": {"type": "Point", "coordinates": [132.8111, -12.8669]}}, {"type": "Feature", "properties": {"kind": "site", "name": "Hamelin Pool", "dist_deg": 0.0608697, "dist_km": 6.768, "class": "close", "dist_source": "ks_full_grid"}, "geometry": {"type": "Point", "coordinates": [114.2003, -26.435]}}, {"type": "Feature", "properties": {"kind": "site", "name": "Tirta Empul", "dist_deg": 0.0073009, "dist_km": 0.812, "class": "close", "dist_source": "ks_full_grid"}, "geometry": {"type": "Point", "coordinates": [115.3111, -8.4167]}}, {"type": "Feature", "properties": {"kind": "site", "name": "Borobudur", "dist_deg": 0.0117949, "dist_km": 1.312, "class": "close", "dist_source": "ks_full_grid"}, "geometry": {"type": "Point", "coordinates": [110.2042, -7.6081]}}, {"type": "Feature", "properties": {"kind": "site", "name": "Mount Kinabalu", "dist_deg": 0.0066727, "dist_km": 0.742, "class": "close", "dist_source": "ks_full_grid"}, "geometry": {"type": "Point", "coordinates": [116.5628, 6.0744]}}, {"type": "Feature", "properties": {"kind": "site", "name": "Mount Kailash", "dist_deg": 0.0196645, "dist_km": 2.187, "class": "close", "dist_source": "ks_full_grid"}, "geometry": {"type": "Point", "coordinates": [81.3125, 31.0675]}}, {"type": "Feature", "properties": {"kind": "site", "name": "Karakul Lake", "dist_deg": 0.0624612, "dist_km": 6.945, "class": "close", "dist_source": "ks_full_grid"}, "geometry": {"type": "Point", "coordinates": [73.4886, 39.0217]}}, {"type": "Feature", "properties": {"kind": "site", "name": "Sundarbans-Sagar Island", "dist_deg": 0.019564, "dist_km": 2.175, "class": "close", "dist_source": "ks_full_grid"}, "geometry": {"type": "Point", "coordinates": [88.2953, 22.5564]}}, {"type": "Feature", "properties": {"kind": "site", "name": "Mount Shasta", "dist_deg": 0.0803626, "dist_km": 8.936, "class": "close", "dist_source": "ks_full_grid"}, "geometry": {"type": "Point", "coordinates": [-122.31, 41.31]}}, {"type": "Feature", "properties": {"kind": "site", "name": "Kachina Peaks Wilderness", "dist_deg": 0.0066055, "dist_km": 0.735, "class": "close", "dist_source": "ks_full_grid"}, "geometry": {"type": "Point", "coordinates": [-111.6625, 35.3394]}}, {"type": "Feature", "properties": {"kind": "site", "name": "Golden Hinde", "dist_deg": 0.0587682, "dist_km": 6.535, "class": "close", "dist_source": "ks_full_grid"}, "geometry": {"type": "Point", "coordinates": [-125.4494, 49.6506]}}, {"type": "Feature", "properties": {"kind": "site", "name": "El Tule-Palenque", "dist_deg": 0.0050658, "dist_km": 0.563, "class": "close", "dist_source": "ks_full_grid"}, "geometry": {"type": "Point", "coordinates": [-91.9817, 17.51]}}, {"type": "Feature", "properties": {"kind": "site", "name": "Laguna Corcovado", "dist_deg": 0.0166495, "dist_km": 1.851, "class": "close", "dist_source": "ks_full_grid"}, "geometry": {"type": "Point", "coordinates": [-83.6167, 8.55]}}, {"type": "Feature", "properties": {"kind": "site", "name": "Cerro de la Silla", "dist_deg": 0.0173864, "dist_km": 1.933, "class": "close", "dist_source": "ks_full_grid"}, "geometry": {"type": "Point", "coordinates": [-100.3092, 25.6733]}}, {"type": "Feature", "properties": {"kind": "site", "name": "Mount Fuji", "dist_deg": 0.0134079, "dist_km": 1.491, "class": "close", "dist_source": "ks_full_grid"}, "geometry": {"type": "Point", "coordinates": [138.7317, 35.3628]}}, {"type": "Feature", "properties": {"kind": "site", "name": "Mani San", "dist_deg": 0.0221212, "dist_km": 2.46, "class": "close", "dist_source": "ks_full_grid"}, "geometry": {"type": "Point", "coordinates": [126.4347, 37.6117]}}, {"type": "Feature", "properties": {"kind": "site", "name": "Sefa Utaki", "dist_deg": 0.0345819, "dist_km": 3.845, "class": "close", "dist_source": "ks_full_grid"}, "geometry": {"type": "Point", "coordinates": [127.7669, 26.1444]}}, {"type": "Feature", "properties": {"kind": "site", "name": "Haleakala Crater", "dist_deg": 0.019356, "dist_km": 2.152, "class": "close", "dist_source": "ks_full_grid"}, "geometry": {"type": "Point", "coordinates": [-156.1828, 20.7186]}}, {"type": "Feature", "properties": {"kind": "site", "name": "Midway Atoll", "dist_deg": 0.0497419, "dist_km": 5.531, "class": "close", "dist_source": "ks_full_grid"}, "geometry": {"type": "Point", "coordinates": [-177.3833, 28.25]}}, {"type": "Feature", "properties": {"kind": "site", "name": "Mauna Loa", "dist_deg": 0.0231934, "dist_km": 2.579, "class": "close", "dist_source": "ks_full_grid"}, "geometry": {"type": "Point", "coordinates": [-155.5356, 19.7569]}}, {"type": "Feature", "properties": {"kind": "site", "name": "Lake Rotopounamu", "dist_deg": 0.027517, "dist_km": 3.06, "class": "close", "dist_source": "ks_full_grid"}, "geometry": {"type": "Point", "coordinates": [175.7372, -39.0258]}}, {"type": "Feature", "properties": {"kind": "site", "name": "Mount Panié", "dist_deg": 0.0498744, "dist_km": 5.546, "class": "close", "dist_source": "ks_full_grid"}, "geometry": {"type": "Point", "coordinates": [164.7706, -20.5894]}}, {"type": "Feature", "properties": {"kind": "site", "name": "Macquarie Island", "dist_deg": 0.050356, "dist_km": 5.599, "class": "close", "dist_source": "ks_full_grid"}, "geometry": {"type": "Point", "coordinates": [158.8956, -54.5947]}}, {"type": "Feature", "properties": {"kind": "site", "name": "Great Pyramid of Giza", "dist_deg": 0.0097984, "dist_km": 1.089, "class": "close", "dist_source": "ks_full_grid"}, "geometry": {"type": "Point", "coordinates": [31.1342, 29.9792]}}, {"type": "Feature", "properties": {"kind": "site", "name": "Mount Sinai", "dist_deg": 0.069953, "dist_km": 7.778, "class": "close", "dist_source": "ks_full_grid"}, "geometry": {"type": "Point", "coordinates": [33.973, 28.5394]}}, {"type": "Feature", "properties": {"kind": "site", "name": "Mount of Olives", "dist_deg": 0.0116465, "dist_km": 1.295, "class": "close", "dist_source": "ks_full_grid"}, "geometry": {"type": "Point", "coordinates": [35.2439, 31.778]}}, {"type": "Feature", "properties": {"kind": "site", "name": "Mecca", "dist_deg": 0.0103408, "dist_km": 1.15, "class": "close", "dist_source": "ks_full_grid"}, "geometry": {"type": "Point", "coordinates": [39.8147, 21.4275]}}, {"type": "Feature", "properties": {"kind": "site", "name": "Takht-e Soleiman", "dist_deg": 0.0033406, "dist_km": 0.371, "class": "close", "dist_source": "ks_full_grid"}, "geometry": {"type": "Point", "coordinates": [47.2361, 36.6033]}}, {"type": "Feature", "properties": {"kind": "site", "name": "Table Mountain", "dist_deg": 0.0285469, "dist_km": 3.174, "class": "close", "dist_source": "ks_full_grid"}, "geometry": {"type": "Point", "coordinates": [18.43, -33.9247]}}, {"type": "Feature", "properties": {"kind": "site", "name": "Pilansberg", "dist_deg": 0.0649713, "dist_km": 7.224, "class": "close", "dist_source": "ks_full_grid"}, "geometry": {"type": "Point", "coordinates": [27.0322, -25.2294]}}, {"type": "Feature", "properties": {"kind": "site", "name": "Mont-aux-Sources", "dist_deg": 0.0072901, "dist_km": 0.811, "class": "close", "dist_source": "ks_full_grid"}, "geometry": {"type": "Point", "coordinates": [28.8847, -28.7592]}}, {"type": "Feature", "properties": {"kind": "site", "name": "Sergiev Posad", "dist_deg": 0.0119034, "dist_km": 1.324, "class": "close", "dist_source": "ks_full_grid"}, "geometry": {"type": "Point", "coordinates": [37.6175, 55.7558]}}, {"type": "Feature", "properties": {"kind": "site", "name": "Mount Konzhakovsky Kamen", "dist_deg": 0.0049526, "dist_km": 0.551, "class": "close", "dist_source": "ks_full_grid"}, "geometry": {"type": "Point", "coordinates": [60.0, 59.0]}}, {"type": "Feature", "properties": {"kind": "site", "name": "Mount Elbrus", "dist_deg": 0.0219648, "dist_km": 2.442, "class": "close", "dist_source": "ks_full_grid"}, "geometry": {"type": "Point", "coordinates": [42.4392, 43.355]}}, {"type": "Feature", "properties": {"kind": "site", "name": "Po Lin Monastery", "dist_deg": 0.04224, "dist_km": 4.697, "class": "close", "dist_source": "ks_full_grid"}, "geometry": {"type": "Point", "coordinates": [113.9078, 22.2556]}}, {"type": "Feature", "properties": {"kind": "site", "name": "Emei Shan", "dist_deg": 0.0261344, "dist_km": 2.906, "class": "close", "dist_source": "ks_full_grid"}, "geometry": {"type": "Point", "coordinates": [104.0756, 30.6511]}}, {"type": "Feature", "properties": {"kind": "site", "name": "Mount Pulag", "dist_deg": 0.0051824, "dist_km": 0.576, "class": "close", "dist_source": "ks_full_grid"}, "geometry": {"type": "Point", "coordinates": [120.8836, 16.5836]}}, {"type": "Feature", "properties": {"kind": "site", "name": "Niagara Falls", "dist_deg": 0.1093211, "dist_km": 12.156, "class": "medium", "dist_source": "ks_full_grid"}, "geometry": {"type": "Point", "coordinates": [-79.0853, 43.0903]}}, {"type": "Feature", "properties": {"kind": "site", "name": "Pilot Knob State Park", "dist_deg": 0.010158, "dist_km": 1.129, "class": "close", "dist_source": "ks_full_grid"}, "geometry": {"type": "Point", "coordinates": [-93.5533, 43.2528]}}, {"type": "Feature", "properties": {"kind": "site", "name": "Akimiski Island", "dist_deg": 0.0536978, "dist_km": 5.971, "class": "close", "dist_source": "ks_full_grid"}, "geometry": {"type": "Point", "coordinates": [-81.3172, 52.9872]}}, {"type": "Feature", "properties": {"kind": "site", "name": "Mount Dimlang", "dist_deg": 0.093045, "dist_km": 10.346, "class": "close", "dist_source": "ks_full_grid"}, "geometry": {"type": "Point", "coordinates": [11.75, 8.5]}}, {"type": "Feature", "properties": {"kind": "site", "name": "Lake Chad", "dist_deg": 0.0180567, "dist_km": 2.008, "class": "close", "dist_source": "ks_full_grid"}, "geometry": {"type": "Point", "coordinates": [14.1, 13.3303]}}, {"type": "Feature", "properties": {"kind": "site", "name": "Isangila Falls", "dist_deg": 0.0401063, "dist_km": 4.46, "class": "close", "dist_source": "ks_full_grid"}, "geometry": {"type": "Point", "coordinates": [12.0, -6.0]}}, {"type": "Feature", "properties": {"kind": "site", "name": "Marco Zero Recife", "dist_deg": 0.0043251, "dist_km": 0.481, "class": "close", "dist_source": "ks_full_grid"}, "geometry": {"type": "Point", "coordinates": [-34.8711, -8.0633]}}, {"type": "Feature", "properties": {"kind": "site", "name": "Peter and Paul Rocks", "dist_deg": 0.0522786, "dist_km": 5.813, "class": "close", "dist_source": "ks_full_grid"}, "geometry": {"type": "Point", "coordinates": [-29.3353, -0.9169]}}, {"type": "Feature", "properties": {"kind": "site", "name": "Parnaiba River Headwaters", "dist_deg": 0.0426276, "dist_km": 4.74, "class": "close", "dist_source": "ks_full_grid"}, "geometry": {"type": "Point", "coordinates": [-43.1747, -8.3231]}}, {"type": "Feature", "properties": {"kind": "site", "name": "Plaza de Mayo", "dist_deg": 0.0375399, "dist_km": 4.174, "class": "close", "dist_source": "ks_full_grid"}, "geometry": {"type": "Point", "coordinates": [-58.3722, -34.6083]}}, {"type": "Feature", "properties": {"kind": "site", "name": "Iguazu Falls", "dist_deg": 0.0903708, "dist_km": 10.049, "class": "close", "dist_source": "ks_full_grid"}, "geometry": {"type": "Point", "coordinates": [-54.4453, -25.6803]}}, {"type": "Feature", "properties": {"kind": "site", "name": "Plaza de Armas Santiago", "dist_deg": 0.0264155, "dist_km": 2.937, "class": "close", "dist_source": "ks_full_grid"}, "geometry": {"type": "Point", "coordinates": [-70.6519, -33.4431]}}, {"type": "Feature", "properties": {"kind": "site", "name": "Jebel Toubkal", "dist_deg": 0.0938321, "dist_km": 10.434, "class": "close", "dist_source": "ks_full_grid"}, "geometry": {"type": "Point", "coordinates": [-7.9161, 31.0619]}}, {"type": "Feature", "properties": {"kind": "site", "name": "Pico de Teide", "dist_deg": 0.085625, "dist_km": 9.521, "class": "close", "dist_source": "ks_full_grid"}, "geometry": {"type": "Point", "coordinates": [-16.6333, 28.2667]}}, {"type": "Feature", "properties": {"kind": "site", "name": "Chott el Djerid", "dist_deg": 0.0497745, "dist_km": 5.535, "class": "close", "dist_source": "ks_full_grid"}, "geometry": {"type": "Point", "coordinates": [9.5375, 33.8869]}}, {"type": "Feature", "properties": {"kind": "site", "name": "Teatro Amazonas", "dist_deg": 0.0398618, "dist_km": 4.432, "class": "close", "dist_source": "ks_full_grid"}, "geometry": {"type": "Point", "coordinates": [-60.0231, -3.1306]}}, {"type": "Feature", "properties": {"kind": "site", "name": "Angel Falls", "dist_deg": 0.0174983, "dist_km": 1.946, "class": "close", "dist_source": "ks_full_grid"}, "geometry": {"type": "Point", "coordinates": [-62.5356, 5.9675]}}, {"type": "Feature", "properties": {"kind": "site", "name": "Lago Arari", "dist_deg": 0.0572533, "dist_km": 6.366, "class": "close", "dist_source": "ks_full_grid"}, "geometry": {"type": "Point", "coordinates": [-58.75, -3.4167]}}, {"type": "Feature", "properties": {"kind": "site", "name": "Christ the Redeemer", "dist_deg": 0.0444344, "dist_km": 4.941, "class": "close", "dist_source": "ks_full_grid"}, "geometry": {"type": "Point", "coordinates": [-43.2106, -22.9519]}}, {"type": "Feature", "properties": {"kind": "site", "name": "Praca dos Tres Poderes", "dist_deg": 0.0096836, "dist_km": 1.077, "class": "close", "dist_source": "ks_full_grid"}, "geometry": {"type": "Point", "coordinates": [-47.8611, -15.7997]}}, {"type": "Feature", "properties": {"kind": "site", "name": "Terreiro de Jesus", "dist_deg": 0.0454994, "dist_km": 5.059, "class": "close", "dist_source": "ks_full_grid"}, "geometry": {"type": "Point", "coordinates": [-38.51, -12.9733]}}, {"type": "Feature", "properties": {"kind": "site", "name": "High Tatra", "dist_deg": 0.0014325, "dist_km": 0.159, "class": "close", "dist_source": "ks_full_grid"}, "geometry": {"type": "Point", "coordinates": [20.0, 49.1667]}}, {"type": "Feature", "properties": {"kind": "site", "name": "Stortorget Stockholm", "dist_deg": 0.0352603, "dist_km": 3.921, "class": "close", "dist_source": "ks_full_grid"}, "geometry": {"type": "Point", "coordinates": [18.0708, 59.325]}}, {"type": "Feature", "properties": {"kind": "site", "name": "Mount Olympus", "dist_deg": 0.0763483, "dist_km": 8.49, "class": "close", "dist_source": "ks_full_grid"}, "geometry": {"type": "Point", "coordinates": [22.35, 40.0833]}}, {"type": "Feature", "properties": {"kind": "site", "name": "Arunachala Hill", "dist_deg": 0.0059389, "dist_km": 0.66, "class": "close", "dist_source": "ks_full_grid"}, "geometry": {"type": "Point", "coordinates": [79.0517, 12.2406]}}, {"type": "Feature", "properties": {"kind": "site", "name": "Piram Island", "dist_deg": 0.0015563, "dist_km": 0.173, "class": "close", "dist_source": "ks_full_grid"}, "geometry": {"type": "Point", "coordinates": [72.35, 21.6]}}, {"type": "Feature", "properties": {"kind": "site", "name": "Adam’s Peak", "dist_deg": 0.0087266, "dist_km": 0.97, "class": "close", "dist_source": "ks_full_grid"}, "geometry": {"type": "Point", "coordinates": [80.4997, 6.8092]}}, {"type": "Feature", "properties": {"kind": "site", "name": "Uhuru Peak Kilimanjaro", "dist_deg": 0.0308186, "dist_km": 3.427, "class": "close", "dist_source": "ks_full_grid"}, "geometry": {"type": "Point", "coordinates": [37.3533, -3.0758]}}, {"type": "Feature", "properties": {"kind": "site", "name": "Lake Victoria (Ukerewe Island)", "dist_deg": 0.009893, "dist_km": 1.1, "class": "close", "dist_source": "ks_full_grid"}, "geometry": {"type": "Point", "coordinates": [32.9, -0.9833]}}, {"type": "Feature", "properties": {"kind": "site", "name": "Mount Nkungwe", "dist_deg": 0.0232869, "dist_km": 2.589, "class": "close", "dist_source": "ks_full_grid"}, "geometry": {"type": "Point", "coordinates": [29.8, -6.1167]}}, {"type": "Feature", "properties": {"kind": "site", "name": "Mount Belukha", "dist_deg": 0.0043618, "dist_km": 0.485, "class": "close", "dist_source": "ks_full_grid"}, "geometry": {"type": "Point", "coordinates": [88.9, 48.5]}}, {"type": "Feature", "properties": {"kind": "site", "name": "Uzynaral Strait", "dist_deg": 0.0037679, "dist_km": 0.419, "class": "close", "dist_source": "ks_full_grid"}, "geometry": {"type": "Point", "coordinates": [75.5, 46.6]}}, {"type": "Feature", "properties": {"kind": "site", "name": "Lake Baikal (Cape Khoboy)", "dist_deg": 0.0013766, "dist_km": 0.153, "class": "close", "dist_source": "ks_full_grid"}, "geometry": {"type": "Point", "coordinates": [107.6667, 53.1667]}}, {"type": "Feature", "properties": {"kind": "site", "name": "Forbidden City Beijing", "dist_deg": 0.0872268, "dist_km": 9.699, "class": "close", "dist_source": "ks_full_grid"}, "geometry": {"type": "Point", "coordinates": [116.4075, 39.9042]}}, {"type": "Feature", "properties": {"kind": "site", "name": "Tai Shan", "dist_deg": 0.063392, "dist_km": 7.049, "class": "close", "dist_source": "ks_full_grid"}, "geometry": {"type": "Point", "coordinates": [117.3333, 36.5]}}, {"type": "Feature", "properties": {"kind": "site", "name": "Karakorum", "dist_deg": 0.0931454, "dist_km": 10.357, "class": "close", "dist_source": "ks_full_grid"}, "geometry": {"type": "Point", "coordinates": [102.8239, 47.1972]}}, {"type": "Feature", "properties": {"kind": "site", "name": "Boulder Colorado", "dist_deg": 0.0209925, "dist_km": 2.334, "class": "close", "dist_source": "ks_full_grid"}, "geometry": {"type": "Point", "coordinates": [-105.2706, 40.015]}}, {"type": "Feature", "properties": {"kind": "site", "name": "Mount Whitney", "dist_deg": 0.0692869, "dist_km": 7.704, "class": "close", "dist_source": "ks_full_grid"}, "geometry": {"type": "Point", "coordinates": [-118.292, 36.5786]}}, {"type": "Feature", "properties": {"kind": "site", "name": "Cahokia Mounds", "dist_deg": 0.0054464, "dist_km": 0.606, "class": "close", "dist_source": "ks_full_grid"}, "geometry": {"type": "Point", "coordinates": [-90.0678, 38.6503]}}, {"type": "Feature", "properties": {"kind": "site", "name": "Three Sisters Blue Mountains", "dist_deg": 0.0796908, "dist_km": 8.861, "class": "close", "dist_source": "ks_full_grid"}, "geometry": {"type": "Point", "coordinates": [150.5, -33.75]}}, {"type": "Feature", "properties": {"kind": "site", "name": "Mount Picton Tasmania", "dist_deg": 0.0476806, "dist_km": 5.302, "class": "close", "dist_source": "ks_full_grid"}, "geometry": {"type": "Point", "coordinates": [146.6075, -43.1575]}}, {"type": "Feature", "properties": {"kind": "site", "name": "Fraser Island", "dist_deg": 0.0849562, "dist_km": 9.447, "class": "close", "dist_source": "ks_full_grid"}, "geometry": {"type": "Point", "coordinates": [153.0294, -25.3925]}}, {"type": "Feature", "properties": {"kind": "site", "name": "Cerro de Puntas", "dist_deg": 0.0151575, "dist_km": 1.685, "class": "close", "dist_source": "ks_full_grid"}, "geometry": {"type": "Point", "coordinates": [-67.2639, 18.3561]}}, {"type": "Feature", "properties": {"kind": "site", "name": "Great Exuma Island", "dist_deg": 0.049922, "dist_km": 5.551, "class": "close", "dist_source": "ks_full_grid"}, "geometry": {"type": "Point", "coordinates": [-75.8167, 23.5167]}}, {"type": "Feature", "properties": {"kind": "site", "name": "Montego Bay", "dist_deg": 0.0348097, "dist_km": 3.871, "class": "close", "dist_source": "ks_full_grid"}, "geometry": {"type": "Point", "coordinates": [-77.9167, 18.4667]}}, {"type": "Feature", "properties": {"kind": "site", "name": "Mount Simpson PNG", "dist_deg": 0.0133593, "dist_km": 1.486, "class": "close", "dist_source": "ks_full_grid"}, "geometry": {"type": "Point", "coordinates": [148.0, -9.5]}}, {"type": "Feature", "properties": {"kind": "site", "name": "Popomanaseu", "dist_deg": 0.0295143, "dist_km": 3.282, "class": "close", "dist_source": "ks_full_grid"}, "geometry": {"type": "Point", "coordinates": [160.0667, -9.7]}}, {"type": "Feature", "properties": {"kind": "site", "name": "Puncak Jaya", "dist_deg": 0.0331944, "dist_km": 3.691, "class": "close", "dist_source": "ks_full_grid"}, "geometry": {"type": "Point", "coordinates": [138.5, -4.5]}}, {"type": "Feature", "properties": {"kind": "site", "name": "Dakar", "dist_deg": 0.002439, "dist_km": 0.271, "class": "close", "dist_source": "ks_full_grid"}, "geometry": {"type": "Point", "coordinates": [-17.3333, 14.75]}}, {"type": "Feature", "properties": {"kind": "site", "name": "Timbuktu", "dist_deg": 0.0141188, "dist_km": 1.57, "class": "close", "dist_source": "ks_full_grid"}, "geometry": {"type": "Point", "coordinates": [-3.5, 15.0]}}, {"type": "Feature", "properties": {"kind": "site", "name": "Fogo Cape Verde", "dist_deg": 0.0174841, "dist_km": 1.944, "class": "close", "dist_source": "ks_full_grid"}, "geometry": {"type": "Point", "coordinates": [-24.3817, 14.9133]}}, {"type": "Feature", "properties": {"kind": "site", "name": "Tsodilo Hill", "dist_deg": 0.0065556, "dist_km": 0.729, "class": "close", "dist_source": "ks_full_grid"}, "geometry": {"type": "Point", "coordinates": [21.7667, -18.75]}}, {"type": "Feature", "properties": {"kind": "site", "name": "Kgalagadi Transfrontier Park", "dist_deg": 0.0627668, "dist_km": 6.979, "class": "close", "dist_source": "ks_full_grid"}, "geometry": {"type": "Point", "coordinates": [20.7122, -25.2872]}}, {"type": "Feature", "properties": {"kind": "site", "name": "Great Zimbabwe", "dist_deg": 0.0062707, "dist_km": 0.697, "class": "close", "dist_source": "ks_full_grid"}, "geometry": {"type": "Point", "coordinates": [30.9275, -20.2672]}}, {"type": "Feature", "properties": {"kind": "site", "name": "Khao Nan Mia", "dist_deg": 0.0004066, "dist_km": 0.045, "class": "close", "dist_source": "ks_full_grid"}, "geometry": {"type": "Point", "coordinates": [99.5941, 8.8594]}}, {"type": "Feature", "properties": {"kind": "site", "name": "Lake Toba", "dist_deg": 0.0079971, "dist_km": 0.889, "class": "close", "dist_source": "ks_full_grid"}, "geometry": {"type": "Point", "coordinates": [98.8756, 2.6845]}}, {"type": "Feature", "properties": {"kind": "site", "name": "Angkor Wat", "dist_deg": 0.0163681, "dist_km": 1.82, "class": "close", "dist_source": "ks_full_grid"}, "geometry": {"type": "Point", "coordinates": [103.86, 13.4256]}}, {"type": "Feature", "properties": {"kind": "site", "name": "Mount Tomaniivi", "dist_deg": 0.1386303, "dist_km": 15.415, "class": "far", "dist_source": "ks_full_grid"}, "geometry": {"type": "Point", "coordinates": [178.0167, -17.6167]}}, {"type": "Feature", "properties": {"kind": "site", "name": "Tarawa Island", "dist_deg": 0.0455385, "dist_km": 5.064, "class": "close", "dist_source": "ks_full_grid"}, "geometry": {"type": "Point", "coordinates": [173.0764, 1.4403]}}, {"type": "Feature", "properties": {"kind": "site", "name": "Mount Silisili", "dist_deg": 0.0113442, "dist_km": 1.261, "class": "close", "dist_source": "ks_full_grid"}, "geometry": {"type": "Point", "coordinates": [-172.4858, -13.6183]}}, {"type": "Feature", "properties": {"kind": "site", "name": "Denali (Mount McKinley)", "dist_deg": 0.0631286, "dist_km": 7.02, "class": "close", "dist_source": "ks_full_grid"}, "geometry": {"type": "Point", "coordinates": [-149.4289, 63.0694]}}, {"type": "Feature", "properties": {"kind": "site", "name": "Great Bear Lake", "dist_deg": 0.0368638, "dist_km": 4.099, "class": "close", "dist_source": "ks_full_grid"}, "geometry": {"type": "Point", "coordinates": [-120.3833, 66.1197]}}, {"type": "Feature", "properties": {"kind": "site", "name": "Fox Islands Aleutian", "dist_deg": 0.1770307, "dist_km": 19.685, "class": "far", "dist_source": "ks_full_grid"}, "geometry": {"type": "Point", "coordinates": [-166.5833, 53.7667]}}, {"type": "Feature", "properties": {"kind": "site", "name": "Mount Maromokotro", "dist_deg": 0.0264167, "dist_km": 2.937, "class": "close", "dist_source": "ks_full_grid"}, "geometry": {"type": "Point", "coordinates": [49.4847, -13.0183]}}, {"type": "Feature", "properties": {"kind": "site", "name": "Piton des Neiges", "dist_deg": 0.0509264, "dist_km": 5.663, "class": "close", "dist_source": "ks_full_grid"}, "geometry": {"type": "Point", "coordinates": [55.7333, -21.3167]}}, {"type": "Feature", "properties": {"kind": "site", "name": "Morne Seychellois", "dist_deg": 0.0632151, "dist_km": 7.029, "class": "close", "dist_source": "ks_full_grid"}, "geometry": {"type": "Point", "coordinates": [55.45, -4.6167]}}, {"type": "Feature", "properties": {"kind": "site", "name": "Mount Damavand", "dist_deg": 0.0590109, "dist_km": 6.562, "class": "close", "dist_source": "ks_full_grid"}, "geometry": {"type": "Point", "coordinates": [52.1097, 35.9547]}}, {"type": "Feature", "properties": {"kind": "site", "name": "Vozrozhdeniya Island", "dist_deg": 0.0056399, "dist_km": 0.627, "class": "close", "dist_source": "ks_full_grid"}, "geometry": {"type": "Point", "coordinates": [59.1419, 45.0917]}}, {"type": "Feature", "properties": {"kind": "site", "name": "Malek Siah Kuh", "dist_deg": 0.0059761, "dist_km": 0.664, "class": "close", "dist_source": "ks_full_grid"}, "geometry": {"type": "Point", "coordinates": [60.8636, 29.4892]}}, {"type": "Feature", "properties": {"kind": "site", "name": "Klyuchevskaya Sopka", "dist_deg": 0.0292708, "dist_km": 3.255, "class": "close", "dist_source": "ks_full_grid"}, "geometry": {"type": "Point", "coordinates": [160.6428, 56.0581]}}, {"type": "Feature", "properties": {"kind": "site", "name": "Sakhalin Island", "dist_deg": 0.0161342, "dist_km": 1.794, "class": "close", "dist_source": "ks_full_grid"}, "geometry": {"type": "Point", "coordinates": [143.0028, 50.2247]}}, {"type": "Feature", "properties": {"kind": "site", "name": "Cherskiy", "dist_deg": 0.0371607, "dist_km": 4.132, "class": "close", "dist_source": "ks_full_grid"}, "geometry": {"type": "Point", "coordinates": [-115.9872, 34.6272]}}, {"type": "Feature", "properties": {"kind": "site", "name": "Easter Island", "dist_deg": 0.0039933, "dist_km": 0.444, "class": "close", "dist_source": "ks_full_grid"}, "geometry": {"type": "Point", "coordinates": [-109.3664, -27.1211]}}, {"type": "Feature", "properties": {"kind": "site", "name": "Reykjavik-Thingvellir", "dist_deg": 0.0842269, "dist_km": 9.366, "class": "close", "dist_source": "ks_full_grid"}, "geometry": {"type": "Point", "coordinates": [-21.8953, 64.1353]}}, {"type": "Feature", "properties": {"kind": "site", "name": "Callanish", "dist_deg": 0.0047496, "dist_km": 0.528, "class": "close", "dist_source": "ks_full_grid"}, "geometry": {"type": "Point", "coordinates": [-6.7367, 58.1997]}}, {"type": "Feature", "properties": {"kind": "site", "name": "Nuuk Greenland", "dist_deg": 0.0527088, "dist_km": 5.861, "class": "close", "dist_source": "ks_full_grid"}, "geometry": {"type": "Point", "coordinates": [-51.7214, 64.1836]}}, {"type": "Feature", "properties": {"kind": "site", "name": "Port Stanley", "dist_deg": 0.0134744, "dist_km": 1.498, "class": "close", "dist_source": "ks_full_grid"}, "geometry": {"type": "Point", "coordinates": [-57.8492, -51.7011]}}, {"type": "Feature", "properties": {"kind": "site", "name": "South Georgia Island", "dist_deg": 0.0096126, "dist_km": 1.069, "class": "close", "dist_source": "ks_full_grid"}, "geometry": {"type": "Point", "coordinates": [-36.75, -54.25]}}, {"type": "Feature", "properties": {"kind": "site", "name": "Lake Buenos Aires", "dist_deg": 0.0821294, "dist_km": 9.132, "class": "close", "dist_source": "ks_full_grid"}, "geometry": {"type": "Point", "coordinates": [-71.3675, -46.5033]}}, {"type": "Feature", "properties": {"kind": "site", "name": "Wood Buffalo National Park", "dist_deg": 0.0138966, "dist_km": 1.545, "class": "close", "dist_source": "ks_full_grid"}, "geometry": {"type": "Point", "coordinates": [-112.8542, 58.9239]}}, {"type": "Feature", "properties": {"kind": "site", "name": "Adelaide Peninsula", "dist_deg": 0.0660135, "dist_km": 7.34, "class": "close", "dist_source": "ks_full_grid"}, "geometry": {"type": "Point", "coordinates": [-97.8, 68.0833]}}, {"type": "Feature", "properties": {"kind": "site", "name": "Bay of God’s Mercy", "dist_deg": 0.0188269, "dist_km": 2.094, "class": "close", "dist_source": "ks_full_grid"}, "geometry": {"type": "Point", "coordinates": [-84.1333, 64.6]}}, {"type": "Feature", "properties": {"kind": "site", "name": "Ascension Island", "dist_deg": 0.025644, "dist_km": 2.852, "class": "close", "dist_source": "ks_full_grid"}, "geometry": {"type": "Point", "coordinates": [-14.3558, -7.9467]}}, {"type": "Feature", "properties": {"kind": "site", "name": "St. Helena Island", "dist_deg": 0.0042216, "dist_km": 0.469, "class": "close", "dist_source": "ks_full_grid"}, "geometry": {"type": "Point", "coordinates": [-5.7167, -15.9333]}}, {"type": "Feature", "properties": {"kind": "site", "name": "Mount Loma", "dist_deg": 0.0184257, "dist_km": 2.049, "class": "close", "dist_source": "ks_full_grid"}, "geometry": {"type": "Point", "coordinates": [-11.117, 9.217]}}, {"type": "Feature", "properties": {"kind": "site", "name": "Lena-Muna juncture", "dist_deg": 0.0062041, "dist_km": 0.69, "class": "close", "dist_source": "ks_full_grid"}, "geometry": {"type": "Point", "coordinates": [123.2833, 68.0167]}}, {"type": "Feature", "properties": {"kind": "site", "name": "Lake Ozero Taymyr", "dist_deg": 0.148165, "dist_km": 16.475, "class": "far", "dist_source": "ks_full_grid"}, "geometry": {"type": "Point", "coordinates": [101.7167, 74.5167]}}, {"type": "Feature", "properties": {"kind": "site", "name": "Tunguska", "dist_deg": 0.007392, "dist_km": 0.822, "class": "close", "dist_source": "ks_full_grid"}, "geometry": {"type": "Point", "coordinates": [102.7861, 52.6528]}}, {"type": "Feature", "properties": {"kind": "site", "name": "Mount Ross Kerguelen", "dist_deg": 0.0627675, "dist_km": 6.979, "class": "close", "dist_source": "ks_full_grid"}, "geometry": {"type": "Point", "coordinates": [69.5, -49.5833]}}, {"type": "Feature", "properties": {"kind": "site", "name": "Big Ben Heard Island", "dist_deg": 0.0021971, "dist_km": 0.244, "class": "close", "dist_source": "ks_full_grid"}, "geometry": {"type": "Point", "coordinates": [73.525, -53.1083]}}, {"type": "Feature", "properties": {"kind": "site", "name": "Prydz Bay", "dist_deg": 0.0416136, "dist_km": 4.627, "class": "close", "dist_source": "ks_full_grid"}, "geometry": {"type": "Point", "coordinates": [75.0, -69.0]}}, {"type": "Feature", "properties": {"kind": "site", "name": "Mount Lamlam Guam", "dist_deg": 0.0029936, "dist_km": 0.333, "class": "close", "dist_source": "ks_full_grid"}, "geometry": {"type": "Point", "coordinates": [144.6628, 13.3386]}}, {"type": "Feature", "properties": {"kind": "site", "name": "Yap Island", "dist_deg": 0.020705, "dist_km": 2.302, "class": "close", "dist_source": "ks_full_grid"}, "geometry": {"type": "Point", "coordinates": [134.3833, -2.55]}}, {"type": "Feature", "properties": {"kind": "site", "name": "Nan Madol", "dist_deg": 0.020129, "dist_km": 2.238, "class": "close", "dist_source": "ks_full_grid"}, "geometry": {"type": "Point", "coordinates": [158.3358, 6.8444]}}, {"type": "Feature", "properties": {"kind": "site", "name": "Mount Orohena", "dist_deg": 0.0145991, "dist_km": 1.623, "class": "close", "dist_source": "ks_full_grid"}, "geometry": {"type": "Point", "coordinates": [-149.4842, -17.6197]}}, {"type": "Feature", "properties": {"kind": "site", "name": "Hivaoa Island", "dist_deg": 0.0184488, "dist_km": 2.051, "class": "close", "dist_source": "ks_full_grid"}, "geometry": {"type": "Point", "coordinates": [-139.0211, -9.7547]}}, {"type": "Feature", "properties": {"kind": "site", "name": "Kiritimati (Christmas Island)", "dist_deg": 0.00013, "dist_km": 0.015, "class": "close", "dist_source": "ks_full_grid"}, "geometry": {"type": "Point", "coordinates": [-157.4278, 1.8722]}}, {"type": "Feature", "properties": {"kind": "site", "name": "Graciosa Azores", "dist_deg": 0.0397615, "dist_km": 4.421, "class": "close", "dist_source": "ks_full_grid"}, "geometry": {"type": "Point", "coordinates": [-28.0069, 39.0525]}}, {"type": "Feature", "properties": {"kind": "site", "name": "St. George’s Island Bermuda", "dist_deg": 0.0162645, "dist_km": 1.808, "class": "close", "dist_source": "ks_full_grid"}, "geometry": {"type": "Point", "coordinates": [-64.7786, 32.2811]}}, {"type": "Feature", "properties": {"kind": "site", "name": "Lisbon Portugal", "dist_deg": 0.0905869, "dist_km": 10.073, "class": "close", "dist_source": "ks_full_grid"}, "geometry": {"type": "Point", "coordinates": [-9.1356, 38.7069]}}, {"type": "Feature", "properties": {"kind": "site", "name": "Longyearbyen Spitsbergen", "dist_deg": 0.0158739, "dist_km": 1.765, "class": "close", "dist_source": "ks_full_grid"}, "geometry": {"type": "Point", "coordinates": [18.1642, 78.6481]}}, {"type": "Feature", "properties": {"kind": "site", "name": "Independence Fjord", "dist_deg": 0.1023783, "dist_km": 11.384, "class": "medium", "dist_source": "ks_full_grid"}, "geometry": {"type": "Point", "coordinates": [-28.2725, 81.9247]}}, {"type": "Feature", "properties": {"kind": "site", "name": "Yuzhny Novaya Zemlya", "dist_deg": 0.0625299, "dist_km": 6.953, "class": "close", "dist_source": "ks_full_grid"}, "geometry": {"type": "Point", "coordinates": [80.3667, 73.4833]}}, {"type": "Feature", "properties": {"kind": "site", "name": "Mount Hope Antarctica", "dist_deg": 0.00647, "dist_km": 0.719, "class": "close", "dist_source": "ks_full_grid"}, "geometry": {"type": "Point", "coordinates": [171.0, -83.75]}}, {"type": "Feature", "properties": {"kind": "site", "name": "Bear Island Antarctica", "dist_deg": 0.0313995, "dist_km": 3.491, "class": "close", "dist_source": "ks_full_grid"}, "geometry": {"type": "Point", "coordinates": [-67.06, -68.18]}}, {"type": "Feature", "properties": {"kind": "site", "name": "Elephant Island", "dist_deg": 0.0472291, "dist_km": 5.252, "class": "close", "dist_source": "ks_full_grid"}, "geometry": {"type": "Point", "coordinates": [-55.1167, -61.1333]}}, {"type": "Feature", "properties": {"kind": "site", "name": "South Pole", "dist_deg": 0.0526049, "dist_km": 5.849, "class": "close", "dist_source": "ks_full_grid"}, "geometry": {"type": "Point", "coordinates": [0.0, -90.0]}}, {"type": "Feature", "properties": {"kind": "site", "name": "South Magnetic Pole", "dist_deg": 0.013787, "dist_km": 1.533, "class": "close", "dist_source": "ks_full_grid"}, "geometry": {"type": "Point", "coordinates": [138.0, -67.0]}}, {"type": "Feature", "properties": {"kind": "site", "name": "Sanae Antarctica", "dist_deg": 0.0120248, "dist_km": 1.337, "class": "close", "dist_source": "ks_full_grid"}, "geometry": {"type": "Point", "coordinates": [127.5233, -71.6728]}}, {"type": "Feature", "properties": {"kind": "site", "name": "Halifax Nova Scotia", "dist_deg": 0.0472153, "dist_km": 5.25, "class": "close", "dist_source": "ks_full_grid"}, "geometry": {"type": "Point", "coordinates": [-63.5753, 44.6489]}}, {"type": "Feature", "properties": {"kind": "site", "name": "Washington DC", "dist_deg": 0.0863519, "dist_km": 9.602, "class": "close", "dist_source": "ks_full_grid"}, "geometry": {"type": "Point", "coordinates": [-77.0364, 38.895]}}]}