{"type": "FeatureCollection", "name": "E8_proj_seed904 grid", "properties": {"shape": "E8_proj_seed904", "lock_lat": 75.0, "lock_lon": 15.0, "bearing": 10.0}, "features": [{"type": "Feature", "properties": {"kind": "grid_vertices", "shape": "E8_proj_seed904", "count": 240, "ids": ["V1", "V2", "V3", "V4", "V5", "V6", "V7", "V8", "V9", "V10", "V11", "V12", "V13", "V14", "V15", "V16", "V17", "V18", "V19", "V20", "V21", "V22", "V23", "V24", "V25", "V26", "V27", "V28", "V29", "V30", "V31", "V32", "V33", "V34", "V35", "V36", "V37", "V38", "V39", "V40", "V41", "V42", "V43", "V44", "V45", "V46", "V47", "V48", "V49", "V50", "V51", "V52", "V53", "V54", "V55", "V56", "V57", "V58", "V59", "V60", "V61", "V62", "V63", "V64", "V65", "V66", "V67", "V68", "V69", "V70", "V71", "V72", "V73", "V74", "V75", "V76", "V77", "V78", "V79", "V80", "V81", "V82", "V83", "V84", "V85", "V86", "V87", "V88", "V89", "V90", "V91", "V92", "V93", "V94", "V95", "V96", "V97", "V98", "V99", "V100", "V101", "V102", "V103", "V104", "V105", "V106", "V107", "V108", "V109", "V110", "V111", "V112", "V113", "V114", "V115", "V116", "V117", "V118", "V119", "V120", "V121", "V122", "V123", "V124", "V125", "V126", "V127", "V128", "V129", "V130", "V131", "V132", "V133", "V134", "V135", "V136", "V137", "V138", "V139", "V140", "V141", "V142", "V143", "V144", "V145", "V146", "V147", "V148", "V149", "V150", "V151", "V152", "V153", "V154", "V155", "V156", "V157", "V158", "V159", "V160", "V161", "V162", "V163", "V164", "V165", "V166", "V167", "V168", "V169", "V170", "V171", "V172", "V173", "V174", "V175", "V176", "V177", "V178", "V179", "V180", "V181", "V182", "V183", "V184", "V185", "V186", "V187", "V188", "V189", "V190", "V191", "V192", "V193", "V194", "V195", "V196", "V197", "V198", "V199", "V200", "V201", "V202", "V203", "V204", "V205", "V206", "V207", "V208", "V209", "V210", "V211", "V212", "V213", "V214", "V215", "V216", "V217", "V218", "V219", "V220", "V221", "V222", "V223", "V224", "V225", "V226", "V227", "V228", "V229", "V230", "V231", "V232", "V233", "V234", "V235", "V236", "V237", "V238", "V239", "V240"]}, "geometry": {"type": "MultiPoint", "coordinates": [[90.0478480708187, 33.60478156883504], [-79.27313735730218, -12.044404499645974], [100.72686264269782, 12.044404499645974], [-89.95215192918131, -33.60478156883504], [-175.2450444857832, 14.267556802952285], [6.261453462502802, 20.882165761941913], [-173.7385465374972, -20.882165761941913], [4.754955514216809, -14.267556802952285], [2.161588260272566, 1.1332425184877168], [176.16625324559737, 58.03720892756293], [-3.8337467544026333, -58.03720892756293], [-177.83841173972743, -1.1332425184877168], [-6.21137221169583, 30.58447014869877], [169.2308443018732, -4.932674682475722], [-10.7691556981268, 4.932674682475722], [173.78862778830418, -30.58447014869877], [27.92560097409882, 82.51743774505994], [-9.098183878577766, -76.06399507497174], [170.90181612142223, 76.06399507497174], [-152.0743990259012, -82.51743774505994], [-110.2843017997763, 64.58173564487853], [49.40687126567254, -27.783211330716963], [-130.59312873432748, 27.783211330716963], [69.7156982002237, -64.58173564487853], [64.47250728207625, -35.29098550263639], [-95.71474680065005, 62.03333753553834], [84.28525319934997, -62.03333753553834], [-115.52749271792375, 35.29098550263639], [130.68993446898205, 16.77281546868691], [60.163943032317775, 22.86859700432132], [-119.83605696768224, -22.86859700432132], [-49.310065531017955, -16.77281546868691], [74.24493383982262, 12.091686985658159], [115.10125677702126, 31.131978454455762], [-64.89874322297874, -31.131978454455762], [-105.75506616017736, -12.091686985658159], [51.807850770027436, 33.220895273816794], [128.40948663832924, 6.09682386434042], [-51.59051336167077, -6.09682386434042], [-128.19214922997256, -33.220895273816794], [94.97975218868072, 45.108194311523434], [95.7168546114088, -8.801659129536509], [-84.2831453885912, 8.801659129536509], [-85.0202478113193, -45.108194311523434], [114.42768156241806, 51.53489403585935], [85.03971447499077, -1.3319726517093902], [-94.96028552500924, 1.3319726517093902], [-65.57231843758196, -51.53489403585935], [88.29266993980508, -6.390257481597123], [113.19878699728842, 60.965753270148944], [-66.80121300271158, -60.965753270148944], [-91.70733006019493, 6.390257481597123], [-168.06647425528845, -41.294022526589345], [-176.36467048133886, 7.744670396729487], [3.635329518661138, -7.744670396729487], [11.933525744711558, 41.294022526589345], [-65.59512133780153, 47.21096957491842], [178.27885712749514, -13.807923671804955], [-1.7211428725048745, 13.807923671804955], [114.40487866219848, -47.21096957491842], [-177.00341793542668, 36.46403478933307], [-171.82905377208365, -43.06166124817141], [8.170946227916334, 43.06166124817141], [2.996582064573324, -36.46403478933307], [-156.2397949167794, 21.837994327007678], [152.0131333450644, -44.363256862406466], [-27.98686665493559, 44.363256862406466], [23.760205083220615, -21.837994327007678], [145.4039998675954, -44.6532518876683], [-147.77872255864304, 28.15494755241078], [32.22127744135697, -28.15494755241078], [-34.59600013240461, 44.6532518876683], [-5.636122359559672, 3.4471277807400584], [164.66675701283393, -50.16226041880947], [-15.333242987166079, 50.16226041880947], [174.36387764044034, -3.4471277807400584], [4.818795659537394, 44.456489837720135], [-5.104571121850545, -65.46361539397088], [174.89542887814946, 65.46361539397088], [-175.18120434046259, -44.456489837720135], [-63.57902894858911, 34.175677075799996], [29.68258477834064, -46.07533212047058], [-150.31741522165936, 46.07533212047058], [116.4209710514109, -34.175677075799996], [42.02549452617162, -50.31723561052228], [-62.76186585709192, 36.56744077454395], [117.23813414290808, -36.56744077454395], [-137.9745054738284, 50.31723561052228], [-5.884909390271998, 48.079920301090596], [-10.580733287677047, -20.702305054606025], [169.41926671232295, 20.702305054606025], [174.11509060972801, -48.079920301090596], [-37.64894229565903, 46.34732071652418], [12.385281240140419, -10.142777815727483], [-167.61471875985958, 10.142777815727483], [142.35105770434097, -46.34732071652418], [20.574097883020556, -17.68492897408829], [-41.44647662456007, 45.98486578401465], [138.55352337543994, -45.98486578401465], [-159.42590211697944, 17.68492897408829], [-124.3314426311652, 71.19969405677817], [59.874258798939096, 15.742630037444787], [-120.12574120106092, -15.742630037444787], [55.66855736883481, -71.19969405677817], [74.15936094573627, -1.4820227940736534], [-107.2625396280581, 69.50744683706284], [72.73746037194192, -69.50744683706284], [-105.84063905426375, 1.4820227940736534], [119.30844337420936, -41.9935116396639], [-113.49850174192957, 51.33003822883659], [66.50149825807043, -51.33003822883659], [-60.69155662579063, 41.9935116396639], [68.64000253250285, 46.72958144079563], [54.13362764458707, 56.96762551780796], [2.7053740630909355, 84.66891221549943], [63.38162366856655, -29.43052922433497], [168.4647496687656, 49.75208781656205], [112.22332251478062, -11.164137855340805], [135.95698747178645, -21.06903706056781], [139.44984450951432, -15.194617706036848], [173.5758069871625, 77.12223317029769], [88.04535299324218, 20.660197728460773], [111.58715604352516, 21.2276408604933], [108.38980752035384, 42.65494946943541], [147.75264049616658, 23.406575669806102], [151.69751406291553, 31.668330919470357], [173.9607773045977, 24.540193934113834], [129.94214268889678, -25.739581240355925], [7.7875521253078634, 58.3454874353333], [39.04560739343029, 6.639434400206592], [30.756959538520977, 2.577000926235278], [22.699207571022065, 9.700659740570762], [80.7303580885692, 26.851243091179665], [71.64658460921946, 39.625604214033345], [98.91991673758065, 62.53040773261465], [72.12214323360959, -34.96993964407209], [47.17771249768878, 48.18482707389215], [36.27568895793505, 53.363560956105275], [10.664094334102957, 65.93110045885278], [49.895627539946595, -10.306331255443643], [151.3086197346813, 68.82842962940538], [93.0986063857248, 5.385259721586761], [112.39647042012173, -1.9179932036047975], [110.56852431451674, 11.107207503205771], [-81.10631392846726, 36.827758635984104], [-18.740049164449466, -33.95576992626479], [-61.995889463771924, -37.968337853137974], [-61.740664702181995, -24.301597494146502], [-142.29970791550195, -15.03649241401124], [-129.76719872433057, -3.2155294930935177], [-126.04245565603384, -8.189681156198029], [-163.66586572408357, -76.03436256098999], [-99.87602014614414, 34.1116007246381], [-91.38083589859777, 37.14884851376387], [-102.87323266328237, 19.31339139663232], [-59.456896958214536, -72.22433751880484], [-140.0471462147643, 26.533025597975257], [-175.41068140749906, -32.312643017998546], [-154.50770563550142, -29.112025352539945], [-145.84998308214549, -22.797236384528787], [-23.52729127331324, 10.320646503701179], [-27.763657678038637, 15.31970097499535], [-47.36940545834706, 9.49097719712199], [-6.26772529591984, -35.892283538447764], [-85.05331740378092, 33.214302736888264], [2.0904120655428087, -54.07796436292536], [-60.202549065194255, -59.6345660335786], [-60.333102209331315, -45.308056592167745], [-61.671679762082775, 45.343899989387076], [-6.788205815947373, -3.8402549031711724], [-37.05174057673822, -12.805657576665562], [-40.7818123956798, -2.690108860722534], [-118.22818245117055, 19.38500206354758], [-102.44612313911573, 29.592098434264322], [-110.94437989900055, 9.157407720779965], [-25.690499197906647, -87.64628990438725], [154.30950080209334, 87.64628990438725], [69.05562010099946, -9.157407720779965], [77.55387686088429, -29.592098434264322], [61.77181754882945, -19.38500206354758], [139.2181876043202, 2.690108860722534], [142.9482594232618, 12.805657576665562], [173.21179418405262, 3.8402549031711724], [118.32832023791724, -45.343899989387076], [119.6668977906687, 45.308056592167745], [119.79745093480575, 59.6345660335786], [-177.9095879344572, 54.07796436292536], [94.94668259621909, -33.214302736888264], [173.73227470408017, 35.892283538447764], [132.63059454165295, -9.49097719712199], [152.2363423219614, -15.31970097499535], [156.4727087266868, -10.320646503701179], [34.150016917854536, 22.797236384528787], [25.492294364498573, 29.112025352539945], [4.589318592500942, 32.312643017998546], [39.952853785235725, -26.533025597975257], [120.54310304178549, 72.22433751880484], [77.12676733671763, -19.31339139663232], [88.61916410140223, -37.14884851376387], [80.12397985385586, -34.1116007246381], [16.334134275916448, 76.03436256098999], [53.95754434396618, 8.189681156198029], [50.23280127566944, 3.2155294930935177], [37.70029208449806, 15.03649241401124], [118.25933529781803, 24.301597494146502], [118.0041105362281, 37.968337853137974], [161.25995083555054, 33.95576992626479], [98.89368607153274, -36.827758635984104], [-69.43147568548326, -11.107207503205771], [-67.60352957987827, 1.9179932036047975], [-86.90139361427521, -5.385259721586761], [-28.69138026531873, -68.82842962940538], [-130.1043724600534, 10.306331255443643], [-169.33590566589706, -65.93110045885278], [-143.72431104206495, -53.363560956105275], [-132.82228750231124, -48.18482707389215], [-107.87785676639041, 34.96993964407209], [-81.08008326241935, -62.53040773261465], [-108.35341539078054, -39.625604214033345], [-99.26964191143081, -26.851243091179665], [-157.30079242897793, -9.700659740570762], [-149.24304046147904, -2.577000926235278], [-140.9543926065697, -6.639434400206592], [-172.21244787469215, -58.3454874353333], [-50.05785731110323, 25.739581240355925], [-6.0392226954023, -24.540193934113834], [-28.302485937084477, -31.668330919470357], [-32.24735950383343, -23.406575669806102], [-71.61019247964616, -42.65494946943541], [-68.41284395647486, -21.2276408604933], [-91.95464700675784, -20.660197728460773], [-6.4241930128375095, -77.12223317029769], [-40.55015549048568, 15.194617706036848], [-44.04301252821356, 21.06903706056781], [-67.7766774852194, 11.164137855340805], [-11.535250331234401, -49.75208781656205], [-116.61837633143345, 29.43052922433497], [-177.29462593690909, -84.66891221549943], [-125.86637235541293, -56.96762551780796], [-111.35999746749717, -46.72958144079563]]}}, {"type": "Feature", "properties": {"kind": "grid_edges", "shape": "E8_proj_seed904", "count": 357, "ids": ["E1", "E2", "E3", "E4", "E5", "E6", "E7", "E8", "E9", "E10", "E11", "E12", "E13", "E14", "E15", "E16", "E17", "E18", "E19", "E20", "E21", "E22", "E23", "E24", "E25", "E26", "E27", "E28", "E29", "E30", "E31", "E32", "E33", "E34", "E35", "E36", "E37", "E38", "E39", "E40", "E41", "E42", "E43", "E44", "E45", "E46", "E47", "E48", "E49", "E50", "E51", "E52", "E53", "E54", "E55", "E56", "E57", "E58", "E59", "E60", "E61", "E62", "E63", "E64", "E65", "E66", "E67", "E68", "E69", "E70", "E71", "E72", "E73", "E74", "E75", "E76", "E77", "E78", "E79", "E80", "E81", "E82", "E83", "E84", "E85", "E86", "E87", "E88", "E89", "E90", "E91", "E92", "E93", "E94", "E95", "E96", "E97", "E98", "E99", "E100", "E101", "E102", "E103", "E104", "E105", "E106", "E107", "E108", "E109", "E110", "E111", "E112", "E113", "E114", "E115", "E116", "E117", "E118", "E119", "E120", "E121", "E122", "E123", "E124", "E125", "E126", "E127", "E128", "E129", "E130", "E131", "E132", "E133", "E134", "E135", "E136", "E137", "E138", "E139", "E140", "E141", "E142", "E143", "E144", "E145", "E146", "E147", "E148", "E149", "E150", "E151", "E152", "E153", "E154", "E155", "E156", "E157", "E158", "E159", "E160", "E161", "E162", "E163", "E164", "E165", "E166", "E167", "E168", "E169", "E170", "E171", "E172", "E173", "E174", "E175", "E176", "E177", "E178", "E179", "E180", "E181", "E182", "E183", "E184", "E185", "E186", "E187", "E188", "E189", "E190", "E191", "E192", "E193", "E194", "E195", "E196", "E197", "E198", "E199", "E200", "E201", "E202", "E203", "E204", "E205", "E206", "E207", "E208", "E209", "E210", "E211", "E212", "E213", "E214", "E215", "E216", "E217", "E218", "E219", "E220", "E221", "E222", "E223", "E224", "E225", "E226", "E227", "E228", "E229", "E230", "E231", "E232", "E233", "E234", "E235", "E236", "E237", "E238", "E239", "E240", "E241", "E242", "E243", "E244", "E245", "E246", "E247", "E248", "E249", "E250", "E251", "E252", "E253", "E254", "E255", "E256", "E257", "E258", "E259", "E260", "E261", "E262", "E263", "E264", "E265", "E266", "E267", "E268", "E269", "E270", "E271", "E272", "E273", "E274", "E275", "E276", "E277", "E278", "E279", "E280", "E281", "E282", "E283", "E284", "E285", "E286", "E287", "E288", "E289", "E290", "E291", "E292", "E293", "E294", "E295", "E296", "E297", "E298", "E299", "E300", "E301", "E302", "E303", "E304", "E305", "E306", "E307", "E308", "E309", "E310", "E311", "E312", "E313", "E314", "E315", "E316", "E317", "E318", "E319", "E320", "E321", "E322", "E323", "E324", "E325", "E326", "E327", "E328", "E329", "E330", "E331", "E332", "E333", "E334", "E335", "E336", "E337", "E338", "E339", "E340", "E341", "E342", "E343", "E344", "E345", "E346", "E347", "E348", "E349", "E350", "E351", "E352", "E353", "E354", "E355", "E356", "E357"], "pairs": [[0, 12], [0, 13], [0, 45], [0, 49], [0, 121], [0, 130], [0, 142], [1, 5], [1, 169], [1, 170], [2, 6], [2, 7], [2, 32], [2, 176], [2, 191], [3, 221], [4, 30], [4, 112], [4, 127], [5, 31], [5, 55], [5, 140], [5, 168], [6, 180], [7, 31], [7, 196], [7, 207], [7, 230], [8, 16], [8, 21], [8, 80], [8, 112], [8, 114], [8, 116], [9, 20], [9, 35], [9, 127], [9, 141], [9, 175], [10, 80], [10, 181], [10, 182], [12, 20], [12, 147], [12, 153], [12, 154], [12, 171], [13, 21], [13, 127], [13, 159], [14, 74], [14, 184], [14, 216], [15, 59], [15, 205], [15, 231], [16, 42], [16, 76], [16, 124], [16, 144], [16, 172], [17, 20], [18, 26], [18, 209], [18, 236], [19, 198], [20, 80], [20, 108], [20, 122], [20, 136], [21, 143], [21, 169], [22, 92], [23, 177], [23, 185], [23, 201], [23, 205], [24, 129], [24, 157], [25, 51], [25, 113], [25, 131], [25, 134], [25, 143], [25, 167], [27, 179], [27, 186], [27, 200], [27, 205], [27, 212], [27, 222], [28, 182], [28, 184], [29, 143], [31, 58], [31, 70], [31, 239], [32, 52], [32, 119], [33, 79], [33, 140], [33, 205], [35, 55], [35, 170], [36, 113], [36, 122], [37, 141], [38, 42], [40, 104], [41, 91], [41, 107], [41, 114], [42, 105], [42, 169], [42, 209], [42, 224], [42, 225], [44, 136], [44, 198], [44, 204], [45, 65], [45, 137], [46, 80], [47, 83], [47, 111], [47, 153], [48, 136], [49, 71], [49, 119], [49, 120], [50, 96], [51, 109], [51, 167], [51, 173], [52, 113], [52, 118], [52, 119], [53, 74], [53, 120], [53, 127], [53, 156], [54, 70], [54, 71], [54, 228], [55, 83], [55, 141], [55, 201], [55, 235], [56, 121], [56, 146], [56, 153], [56, 177], [56, 184], [57, 91], [57, 150], [58, 67], [58, 96], [58, 138], [58, 201], [58, 234], [59, 66], [60, 68], [61, 123], [62, 205], [62, 232], [63, 143], [63, 195], [63, 202], [64, 80], [64, 108], [64, 122], [64, 158], [64, 190], [64, 214], [64, 220], [65, 121], [65, 209], [66, 132], [66, 204], [66, 226], [67, 71], [67, 95], [67, 143], [67, 203], [68, 96], [68, 110], [69, 99], [69, 123], [69, 216], [70, 96], [70, 98], [70, 129], [70, 172], [70, 204], [71, 194], [73, 84], [74, 82], [75, 95], [75, 127], [75, 174], [75, 204], [76, 81], [76, 105], [76, 113], [76, 132], [76, 149], [76, 161], [76, 197], [77, 134], [77, 147], [78, 136], [78, 137], [79, 190], [80, 109], [80, 114], [80, 128], [80, 230], [83, 233], [85, 114], [85, 182], [85, 215], [86, 106], [86, 172], [88, 128], [88, 137], [88, 201], [89, 97], [89, 114], [89, 122], [90, 140], [90, 181], [90, 189], [91, 231], [92, 96], [95, 110], [95, 239], [96, 108], [98, 142], [98, 204], [98, 223], [99, 156], [99, 164], [100, 132], [100, 224], [101, 153], [101, 221], [102, 109], [102, 226], [103, 111], [103, 123], [103, 199], [104, 148], [104, 160], [104, 232], [105, 149], [105, 200], [105, 233], [105, 236], [109, 236], [111, 119], [112, 117], [112, 178], [113, 209], [114, 130], [115, 122], [117, 133], [119, 133], [119, 150], [120, 138], [121, 152], [122, 139], [122, 158], [123, 153], [123, 154], [123, 186], [123, 191], [124, 141], [125, 205], [127, 175], [127, 190], [127, 191], [128, 133], [128, 193], [130, 160], [131, 134], [131, 195], [132, 166], [133, 193], [133, 196], [134, 140], [134, 164], [134, 167], [136, 138], [136, 168], [137, 140], [137, 201], [137, 205], [137, 233], [140, 143], [142, 158], [142, 174], [143, 171], [144, 145], [144, 156], [144, 168], [144, 224], [145, 152], [147, 211], [152, 168], [152, 208], [153, 156], [153, 185], [154, 168], [154, 234], [158, 190], [162, 167], [164, 168], [164, 229], [165, 237], [168, 174], [170, 172], [170, 238], [174, 175], [176, 200], [176, 224], [177, 185], [177, 209], [179, 209], [180, 190], [180, 214], [181, 229], [185, 209], [185, 217], [187, 190], [189, 237], [194, 206], [194, 210], [194, 230], [196, 230], [196, 236], [199, 205], [200, 236], [201, 235], [202, 235], [202, 238], [205, 221], [205, 229], [205, 237], [205, 239], [206, 230], [207, 231], [207, 235], [209, 225], [226, 232], [227, 234], [232, 237], [235, 238]], "support_counts": [1, 1, 1, 1, 1, 1, 1, 1, 1, 1, 1, 1, 1, 1, 1, 1, 1, 1, 1, 2, 1, 1, 1, 1, 1, 1, 1, 1, 1, 1, 1, 1, 1, 1, 1, 1, 1, 1, 1, 1, 1, 1, 1, 1, 1, 1, 1, 1, 1, 1, 1, 1, 1, 1, 1, 1, 1, 1, 1, 1, 1, 1, 1, 1, 1, 1, 1, 1, 1, 1, 1, 1, 1, 1, 1, 1, 1, 1, 1, 1, 1, 1, 1, 1, 1, 1, 1, 1, 1, 1, 1, 1, 1, 1, 1, 1, 1, 1, 1, 1, 1, 1, 1, 1, 1, 1, 1, 1, 1, 1, 1, 1, 1, 1, 1, 1, 1, 1, 1, 1, 1, 1, 1, 1, 1, 1, 1, 1, 1, 1, 1, 1, 1, 1, 1, 1, 1, 1, 1, 2, 1, 1, 1, 1, 1, 1, 1, 1, 1, 1, 1, 2, 1, 1, 1, 1, 1, 1, 1, 1, 1, 1, 1, 1, 1, 1, 1, 1, 1, 1, 1, 1, 1, 1, 1, 1, 1, 1, 1, 1, 1, 1, 1, 1, 1, 1, 1, 1, 1, 1, 1, 1, 2, 1, 1, 1, 1, 1, 1, 1, 1, 1, 1, 1, 1, 1, 1, 1, 1, 1, 1, 1, 1, 1, 1, 1, 1, 1, 1, 1, 1, 1, 1, 1, 1, 1, 1, 1, 1, 1, 1, 1, 1, 1, 1, 1, 1, 1, 1, 1, 1, 1, 1, 1, 1, 1, 1, 1, 1, 1, 1, 1, 1, 1, 1, 1, 2, 1, 1, 1, 1, 1, 1, 1, 1, 1, 1, 1, 1, 1, 1, 1, 1, 1, 1, 1, 1, 1, 1, 1, 2, 1, 1, 1, 1, 1, 1, 1, 1, 1, 1, 2, 1, 1, 1, 1, 1, 1, 1, 1, 1, 1, 1, 1, 1, 1, 1, 1, 1, 1, 2, 1, 1, 1, 1, 1, 1, 1, 1, 1, 1, 1, 1, 1, 1, 1, 1, 1, 1, 1, 1, 1, 1, 1, 1, 1, 1, 1, 1, 1, 2, 1, 1, 1, 1, 1, 1, 1, 1, 1, 1, 1, 1, 1, 1, 1, 1], "support_class": ["single", "single", "single", "single", "single", "single", "single", "single", "single", "single", "single", "single", "single", "single", "single", "single", "single", "single", "single", "shared", "single", "single", "single", "single", "single", "single", "single", "single", "single", "single", "single", "single", "single", "single", "single", "single", "single", "single", "single", "single", "single", "single", "single", "single", "single", "single", "single", "single", "single", "single", "single", "single", "single", "single", "single", "single", "single", "single", "single", "single", "single", "single", "single", "single", "single", "single", "single", "single", "single", "single", "single", "single", "single", "single", "single", "single", "single", "single", "single", "single", "single", "single", "single", "single", "single", "single", "single", "single", "single", "single", "single", "single", "single", "single", "single", "single", "single", "single", "single", "single", "single", "single", "single", "single", "single", "single", "single", "single", "single", "single", "single", "single", "single", "single", "single", "single", "single", "single", "single", "single", "single", "single", "single", "single", "single", "single", "single", "single", "single", "single", "single", "single", "single", "single", "single", "single", "single", "single", "single", "shared", "single", "single", "single", "single", "single", "single", "single", "single", "single", "single", "single", "shared", "single", "single", "single", "single", "single", "single", "single", "single", "single", "single", "single", "single", "single", "single", "single", "single", "single", "single", "single", "single", "single", "single", "single", "single", "single", "single", "single", "single", "single", "single", "single", "single", "single", "single", "single", "single", "single", "single", "single", "single", "shared", "single", "single", "single", "single", "single", "single", "single", "single", "single", "single", "single", "single", "single", "single", "single", "single", "single", "single", "single", "single", "single", "single", "single", "single", "single", "single", "single", "single", "single", "single", "single", "single", "single", "single", "single", "single", "single", "single", "single", "single", "single", "single", "single", "single", "single", "single", "single", "single", "single", "single", "single", "single", "single", "single", "single", "single", "single", "single", "single", "single", "single", "single", "single", "shared", "single", "single", "single", "single", "single", "single", "single", "single", "single", "single", "single", "single", "single", "single", "single", "single", "single", "single", "single", "single", "single", "single", "single", "shared", "single", "single", "single", "single", "single", "single", "single", "single", "single", "single", "shared", "single", "single", "single", "single", "single", "single", "single", "single", "single", "single", "single", "single", "single", "single", "single", "single", "single", "single", "shared", "single", "single", "single", "single", "single", "single", "single", "single", "single", "single", "single", "single", "single", "single", "single", "single", "single", "single", "single", "single", "single", "single", "single", "single", "single", "single", "single", "single", "single", "shared", "single", "single", "single", "single", "single", "single", "single", "single", "single", "single", "single", "single", "single", "single", "single", "single"]}, "geometry": {"type": "MultiLineString", "coordinates": [[[90.0478480708187, 33.60478156883504], [-6.21137221169583, 30.58447014869877]], [[90.0478480708187, 33.60478156883504], [169.2308443018732, -4.932674682475722]], [[90.0478480708187, 33.60478156883504], [85.03971447499077, -1.3319726517093902]], [[90.0478480708187, 33.60478156883504], [113.19878699728842, 60.965753270148944]], [[90.0478480708187, 33.60478156883504], [88.04535299324218, 20.660197728460773]], [[90.0478480708187, 33.60478156883504], [30.756959538520977, 2.577000926235278]], [[90.0478480708187, 33.60478156883504], [112.39647042012173, -1.9179932036047975]], [[-79.27313735730218, -12.044404499645974], [6.261453462502802, 20.882165761941913]], [[-79.27313735730218, -12.044404499645974], [-6.788205815947373, -3.8402549031711724]], [[-79.27313735730218, -12.044404499645974], [-37.05174057673822, -12.805657576665562]], [[100.72686264269782, 12.044404499645974], [-173.7385465374972, -20.882165761941913]], [[100.72686264269782, 12.044404499645974], [4.754955514216809, -14.267556802952285]], [[100.72686264269782, 12.044404499645974], [74.24493383982262, 12.091686985658159]], [[100.72686264269782, 12.044404499645974], [154.30950080209334, 87.64628990438725]], [[100.72686264269782, 12.044404499645974], [156.4727087266868, -10.320646503701179]], [[-89.95215192918131, -33.60478156883504], [-149.24304046147904, -2.577000926235278]], [[-175.2450444857832, 14.267556802952285], [-119.83605696768224, -22.86859700432132]], [[-175.2450444857832, 14.267556802952285], [68.64000253250285, 46.72958144079563]], [[-175.2450444857832, 14.267556802952285], [129.94214268889678, -25.739581240355925]], [[6.261453462502802, 20.882165761941913], [-49.310065531017955, -16.77281546868691]], [[6.261453462502802, 20.882165761941913], [11.933525744711558, 41.294022526589345]], [[6.261453462502802, 20.882165761941913], [151.3086197346813, 68.82842962940538]], [[6.261453462502802, 20.882165761941913], [-61.671679762082775, 45.343899989387076]], [[-173.7385465374972, -20.882165761941913], [139.2181876043202, 2.690108860722534]], [[4.754955514216809, -14.267556802952285], [-49.310065531017955, -16.77281546868691]], [[4.754955514216809, -14.267556802952285], [120.54310304178549, 72.22433751880484]], [[4.754955514216809, -14.267556802952285], [98.89368607153274, -36.827758635984104]], [[4.754955514216809, -14.267556802952285], [-91.95464700675784, -20.660197728460773]], [[2.161588260272566, 1.1332425184877168], [27.92560097409882, 82.51743774505994]], [[2.161588260272566, 1.1332425184877168], [49.40687126567254, -27.783211330716963]], [[2.161588260272566, 1.1332425184877168], [-63.57902894858911, 34.175677075799996]], [[2.161588260272566, 1.1332425184877168], [68.64000253250285, 46.72958144079563]], [[2.161588260272566, 1.1332425184877168], [2.7053740630909355, 84.66891221549943]], [[2.161588260272566, 1.1332425184877168], [168.4647496687656, 49.75208781656205]], [[176.16625324559737, 58.03720892756293], [-110.2843017997763, 64.58173564487853]], [[176.16625324559737, 58.03720892756293], [-105.75506616017736, -12.091686985658159]], [[176.16625324559737, 58.03720892756293], [129.94214268889678, -25.739581240355925]], [[176.16625324559737, 58.03720892756293], [93.0986063857248, 5.385259721586761]], [[176.16625324559737, 58.03720892756293], [-25.690499197906647, -87.64628990438725]], [[-3.8337467544026333, -58.03720892756293], [-63.57902894858911, 34.175677075799996]], [[-3.8337467544026333, -58.03720892756293], [142.9482594232618, 12.805657576665562]], [[-3.8337467544026333, -58.03720892756293], [173.21179418405262, 3.8402549031711724]], [[-6.21137221169583, 30.58447014869877], [-110.2843017997763, 64.58173564487853]], [[-6.21137221169583, 30.58447014869877], [-61.740664702181995, -24.301597494146502]], [[-6.21137221169583, 30.58447014869877], [-91.38083589859777, 37.14884851376387]], [[-6.21137221169583, 30.58447014869877], [-102.87323266328237, 19.31339139663232]], [[-6.21137221169583, 30.58447014869877], [-40.7818123956798, -2.690108860722534]], [[169.2308443018732, -4.932674682475722], [49.40687126567254, -27.783211330716963]], [[169.2308443018732, -4.932674682475722], [129.94214268889678, -25.739581240355925]], [[169.2308443018732, -4.932674682475722], [-145.84998308214549, -22.797236384528787]], [[-10.7691556981268, 4.932674682475722], [-15.333242987166079, 50.16226041880947]], [[-10.7691556981268, 4.932674682475722], [119.6668977906687, 45.308056592167745]], [[-10.7691556981268, 4.932674682475722], [-107.87785676639041, 34.96993964407209]], [[173.78862778830418, -30.58447014869877], [114.40487866219848, -47.21096957491842]], [[173.78862778830418, -30.58447014869877], [118.0041105362281, 37.968337853137974]], [[173.78862778830418, -30.58447014869877], [-6.4241930128375095, -77.12223317029769]], [[27.92560097409882, 82.51743774505994], [-84.2831453885912, 8.801659129536509]], [[27.92560097409882, 82.51743774505994], [4.818795659537394, 44.456489837720135]], [[27.92560097409882, 82.51743774505994], [147.75264049616658, 23.406575669806102]], [[27.92560097409882, 82.51743774505994], [-81.10631392846726, 36.827758635984104]], [[27.92560097409882, 82.51743774505994], [-118.22818245117055, 19.38500206354758]], [[-9.098183878577766, -76.06399507497174], [-110.2843017997763, 64.58173564487853]], [[170.90181612142223, 76.06399507497174], [84.28525319934997, -62.03333753553834]], [[170.90181612142223, 76.06399507497174], [-67.60352957987827, 1.9179932036047975]], [[170.90181612142223, 76.06399507497174], [-116.61837633143345, 29.43052922433497]], [[-152.0743990259012, -82.51743774505994], [88.61916410140223, -37.14884851376387]], [[-110.2843017997763, 64.58173564487853], [-63.57902894858911, 34.175677075799996]], [[-110.2843017997763, 64.58173564487853], [119.30844337420936, -41.9935116396639]], [[-110.2843017997763, 64.58173564487853], [111.58715604352516, 21.2276408604933]], [[-110.2843017997763, 64.58173564487853], [47.17771249768878, 48.18482707389215]], [[49.40687126567254, -27.783211330716963], [110.56852431451674, 11.107207503205771]], [[49.40687126567254, -27.783211330716963], [-6.788205815947373, -3.8402549031711724]], [[-130.59312873432748, 27.783211330716963], [-37.64894229565903, 46.34732071652418]], [[69.7156982002237, -64.58173564487853], [69.05562010099946, -9.157407720779965]], [[69.7156982002237, -64.58173564487853], [119.79745093480575, 59.6345660335786]], [[69.7156982002237, -64.58173564487853], [53.95754434396618, 8.189681156198029]], [[69.7156982002237, -64.58173564487853], [118.0041105362281, 37.968337853137974]], [[64.47250728207625, -35.29098550263639], [39.04560739343029, 6.639434400206592]], [[64.47250728207625, -35.29098550263639], [-175.41068140749906, -32.312643017998546]], [[-95.71474680065005, 62.03333753553834], [-91.70733006019493, 6.390257481597123]], [[-95.71474680065005, 62.03333753553834], [54.13362764458707, 56.96762551780796]], [[-95.71474680065005, 62.03333753553834], [22.699207571022065, 9.700659740570762]], [[-95.71474680065005, 62.03333753553834], [98.91991673758065, 62.53040773261465]], [[-95.71474680065005, 62.03333753553834], [110.56852431451674, 11.107207503205771]], [[-95.71474680065005, 62.03333753553834], [-60.333102209331315, -45.308056592167745]], [[-115.52749271792375, 35.29098550263639], [61.77181754882945, -19.38500206354758]], [[-115.52749271792375, 35.29098550263639], [-177.9095879344572, 54.07796436292536]], [[-115.52749271792375, 35.29098550263639], [16.334134275916448, 76.03436256098999]], [[-115.52749271792375, 35.29098550263639], [118.0041105362281, 37.968337853137974]], [[-115.52749271792375, 35.29098550263639], [-130.1043724600534, 10.306331255443643]], [[-115.52749271792375, 35.29098550263639], [-140.9543926065697, -6.639434400206592]], [[130.68993446898205, 16.77281546868691], [173.21179418405262, 3.8402549031711724]], [[130.68993446898205, 16.77281546868691], [119.6668977906687, 45.308056592167745]], [[60.163943032317775, 22.86859700432132], [110.56852431451674, 11.107207503205771]], [[-49.310065531017955, -16.77281546868691], [-1.7211428725048745, 13.807923671804955]], [[-49.310065531017955, -16.77281546868691], [32.22127744135697, -28.15494755241078]], [[-49.310065531017955, -16.77281546868691], [-111.35999746749717, -46.72958144079563]], [[74.24493383982262, 12.091686985658159], [-168.06647425528845, -41.294022526589345]], [[74.24493383982262, 12.091686985658159], [139.44984450951432, -15.194617706036848]], [[115.10125677702126, 31.131978454455762], [-175.18120434046259, -44.456489837720135]], [[115.10125677702126, 31.131978454455762], [151.3086197346813, 68.82842962940538]], [[115.10125677702126, 31.131978454455762], [118.0041105362281, 37.968337853137974]], [[-105.75506616017736, -12.091686985658159], [11.933525744711558, 41.294022526589345]], [[-105.75506616017736, -12.091686985658159], [-37.05174057673822, -12.805657576665562]], [[51.807850770027436, 33.220895273816794], [54.13362764458707, 56.96762551780796]], [[51.807850770027436, 33.220895273816794], [111.58715604352516, 21.2276408604933]], [[128.40948663832924, 6.09682386434042], [93.0986063857248, 5.385259721586761]], [[-51.59051336167077, -6.09682386434042], [-84.2831453885912, 8.801659129536509]], [[94.97975218868072, 45.108194311523434], [74.15936094573627, -1.4820227940736534]], [[95.7168546114088, -8.801659129536509], [174.11509060972801, -48.079920301090596]], [[95.7168546114088, -8.801659129536509], [-105.84063905426375, 1.4820227940736534]], [[95.7168546114088, -8.801659129536509], [2.7053740630909355, 84.66891221549943]], [[-84.2831453885912, 8.801659129536509], [-107.2625396280581, 69.50744683706284]], [[-84.2831453885912, 8.801659129536509], [-6.788205815947373, -3.8402549031711724]], [[-84.2831453885912, 8.801659129536509], [-67.60352957987827, 1.9179932036047975]], [[-84.2831453885912, 8.801659129536509], [-50.05785731110323, 25.739581240355925]], [[-84.2831453885912, 8.801659129536509], [-6.0392226954023, -24.540193934113834]], [[114.42768156241806, 51.53489403585935], [47.17771249768878, 48.18482707389215]], [[114.42768156241806, 51.53489403585935], [88.61916410140223, -37.14884851376387]], [[114.42768156241806, 51.53489403585935], [118.25933529781803, 24.301597494146502]], [[85.03971447499077, -1.3319726517093902], [152.0131333450644, -44.363256862406466]], [[85.03971447499077, -1.3319726517093902], [36.27568895793505, 53.363560956105275]], [[-94.96028552500924, 1.3319726517093902], [-63.57902894858911, 34.175677075799996]], [[-65.57231843758196, -51.53489403585935], [116.4209710514109, -34.175677075799996]], [[-65.57231843758196, -51.53489403585935], [-60.69155662579063, 41.9935116396639]], [[-65.57231843758196, -51.53489403585935], [-91.38083589859777, 37.14884851376387]], [[88.29266993980508, -6.390257481597123], [47.17771249768878, 48.18482707389215]], [[113.19878699728842, 60.965753270148944], [-34.59600013240461, 44.6532518876683]], [[113.19878699728842, 60.965753270148944], [139.44984450951432, -15.194617706036848]], [[113.19878699728842, 60.965753270148944], [173.5758069871625, 77.12223317029769]], [[-66.80121300271158, -60.965753270148944], [20.574097883020556, -17.68492897408829]], [[-91.70733006019493, 6.390257481597123], [-113.49850174192957, 51.33003822883659]], [[-91.70733006019493, 6.390257481597123], [-60.333102209331315, -45.308056592167745]], [[-91.70733006019493, 6.390257481597123], [-102.44612313911573, 29.592098434264322]], [[-168.06647425528845, -41.294022526589345], [54.13362764458707, 56.96762551780796]], [[-168.06647425528845, -41.294022526589345], [135.95698747178645, -21.06903706056781]], [[-168.06647425528845, -41.294022526589345], [139.44984450951432, -15.194617706036848]], [[-176.36467048133886, 7.744670396729487], [-15.333242987166079, 50.16226041880947]], [[-176.36467048133886, 7.744670396729487], [173.5758069871625, 77.12223317029769]], [[-176.36467048133886, 7.744670396729487], [129.94214268889678, -25.739581240355925]], [[-176.36467048133886, 7.744670396729487], [-140.0471462147643, 26.533025597975257]], [[3.635329518661138, -7.744670396729487], [32.22127744135697, -28.15494755241078]], [[3.635329518661138, -7.744670396729487], [-34.59600013240461, 44.6532518876683]], [[3.635329518661138, -7.744670396729487], [-71.61019247964616, -42.65494946943541]], [[11.933525744711558, 41.294022526589345], [116.4209710514109, -34.175677075799996]], [[11.933525744711558, 41.294022526589345], [93.0986063857248, 5.385259721586761]], [[11.933525744711558, 41.294022526589345], [53.95754434396618, 8.189681156198029]], [[11.933525744711558, 41.294022526589345], [-11.535250331234401, -49.75208781656205]], [[-65.59512133780153, 47.21096957491842], [88.04535299324218, 20.660197728460773]], [[-65.59512133780153, 47.21096957491842], [-61.995889463771924, -37.968337853137974]], [[-65.59512133780153, 47.21096957491842], [-91.38083589859777, 37.14884851376387]], [[-65.59512133780153, 47.21096957491842], [69.05562010099946, -9.157407720779965]], [[-65.59512133780153, 47.21096957491842], [119.6668977906687, 45.308056592167745]], [[178.27885712749514, -13.807923671804955], [174.11509060972801, -48.079920301090596]], [[178.27885712749514, -13.807923671804955], [-126.04245565603384, -8.189681156198029]], [[-1.7211428725048745, 13.807923671804955], [23.760205083220615, -21.837994327007678]], [[-1.7211428725048745, 13.807923671804955], [20.574097883020556, -17.68492897408829]], [[-1.7211428725048745, 13.807923671804955], [10.664094334102957, 65.93110045885278]], [[-1.7211428725048745, 13.807923671804955], [53.95754434396618, 8.189681156198029]], [[-1.7211428725048745, 13.807923671804955], [-67.7766774852194, 11.164137855340805]], [[114.40487866219848, -47.21096957491842], [-27.98686665493559, 44.363256862406466]], [[-177.00341793542668, 36.46403478933307], [145.4039998675954, -44.6532518876683]], [[-171.82905377208365, -43.06166124817141], [108.38980752035384, 42.65494946943541]], [[8.170946227916334, 43.06166124817141], [118.0041105362281, 37.968337853137974]], [[8.170946227916334, 43.06166124817141], [-40.55015549048568, 15.194617706036848]], [[2.996582064573324, -36.46403478933307], [110.56852431451674, 11.107207503205771]], [[2.996582064573324, -36.46403478933307], [39.952853785235725, -26.533025597975257]], [[2.996582064573324, -36.46403478933307], [50.23280127566944, 3.2155294930935177]], [[-156.2397949167794, 21.837994327007678], [-63.57902894858911, 34.175677075799996]], [[-156.2397949167794, 21.837994327007678], [119.30844337420936, -41.9935116396639]], [[-156.2397949167794, 21.837994327007678], [111.58715604352516, 21.2276408604933]], [[-156.2397949167794, 21.837994327007678], [-154.50770563550142, -29.112025352539945]], [[-156.2397949167794, 21.837994327007678], [152.2363423219614, -15.31970097499535]], [[-156.2397949167794, 21.837994327007678], [-143.72431104206495, -53.363560956105275]], [[-156.2397949167794, 21.837994327007678], [-157.30079242897793, -9.700659740570762]], [[152.0131333450644, -44.363256862406466], [88.04535299324218, 20.660197728460773]], [[152.0131333450644, -44.363256862406466], [-67.60352957987827, 1.9179932036047975]], [[-27.98686665493559, 44.363256862406466], [80.7303580885692, 26.851243091179665]], [[-27.98686665493559, 44.363256862406466], [118.25933529781803, 24.301597494146502]], [[-27.98686665493559, 44.363256862406466], [-28.302485937084477, -31.668330919470357]], [[23.760205083220615, -21.837994327007678], [-34.59600013240461, 44.6532518876683]], [[23.760205083220615, -21.837994327007678], [142.35105770434097, -46.34732071652418]], [[23.760205083220615, -21.837994327007678], [110.56852431451674, 11.107207503205771]], [[23.760205083220615, -21.837994327007678], [37.70029208449806, 15.03649241401124]], [[145.4039998675954, -44.6532518876683], [20.574097883020556, -17.68492897408829]], [[145.4039998675954, -44.6532518876683], [66.50149825807043, -51.33003822883659]], [[-147.77872255864304, 28.15494755241078], [-159.42590211697944, 17.68492897408829]], [[-147.77872255864304, 28.15494755241078], [108.38980752035384, 42.65494946943541]], [[-147.77872255864304, 28.15494755241078], [-107.87785676639041, 34.96993964407209]], [[32.22127744135697, -28.15494755241078], [20.574097883020556, -17.68492897408829]], [[32.22127744135697, -28.15494755241078], [138.55352337543994, -45.98486578401465]], [[32.22127744135697, -28.15494755241078], [39.04560739343029, 6.639434400206592]], [[32.22127744135697, -28.15494755241078], [-118.22818245117055, 19.38500206354758]], [[32.22127744135697, -28.15494755241078], [118.25933529781803, 24.301597494146502]], [[-34.59600013240461, 44.6532518876683], [4.589318592500942, 32.312643017998546]], [[164.66675701283393, -50.16226041880947], [42.02549452617162, -50.31723561052228]], [[-15.333242987166079, 50.16226041880947], [-150.31741522165936, 46.07533212047058]], [[174.36387764044034, -3.4471277807400584], [142.35105770434097, -46.34732071652418]], [[174.36387764044034, -3.4471277807400584], [129.94214268889678, -25.739581240355925]], [[174.36387764044034, -3.4471277807400584], [-110.94437989900055, 9.157407720779965]], [[174.36387764044034, -3.4471277807400584], [118.25933529781803, 24.301597494146502]], [[4.818795659537394, 44.456489837720135], [29.68258477834064, -46.07533212047058]], [[4.818795659537394, 44.456489837720135], [-107.2625396280581, 69.50744683706284]], [[4.818795659537394, 44.456489837720135], [54.13362764458707, 56.96762551780796]], [[4.818795659537394, 44.456489837720135], [80.7303580885692, 26.851243091179665]], [[4.818795659537394, 44.456489837720135], [-129.76719872433057, -3.2155294930935177]], [[4.818795659537394, 44.456489837720135], [-27.763657678038637, 15.31970097499535]], [[4.818795659537394, 44.456489837720135], [77.12676733671763, -19.31339139663232]], [[-5.104571121850545, -65.46361539397088], [98.91991673758065, 62.53040773261465]], [[-5.104571121850545, -65.46361539397088], [-61.740664702181995, -24.301597494146502]], [[174.89542887814946, 65.46361539397088], [47.17771249768878, 48.18482707389215]], [[174.89542887814946, 65.46361539397088], [36.27568895793505, 53.363560956105275]], [[-175.18120434046259, -44.456489837720135], [152.2363423219614, -15.31970097499535]], [[-63.57902894858911, 34.175677075799996], [-113.49850174192957, 51.33003822883659]], [[-63.57902894858911, 34.175677075799996], [2.7053740630909355, 84.66891221549943]], [[-63.57902894858911, 34.175677075799996], [7.7875521253078634, 58.3454874353333]], [[-63.57902894858911, 34.175677075799996], [-91.95464700675784, -20.660197728460773]], [[116.4209710514109, -34.175677075799996], [-44.04301252821356, 21.06903706056781]], [[-62.76186585709192, 36.56744077454395], [2.7053740630909355, 84.66891221549943]], [[-62.76186585709192, 36.56744077454395], [173.21179418405262, 3.8402549031711724]], [[-62.76186585709192, 36.56744077454395], [-132.82228750231124, -48.18482707389215]], [[117.23813414290808, -36.56744077454395], [72.73746037194192, -69.50744683706284]], [[117.23813414290808, -36.56744077454395], [-118.22818245117055, 19.38500206354758]], [[-5.884909390271998, 48.079920301090596], [7.7875521253078634, 58.3454874353333]], [[-5.884909390271998, 48.079920301090596], [36.27568895793505, 53.363560956105275]], [[-5.884909390271998, 48.079920301090596], [53.95754434396618, 8.189681156198029]], [[-10.580733287677047, -20.702305054606025], [-41.44647662456007, 45.98486578401465]], [[-10.580733287677047, -20.702305054606025], [2.7053740630909355, 84.66891221549943]], [[-10.580733287677047, -20.702305054606025], [111.58715604352516, 21.2276408604933]], [[169.41926671232295, 20.702305054606025], [151.3086197346813, 68.82842962940538]], [[169.41926671232295, 20.702305054606025], [142.9482594232618, 12.805657576665562]], [[169.41926671232295, 20.702305054606025], [132.63059454165295, -9.49097719712199]], [[174.11509060972801, -48.079920301090596], [-6.4241930128375095, -77.12223317029769]], [[-37.64894229565903, 46.34732071652418], [20.574097883020556, -17.68492897408829]], [[142.35105770434097, -46.34732071652418], [66.50149825807043, -51.33003822883659]], [[142.35105770434097, -46.34732071652418], [-111.35999746749717, -46.72958144079563]], [[20.574097883020556, -17.68492897408829], [119.30844337420936, -41.9935116396639]], [[138.55352337543994, -45.98486578401465], [112.39647042012173, -1.9179932036047975]], [[138.55352337543994, -45.98486578401465], [118.25933529781803, 24.301597494146502]], [[138.55352337543994, -45.98486578401465], [-172.21244787469215, -58.3454874353333]], [[-159.42590211697944, 17.68492897408829], [-140.0471462147643, 26.533025597975257]], [[-159.42590211697944, 17.68492897408829], [-85.05331740378092, 33.214302736888264]], [[-124.3314426311652, 71.19969405677817], [80.7303580885692, 26.851243091179665]], [[-124.3314426311652, 71.19969405677817], [-50.05785731110323, 25.739581240355925]], [[59.874258798939096, 15.742630037444787], [-91.38083589859777, 37.14884851376387]], [[59.874258798939096, 15.742630037444787], [-149.24304046147904, -2.577000926235278]], [[-120.12574120106092, -15.742630037444787], [-113.49850174192957, 51.33003822883659]], [[-120.12574120106092, -15.742630037444787], [-28.302485937084477, -31.668330919470357]], [[55.66855736883481, -71.19969405677817], [-60.69155662579063, 41.9935116396639]], [[55.66855736883481, -71.19969405677817], [108.38980752035384, 42.65494946943541]], [[55.66855736883481, -71.19969405677817], [80.12397985385586, -34.1116007246381]], [[74.15936094573627, -1.4820227940736534], [-142.29970791550195, -15.03649241401124]], [[74.15936094573627, -1.4820227940736534], [-23.52729127331324, 10.320646503701179]], [[74.15936094573627, -1.4820227940736534], [-40.55015549048568, 15.194617706036848]], [[-107.2625396280581, 69.50744683706284], [-129.76719872433057, -3.2155294930935177]], [[-107.2625396280581, 69.50744683706284], [16.334134275916448, 76.03436256098999]], [[-107.2625396280581, 69.50744683706284], [-44.04301252821356, 21.06903706056781]], [[-107.2625396280581, 69.50744683706284], [-116.61837633143345, 29.43052922433497]], [[-113.49850174192957, 51.33003822883659], [-116.61837633143345, 29.43052922433497]], [[-60.69155662579063, 41.9935116396639], [139.44984450951432, -15.194617706036848]], [[68.64000253250285, 46.72958144079563], [112.22332251478062, -11.164137855340805]], [[68.64000253250285, 46.72958144079563], [77.55387686088429, -29.592098434264322]], [[54.13362764458707, 56.96762551780796], [-67.60352957987827, 1.9179932036047975]], [[2.7053740630909355, 84.66891221549943], [30.756959538520977, 2.577000926235278]], [[63.38162366856655, -29.43052922433497], [111.58715604352516, 21.2276408604933]], [[112.22332251478062, -11.164137855340805], [71.64658460921946, 39.625604214033345]], [[139.44984450951432, -15.194617706036848], [71.64658460921946, 39.625604214033345]], [[139.44984450951432, -15.194617706036848], [-126.04245565603384, -8.189681156198029]], [[173.5758069871625, 77.12223317029769], [10.664094334102957, 65.93110045885278]], [[88.04535299324218, 20.660197728460773], [-99.87602014614414, 34.1116007246381]], [[111.58715604352516, 21.2276408604933], [49.895627539946595, -10.306331255443643]], [[111.58715604352516, 21.2276408604933], [-154.50770563550142, -29.112025352539945]], [[108.38980752035384, 42.65494946943541], [-91.38083589859777, 37.14884851376387]], [[108.38980752035384, 42.65494946943541], [-102.87323266328237, 19.31339139663232]], [[108.38980752035384, 42.65494946943541], [-177.9095879344572, 54.07796436292536]], [[108.38980752035384, 42.65494946943541], [156.4727087266868, -10.320646503701179]], [[147.75264049616658, 23.406575669806102], [93.0986063857248, 5.385259721586761]], [[151.69751406291553, 31.668330919470357], [118.0041105362281, 37.968337853137974]], [[129.94214268889678, -25.739581240355925], [-25.690499197906647, -87.64628990438725]], [[129.94214268889678, -25.739581240355925], [152.2363423219614, -15.31970097499535]], [[129.94214268889678, -25.739581240355925], [156.4727087266868, -10.320646503701179]], [[7.7875521253078634, 58.3454874353333], [71.64658460921946, 39.625604214033345]], [[7.7875521253078634, 58.3454874353333], [25.492294364498573, 29.112025352539945]], [[30.756959538520977, 2.577000926235278], [-23.52729127331324, 10.320646503701179]], [[22.699207571022065, 9.700659740570762], [98.91991673758065, 62.53040773261465]], [[22.699207571022065, 9.700659740570762], [39.952853785235725, -26.533025597975257]], [[80.7303580885692, 26.851243091179665], [-60.202549065194255, -59.6345660335786]], [[71.64658460921946, 39.625604214033345], [25.492294364498573, 29.112025352539945]], [[71.64658460921946, 39.625604214033345], [120.54310304178549, 72.22433751880484]], [[98.91991673758065, 62.53040773261465], [151.3086197346813, 68.82842962940538]], [[98.91991673758065, 62.53040773261465], [-85.05331740378092, 33.214302736888264]], [[98.91991673758065, 62.53040773261465], [-60.333102209331315, -45.308056592167745]], [[47.17771249768878, 48.18482707389215], [10.664094334102957, 65.93110045885278]], [[47.17771249768878, 48.18482707389215], [-61.671679762082775, 45.343899989387076]], [[36.27568895793505, 53.363560956105275], [151.3086197346813, 68.82842962940538]], [[36.27568895793505, 53.363560956105275], [53.95754434396618, 8.189681156198029]], [[36.27568895793505, 53.363560956105275], [118.0041105362281, 37.968337853137974]], [[36.27568895793505, 53.363560956105275], [-44.04301252821356, 21.06903706056781]], [[151.3086197346813, 68.82842962940538], [110.56852431451674, 11.107207503205771]], [[112.39647042012173, -1.9179932036047975], [-154.50770563550142, -29.112025352539945]], [[112.39647042012173, -1.9179932036047975], [-110.94437989900055, 9.157407720779965]], [[110.56852431451674, 11.107207503205771], [-40.7818123956798, -2.690108860722534]], [[-81.10631392846726, 36.827758635984104], [-18.740049164449466, -33.95576992626479]], [[-81.10631392846726, 36.827758635984104], [-140.0471462147643, 26.533025597975257]], [[-81.10631392846726, 36.827758635984104], [-61.671679762082775, 45.343899989387076]], [[-81.10631392846726, 36.827758635984104], [-50.05785731110323, 25.739581240355925]], [[-18.740049164449466, -33.95576992626479], [-99.87602014614414, 34.1116007246381]], [[-61.740664702181995, -24.301597494146502], [-28.69138026531873, -68.82842962940538]], [[-99.87602014614414, 34.1116007246381], [-61.671679762082775, 45.343899989387076]], [[-99.87602014614414, 34.1116007246381], [-69.43147568548326, -11.107207503205771]], [[-91.38083589859777, 37.14884851376387], [-140.0471462147643, 26.533025597975257]], [[-91.38083589859777, 37.14884851376387], [119.79745093480575, 59.6345660335786]], [[-102.87323266328237, 19.31339139663232], [-61.671679762082775, 45.343899989387076]], [[-102.87323266328237, 19.31339139663232], [-67.7766774852194, 11.164137855340805]], [[-154.50770563550142, -29.112025352539945], [152.2363423219614, -15.31970097499535]], [[-47.36940545834706, 9.49097719712199], [-60.333102209331315, -45.308056592167745]], [[-85.05331740378092, 33.214302736888264], [-61.671679762082775, 45.343899989387076]], [[-85.05331740378092, 33.214302736888264], [-68.41284395647486, -21.2276408604933]], [[2.0904120655428087, -54.07796436292536], [-177.29462593690909, -84.66891221549943]], [[-61.671679762082775, 45.343899989387076], [-110.94437989900055, 9.157407720779965]], [[-37.05174057673822, -12.805657576665562], [-118.22818245117055, 19.38500206354758]], [[-37.05174057673822, -12.805657576665562], [-125.86637235541293, -56.96762551780796]], [[-110.94437989900055, 9.157407720779965], [-25.690499197906647, -87.64628990438725]], [[154.30950080209334, 87.64628990438725], [16.334134275916448, 76.03436256098999]], [[154.30950080209334, 87.64628990438725], [-50.05785731110323, 25.739581240355925]], [[69.05562010099946, -9.157407720779965], [119.79745093480575, 59.6345660335786]], [[69.05562010099946, -9.157407720779965], [-67.60352957987827, 1.9179932036047975]], [[61.77181754882945, -19.38500206354758], [-67.60352957987827, 1.9179932036047975]], [[139.2181876043202, 2.690108860722534], [152.2363423219614, -15.31970097499535]], [[139.2181876043202, 2.690108860722534], [-143.72431104206495, -53.363560956105275]], [[142.9482594232618, 12.805657576665562], [-68.41284395647486, -21.2276408604933]], [[119.79745093480575, 59.6345660335786], [-67.60352957987827, 1.9179932036047975]], [[119.79745093480575, 59.6345660335786], [-81.08008326241935, -62.53040773261465]], [[94.94668259621909, -33.214302736888264], [152.2363423219614, -15.31970097499535]], [[132.63059454165295, -9.49097719712199], [-177.29462593690909, -84.66891221549943]], [[4.589318592500942, 32.312643017998546], [161.25995083555054, 33.95576992626479]], [[4.589318592500942, 32.312643017998546], [-86.90139361427521, -5.385259721586761]], [[4.589318592500942, 32.312643017998546], [-91.95464700675784, -20.660197728460773]], [[120.54310304178549, 72.22433751880484], [-91.95464700675784, -20.660197728460773]], [[120.54310304178549, 72.22433751880484], [-116.61837633143345, 29.43052922433497]], [[80.12397985385586, -34.1116007246381], [118.0041105362281, 37.968337853137974]], [[16.334134275916448, 76.03436256098999], [-116.61837633143345, 29.43052922433497]], [[53.95754434396618, 8.189681156198029], [-11.535250331234401, -49.75208781656205]], [[50.23280127566944, 3.2155294930935177], [-11.535250331234401, -49.75208781656205]], [[50.23280127566944, 3.2155294930935177], [-125.86637235541293, -56.96762551780796]], [[118.0041105362281, 37.968337853137974], [-149.24304046147904, -2.577000926235278]], [[118.0041105362281, 37.968337853137974], [-68.41284395647486, -21.2276408604933]], [[118.0041105362281, 37.968337853137974], [-177.29462593690909, -84.66891221549943]], [[118.0041105362281, 37.968337853137974], [-111.35999746749717, -46.72958144079563]], [[161.25995083555054, 33.95576992626479], [-91.95464700675784, -20.660197728460773]], [[98.89368607153274, -36.827758635984104], [-6.4241930128375095, -77.12223317029769]], [[98.89368607153274, -36.827758635984104], [-11.535250331234401, -49.75208781656205]], [[-67.60352957987827, 1.9179932036047975], [-6.0392226954023, -24.540193934113834]], [[-28.302485937084477, -31.668330919470357], [-40.55015549048568, 15.194617706036848]], [[-32.24735950383343, -23.406575669806102], [-67.7766774852194, 11.164137855340805]], [[-40.55015549048568, 15.194617706036848], [-177.29462593690909, -84.66891221549943]], [[-11.535250331234401, -49.75208781656205], [-125.86637235541293, -56.96762551780796]]]}}]}