{"type": "FeatureCollection", "name": "E8_proj_seed1496 grid", "properties": {"shape": "E8_proj_seed1496", "lock_lat": 75.0, "lock_lon": -145.0, "bearing": 30.0}, "features": [{"type": "Feature", "properties": {"kind": "grid_vertices", "shape": "E8_proj_seed1496", "count": 240, "ids": ["V1", "V2", "V3", "V4", "V5", "V6", "V7", "V8", "V9", "V10", "V11", "V12", "V13", "V14", "V15", "V16", "V17", "V18", "V19", "V20", "V21", "V22", "V23", "V24", "V25", "V26", "V27", "V28", "V29", "V30", "V31", "V32", "V33", "V34", "V35", "V36", "V37", "V38", "V39", "V40", "V41", "V42", "V43", "V44", "V45", "V46", "V47", "V48", "V49", "V50", "V51", "V52", "V53", "V54", "V55", "V56", "V57", "V58", "V59", "V60", "V61", "V62", "V63", "V64", "V65", "V66", "V67", "V68", "V69", "V70", "V71", "V72", "V73", "V74", "V75", "V76", "V77", "V78", "V79", "V80", "V81", "V82", "V83", "V84", "V85", "V86", "V87", "V88", "V89", "V90", "V91", "V92", "V93", "V94", "V95", "V96", "V97", "V98", "V99", "V100", "V101", "V102", "V103", "V104", "V105", "V106", "V107", "V108", "V109", "V110", "V111", "V112", "V113", "V114", "V115", "V116", "V117", "V118", "V119", "V120", "V121", "V122", "V123", "V124", "V125", "V126", "V127", "V128", "V129", "V130", "V131", "V132", "V133", "V134", "V135", "V136", "V137", "V138", "V139", "V140", "V141", "V142", "V143", "V144", "V145", "V146", "V147", "V148", "V149", "V150", "V151", "V152", "V153", "V154", "V155", "V156", "V157", "V158", "V159", "V160", "V161", "V162", "V163", "V164", "V165", "V166", "V167", "V168", "V169", "V170", "V171", "V172", "V173", "V174", "V175", "V176", "V177", "V178", "V179", "V180", "V181", "V182", "V183", "V184", "V185", "V186", "V187", "V188", "V189", "V190", "V191", "V192", "V193", "V194", "V195", "V196", "V197", "V198", "V199", "V200", "V201", "V202", "V203", "V204", "V205", "V206", "V207", "V208", "V209", "V210", "V211", "V212", "V213", "V214", "V215", "V216", "V217", "V218", "V219", "V220", "V221", "V222", "V223", "V224", "V225", "V226", "V227", "V228", "V229", "V230", "V231", "V232", "V233", "V234", "V235", "V236", "V237", "V238", "V239", "V240"]}, "geometry": {"type": "MultiPoint", "coordinates": [[-141.4275553441378, -25.959617865738103], [-107.46004482418653, 54.14915112267731], [72.53995517581349, -54.14915112267731], [38.5724446558622, 25.959617865738103], [-69.36990347456107, 30.839478641455138], [-151.70791190821635, 11.677385468638152], [28.292088091783675, -11.677385468638152], [110.63009652543894, -30.839478641455138], [-146.81374682635735, 28.810246062069524], [-55.38260102772706, -10.873826643189698], [124.61739897227295, 10.873826643189698], [33.18625317364267, -28.810246062069524], [-109.99358105009915, -5.398296476839284], [-174.03342576396992, 61.329439294871115], [5.966574236030102, -61.329439294871115], [70.00641894990085, 5.398296476839284], [-99.97875738413585, 3.805271256249569], [167.6060828233297, 42.18256320295829], [-12.393917176670302, -42.18256320295829], [80.02124261586415, -3.805271256249569], [-170.40934427872517, 26.22394694216933], [-97.85199515182086, 15.606481945927277], [82.14800484817914, -15.606481945927277], [9.59065572127483, -26.22394694216933], [-86.43775227652338, 53.6609035560857], [-151.95784506477798, -19.042150396918796], [28.042154935222012, 19.042150396918796], [93.56224772347662, -53.6609035560857], [10.8209030513259, -53.63860080262644], [171.0276610214002, -42.23881138769423], [-8.972338978599806, 42.23881138769423], [-169.17909694867413, 53.63860080262644], [-177.53977052910523, -16.68190389390858], [26.06718996782294, -62.38323414947649], [-153.93281003217706, 62.38323414947649], [2.4602294708947823, 16.68190389390858], [-113.86784340349047, -66.98356734059305], [106.10966178018, -20.938640371714555], [-73.89033821982, 20.938640371714555], [66.13215659650953, 66.98356734059305], [-91.00288710063512, -56.548685308949864], [114.20712059399959, -27.048698894706476], [-65.7928794060004, 27.048698894706476], [88.9971128993649, 56.548685308949864], [127.97031686243537, -42.35700271519852], [-78.76883292137218, -62.33360308114827], [101.23116707862782, 62.33360308114827], [-52.029683137564625, 42.35700271519852], [-4.083434510742767, -7.798418140399808], [159.93486513150378, -62.99054057596623], [-20.06513486849623, 62.99054057596623], [175.91656548925724, 7.798418140399808], [-113.56888446915391, 69.34781303252217], [5.261405801407641, -14.405311416730777], [-174.73859419859238, 14.405311416730777], [66.4311155308461, -69.34781303252217], [-41.688302200288476, -22.881247715601802], [39.13718946308076, 31.305125756095272], [-140.86281053691923, -31.305125756095272], [138.31169779971154, 22.881247715601802], [-42.06644316410673, -8.152073953517851], [56.522896627919934, 19.885837069998527], [-123.47710337208007, -19.885837069998527], [137.93355683589326, 8.152073953517851], [50.180037098184734, 8.716422349475891], [-28.80067643270267, 2.9413326362272847], [151.1993235672973, -2.9413326362272847], [-129.81996290181527, -8.716422349475891], [-7.8043809883604975, 33.37132568529918], [29.442606995471913, -69.99481360164177], [-150.55739300452808, 69.99481360164177], [172.1956190116395, -33.37132568529918], [-135.9638903832474, -0.6398150220982387], [150.80108825255795, 46.27718240984854], [-29.19891174744204, -46.27718240984854], [44.03610961675261, 0.6398150220982387], [-121.6768741042371, 10.641445534453094], [147.48294327350166, 31.522361315919365], [-32.51705672649833, -31.522361315919365], [58.323125895762914, -10.641445534453094], [161.52622835492303, 23.084014821498965], [-125.940471543399, 27.65731943745975], [54.059528456601, -27.65731943745975], [-18.473771645076965, -23.084014821498965], [-133.37417653416503, 70.66248456699917], [-179.0159099992567, -11.382266352160899], [0.9840900007433038, 11.382266352160899], [46.625823465834976, -70.66248456699917], [-81.97035282169912, -27.423446230461142], [136.64743968213165, -38.83088686617198], [-43.35256031786837, 38.83088686617198], [98.02964717830089, 27.423446230461142], [-165.0048641523139, -56.34631156727348], [-75.6163039589057, -23.17625808193829], [104.38369604109431, 23.17625808193829], [14.995135847686104, 56.34631156727348], [-56.075053567770276, 15.460693367530634], [-137.54431725320725, -60.35849897505564], [42.455682746792746, 60.35849897505564], [123.92494643222975, -15.460693367530634], [-108.86900016693818, -39.37636062615173], [-69.56589893454368, -11.051591094342868], [110.43410106545633, 11.051591094342868], [71.13099983306184, 39.37636062615173], [-53.07593056172691, 21.965992667131438], [-114.91651149403044, -53.69565823866018], [65.08348850596957, 53.69565823866018], [126.92406943827308, -21.965992667131438], [61.15502569666774, 59.59937295365859], [140.06018560596254, -34.240321982904725], [-39.93981439403745, 34.240321982904725], [-118.84497430333226, -59.59937295365859], [-101.06522591874905, 4.692513721350384], [-106.94077600909604, -27.290890077036718], [175.49171155469983, -24.534664204818863], [-97.37960684506565, 26.97433773530949], [-169.68077743651847, -14.461290802797814], [-80.99687644152587, 33.609064221415075], [124.60501471992238, 51.26958830368553], [165.6761764419215, 5.569019746637281], [-78.16654796661025, -62.83069530941657], [-53.376561566794955, -15.134655480214246], [12.186391917693152, -17.862851231181914], [-54.352744110066645, -67.86378956926158], [-9.094559818354872, 7.648203176239598], [-49.564611490471925, -46.17682322806291], [95.42615267393465, -24.760797215930186], [13.349321140787582, 23.42368328179854], [-153.10566037582277, -25.330873787465148], [-113.21734086736997, -1.0503815965671532], [-177.50098345532422, 12.934151558402878], [-161.51672100444316, -20.167870996099957], [-164.79990142590012, 27.460416055233637], [-150.22990696813486, -12.40637476550807], [156.15794509706583, -0.01569557955694384], [177.67532200492485, 41.97884104619943], [-97.33639276289522, -34.64375656598646], [-105.70933761588643, -47.86142980684861], [161.97932963697372, -48.65679893860347], [-89.32283745971488, -30.286706723795174], [173.57224115657849, -50.608666268788376], [-70.95362679457754, -1.3493593128518604], [111.57118609778362, 18.570889676614332], [145.89058825764977, -39.10357554089158], [-118.60587965329144, 6.663172925111819], [-77.54520552857598, 27.864195807853715], [-129.35267194249664, 77.18710579646138], [-122.64512587226895, 26.853735004310035], [-83.38041721287175, 73.67853479191012], [-102.28089944866667, 35.99520753512429], [140.01178761327, 44.519973821530236], [-39.70558792045011, 83.46816034015468], [-44.6875004940263, 17.669167164752693], [-62.7754600851411, -15.394136779462425], [40.780525193057116, -30.006650460053446], [-30.92037409301607, 29.381371794167602], [-13.390929700790437, 20.10756044883211], [-33.459706977408835, 31.590795800144413], [42.120871854337665, 52.233404936396184], [24.215601589340697, 37.65859509314772], [-124.72377844891501, 32.99754059022732], [-123.12277356357971, 0.45662905407790794], [-178.90387274143902, 11.86600781461809], [-129.69074415709903, 47.85473944161055], [-169.46698364584054, 23.308842812390125], [-112.85833446969092, 51.79848434476675], [153.18885568222498, 57.03869838377388], [177.19742752587078, 34.70354223106205], [-119.96770687497451, -29.67789233621906], [-72.54806822296725, 11.14678470335097], [-176.98660077676928, 82.14598818494383], [-126.49687727426601, -22.377760297040364], [-56.9800957218416, 73.25158123342065], [-98.33819967296832, 2.4597204772284], [127.88994782458916, 17.73355767685762], [18.888879724158272, 77.05492615556803], [-161.11112027584173, -77.05492615556803], [-52.11005217541084, -17.73355767685762], [81.6618003270317, -2.4597204772284], [123.01990427815842, -73.25158123342065], [53.503122725734, 22.377760297040364], [3.0133992232307163, -82.14598818494383], [107.45193177703277, -11.14678470335097], [60.03229312502548, 29.67789233621906], [-2.8025724741292404, -34.70354223106205], [-26.81114431777504, -57.03869838377388], [67.1416655303091, -51.79848434476675], [10.533016354159459, -23.308842812390125], [50.309255842900974, -47.85473944161055], [1.096127258560988, -11.86600781461809], [56.877226436420294, -0.45662905407790794], [55.27622155108498, -32.99754059022732], [-155.78439841065932, -37.65859509314772], [-137.87912814566235, -52.233404936396184], [146.5402930225912, -31.590795800144413], [166.60907029920958, -20.10756044883211], [149.07962590698392, -29.381371794167602], [-139.2194748069429, 30.006650460053446], [117.22453991485892, 15.394136779462425], [135.3124995059737, -17.669167164752693], [140.29441207954991, -83.46816034015468], [-39.988212386729984, -44.519973821530236], [77.71910055133333, -35.99520753512429], [96.61958278712827, -73.67853479191012], [57.35487412773106, -26.853735004310035], [50.647328057503366, -77.18710579646138], [102.45479447142402, -27.864195807853715], [61.39412034670857, -6.663172925111819], [-34.10941174235021, 39.10357554089158], [-68.42881390221638, -18.570889676614332], [109.04637320542247, 1.3493593128518604], [-6.42775884342153, 50.608666268788376], [90.67716254028514, 30.286706723795174], [-18.020670363026287, 48.65679893860347], [74.29066238411359, 47.86142980684861], [82.6636072371048, 34.64375656598646], [-2.3246779950751355, -41.97884104619943], [-23.84205490293416, 0.01569557955694384], [29.770093031865155, 12.40637476550807], [15.200098574099906, -27.460416055233637], [18.48327899555686, 20.167870996099957], [2.4990165446757864, -12.934151558402878], [66.78265913263003, 1.0503815965671532], [26.89433962417725, 25.330873787465148], [-166.6506788592124, -23.42368328179854], [-84.57384732606536, 24.760797215930186], [130.43538850952808, 46.17682322806291], [170.90544018164513, -7.648203176239598], [125.64725588993335, 67.86378956926158], [-167.81360808230687, 17.862851231181914], [126.62343843320505, 15.134655480214246], [101.83345203338976, 62.83069530941657], [-14.323823558078498, -5.569019746637281], [-55.39498528007762, -51.26958830368553], [99.00312355847414, -33.609064221415075], [10.31922256348154, 14.461290802797814], [82.62039315493436, -26.97433773530949], [-4.508288445300191, 24.534664204818863], [73.05922399090397, 27.290890077036718], [78.93477408125095, -4.692513721350384]]}}, {"type": "Feature", "properties": {"kind": "grid_edges", "shape": "E8_proj_seed1496", "count": 327, "ids": ["E1", "E2", "E3", "E4", "E5", "E6", "E7", "E8", "E9", "E10", "E11", "E12", "E13", "E14", "E15", "E16", "E17", "E18", "E19", "E20", "E21", "E22", "E23", "E24", "E25", "E26", "E27", "E28", "E29", "E30", "E31", "E32", "E33", "E34", "E35", "E36", "E37", "E38", "E39", "E40", "E41", "E42", "E43", "E44", "E45", "E46", "E47", "E48", "E49", "E50", "E51", "E52", "E53", "E54", "E55", "E56", "E57", "E58", "E59", "E60", "E61", "E62", "E63", "E64", "E65", "E66", "E67", "E68", "E69", "E70", "E71", "E72", "E73", "E74", "E75", "E76", "E77", "E78", "E79", "E80", "E81", "E82", "E83", "E84", "E85", "E86", "E87", "E88", "E89", "E90", "E91", "E92", "E93", "E94", "E95", "E96", "E97", "E98", "E99", "E100", "E101", "E102", "E103", "E104", "E105", "E106", "E107", "E108", "E109", "E110", "E111", "E112", "E113", "E114", "E115", "E116", "E117", "E118", "E119", "E120", "E121", "E122", "E123", "E124", "E125", "E126", "E127", "E128", "E129", "E130", "E131", "E132", "E133", "E134", "E135", "E136", "E137", "E138", "E139", "E140", "E141", "E142", "E143", "E144", "E145", "E146", "E147", "E148", "E149", "E150", "E151", "E152", "E153", "E154", "E155", "E156", "E157", "E158", "E159", "E160", "E161", "E162", "E163", "E164", "E165", "E166", "E167", "E168", "E169", "E170", "E171", "E172", "E173", "E174", "E175", "E176", "E177", "E178", "E179", "E180", "E181", "E182", "E183", "E184", "E185", "E186", "E187", "E188", "E189", "E190", "E191", "E192", "E193", "E194", "E195", "E196", "E197", "E198", "E199", "E200", "E201", "E202", "E203", "E204", "E205", "E206", "E207", "E208", "E209", "E210", "E211", "E212", "E213", "E214", "E215", "E216", "E217", "E218", "E219", "E220", "E221", "E222", "E223", "E224", "E225", "E226", "E227", "E228", "E229", "E230", "E231", "E232", "E233", "E234", "E235", "E236", "E237", "E238", "E239", "E240", "E241", "E242", "E243", "E244", "E245", "E246", "E247", "E248", "E249", "E250", "E251", "E252", "E253", "E254", "E255", "E256", "E257", "E258", "E259", "E260", "E261", "E262", "E263", "E264", "E265", "E266", "E267", "E268", "E269", "E270", "E271", "E272", "E273", "E274", "E275", "E276", "E277", "E278", "E279", "E280", "E281", "E282", "E283", "E284", "E285", "E286", "E287", "E288", "E289", "E290", "E291", "E292", "E293", "E294", "E295", "E296", "E297", "E298", "E299", "E300", "E301", "E302", "E303", "E304", "E305", "E306", "E307", "E308", "E309", "E310", "E311", "E312", "E313", "E314", "E315", "E316", "E317", "E318", "E319", "E320", "E321", "E322", "E323", "E324", "E325", "E326", "E327"], "pairs": [[1, 13], [1, 163], [3, 6], [3, 43], [3, 208], [3, 209], [3, 212], [3, 228], [3, 229], [4, 13], [4, 25], [4, 68], [4, 126], [4, 127], [4, 153], [5, 29], [5, 138], [6, 30], [6, 176], [6, 211], [6, 213], [8, 52], [9, 78], [9, 79], [9, 170], [9, 174], [10, 19], [10, 52], [10, 182], [10, 210], [10, 224], [10, 231], [11, 219], [12, 24], [12, 38], [12, 155], [13, 142], [13, 150], [14, 210], [15, 73], [15, 196], [15, 198], [16, 90], [18, 40], [18, 88], [18, 228], [20, 94], [20, 122], [21, 25], [21, 83], [21, 103], [22, 196], [23, 197], [24, 48], [24, 110], [24, 136], [24, 157], [25, 85], [25, 113], [25, 144], [25, 161], [26, 50], [26, 108], [26, 198], [26, 228], [26, 231], [27, 97], [27, 188], [29, 37], [30, 56], [30, 154], [30, 212], [30, 215], [30, 216], [31, 35], [31, 163], [31, 227], [32, 49], [32, 80], [32, 117], [32, 181], [33, 37], [33, 125], [34, 42], [34, 212], [35, 82], [35, 171], [37, 117], [37, 197], [38, 154], [38, 170], [38, 210], [39, 99], [39, 165], [39, 166], [40, 76], [41, 45], [41, 102], [41, 118], [41, 135], [41, 142], [41, 195], [41, 198], [42, 46], [43, 102], [43, 151], [43, 222], [43, 223], [43, 227], [44, 132], [46, 66], [46, 94], [46, 160], [46, 216], [46, 224], [48, 115], [49, 134], [49, 191], [50, 68], [50, 145], [50, 148], [50, 172], [50, 226], [51, 147], [51, 156], [51, 210], [51, 219], [51, 224], [52, 180], [52, 183], [52, 209], [53, 120], [53, 121], [53, 155], [53, 157], [53, 191], [55, 66], [55, 175], [55, 238], [56, 72], [56, 88], [57, 65], [58, 233], [59, 90], [59, 239], [60, 101], [60, 105], [61, 114], [61, 147], [61, 155], [61, 219], [62, 172], [62, 237], [63, 103], [63, 139], [64, 100], [64, 114], [64, 122], [66, 200], [67, 235], [67, 239], [68, 124], [69, 215], [70, 175], [70, 204], [71, 161], [71, 164], [71, 203], [72, 92], [73, 84], [73, 95], [73, 117], [74, 152], [75, 83], [75, 95], [75, 141], [75, 142], [76, 80], [76, 180], [76, 213], [77, 89], [77, 103], [77, 199], [78, 173], [79, 82], [79, 86], [81, 211], [81, 213], [82, 108], [82, 142], [83, 93], [83, 191], [84, 195], [84, 198], [85, 116], [86, 96], [87, 138], [87, 173], [88, 104], [89, 103], [89, 163], [89, 211], [90, 164], [90, 197], [91, 134], [91, 199], [91, 206], [92, 96], [92, 208], [93, 103], [93, 155], [93, 185], [94, 140], [95, 99], [95, 143], [95, 189], [96, 139], [96, 187], [98, 124], [98, 157], [98, 165], [99, 105], [99, 111], [100, 124], [100, 172], [103, 110], [103, 115], [103, 195], [103, 227], [103, 235], [104, 180], [105, 156], [107, 114], [107, 131], [108, 122], [108, 184], [108, 198], [108, 218], [108, 228], [110, 183], [110, 195], [112, 208], [113, 119], [115, 118], [116, 180], [117, 165], [117, 181], [117, 197], [118, 134], [118, 142], [118, 183], [118, 214], [119, 179], [119, 183], [120, 188], [122, 154], [123, 143], [127, 139], [130, 170], [132, 136], [132, 196], [132, 204], [133, 173], [134, 182], [135, 183], [137, 233], [138, 174], [138, 203], [139, 141], [141, 204], [141, 207], [143, 167], [145, 153], [145, 177], [146, 150], [146, 160], [147, 154], [147, 159], [147, 211], [149, 156], [149, 159], [149, 164], [149, 167], [149, 181], [149, 209], [152, 172], [153, 217], [156, 168], [157, 213], [157, 237], [161, 233], [164, 196], [165, 175], [169, 170], [169, 201], [171, 175], [171, 227], [174, 222], [174, 238], [177, 180], [177, 183], [178, 187], [180, 182], [180, 197], [180, 208], [181, 213], [181, 215], [182, 194], [182, 214], [183, 195], [184, 208], [189, 191], [192, 198], [195, 235], [198, 231], [200, 201], [203, 207], [208, 212], [209, 212], [210, 211], [212, 213], [215, 221], [219, 227], [226, 230], [227, 239], [228, 230], [231, 235]], "support_counts": [1, 1, 1, 1, 1, 1, 1, 1, 1, 1, 1, 1, 1, 1, 1, 1, 1, 1, 1, 1, 1, 1, 1, 1, 1, 1, 1, 1, 1, 1, 1, 1, 1, 1, 1, 1, 1, 1, 1, 1, 1, 1, 1, 1, 1, 1, 1, 1, 1, 1, 1, 1, 1, 1, 1, 1, 1, 1, 1, 1, 1, 1, 1, 1, 1, 1, 1, 1, 1, 1, 1, 1, 1, 1, 1, 1, 1, 1, 1, 1, 1, 1, 1, 1, 1, 1, 1, 1, 1, 1, 1, 1, 1, 1, 1, 1, 2, 1, 1, 1, 1, 1, 2, 1, 1, 1, 1, 1, 1, 1, 1, 1, 1, 1, 1, 1, 1, 1, 1, 1, 1, 1, 1, 1, 1, 1, 1, 1, 1, 1, 2, 1, 1, 1, 1, 1, 1, 1, 1, 1, 1, 1, 1, 1, 1, 1, 1, 1, 1, 1, 1, 2, 1, 1, 1, 1, 1, 1, 1, 1, 1, 1, 1, 1, 1, 1, 1, 1, 1, 1, 1, 1, 1, 1, 1, 1, 1, 1, 1, 1, 1, 1, 1, 1, 1, 1, 1, 1, 1, 1, 1, 1, 1, 1, 1, 1, 1, 1, 1, 1, 1, 2, 1, 1, 1, 1, 1, 1, 1, 1, 1, 1, 1, 1, 1, 1, 1, 1, 1, 1, 1, 1, 1, 1, 1, 2, 1, 1, 1, 1, 1, 1, 1, 1, 1, 1, 1, 1, 1, 1, 1, 1, 1, 1, 1, 1, 1, 1, 1, 1, 1, 1, 1, 1, 1, 1, 1, 1, 1, 1, 1, 1, 1, 1, 2, 1, 1, 1, 1, 1, 1, 1, 1, 1, 1, 1, 1, 2, 1, 1, 1, 1, 1, 1, 1, 1, 1, 1, 1, 1, 1, 1, 1, 1, 1, 1, 1, 1, 1, 1, 1, 1, 1, 1, 1, 1, 1, 2, 1, 1, 1, 1, 1, 1, 1, 1, 1, 1, 1, 1, 1, 1, 1, 1, 1, 1, 1], "support_class": ["single", "single", "single", "single", "single", "single", "single", "single", "single", "single", "single", "single", "single", "single", "single", "single", "single", "single", "single", "single", "single", "single", "single", "single", "single", "single", "single", "single", "single", "single", "single", "single", "single", "single", "single", "single", "single", "single", "single", "single", "single", "single", "single", "single", "single", "single", "single", "single", "single", "single", "single", "single", "single", "single", "single", "single", "single", "single", "single", "single", "single", "single", "single", "single", "single", "single", "single", "single", "single", "single", "single", "single", "single", "single", "single", "single", "single", "single", "single", "single", "single", "single", "single", "single", "single", "single", "single", "single", "single", "single", "single", "single", "single", "single", "single", "single", "shared", "single", "single", "single", "single", "single", "shared", "single", "single", "single", "single", "single", "single", "single", "single", "single", "single", "single", "single", "single", "single", "single", "single", "single", "single", "single", "single", "single", "single", "single", "single", "single", "single", "single", "shared", "single", "single", "single", "single", "single", "single", "single", "single", "single", "single", "single", "single", "single", "single", "single", "single", "single", "single", "single", "single", "shared", "single", "single", "single", "single", "single", "single", "single", "single", "single", "single", "single", "single", "single", "single", "single", "single", "single", "single", "single", "single", "single", "single", "single", "single", "single", "single", "single", "single", "single", "single", "single", "single", "single", "single", "single", "single", "single", "single", "single", "single", "single", "single", "single", "single", "single", "single", "single", "single", "single", "shared", "single", "single", "single", "single", "single", "single", "single", "single", "single", "single", "single", "single", "single", "single", "single", "single", "single", "single", "single", "single", "single", "single", "single", "shared", "single", "single", "single", "single", "single", "single", "single", "single", "single", "single", "single", "single", "single", "single", "single", "single", "single", "single", "single", "single", "single", "single", "single", "single", "single", "single", "single", "single", "single", "single", "single", "single", "single", "single", "single", "single", "single", "single", "shared", "single", "single", "single", "single", "single", "single", "single", "single", "single", "single", "single", "single", "shared", "single", "single", "single", "single", "single", "single", "single", "single", "single", "single", "single", "single", "single", "single", "single", "single", "single", "single", "single", "single", "single", "single", "single", "single", "single", "single", "single", "single", "single", "shared", "single", "single", "single", "single", "single", "single", "single", "single", "single", "single", "single", "single", "single", "single", "single", "single", "single", "single", "single"]}, "geometry": {"type": "MultiLineString", "coordinates": [[[-107.46004482418653, 54.14915112267731], [-174.03342576396992, 61.329439294871115]], [[-107.46004482418653, 54.14915112267731], [-129.69074415709903, 47.85473944161055]], [[38.5724446558622, 25.959617865738103], [28.292088091783675, -11.677385468638152]], [[38.5724446558622, 25.959617865738103], [88.9971128993649, 56.548685308949864]], [[38.5724446558622, 25.959617865738103], [-34.10941174235021, 39.10357554089158]], [[38.5724446558622, 25.959617865738103], [-68.42881390221638, -18.570889676614332]], [[38.5724446558622, 25.959617865738103], [90.67716254028514, 30.286706723795174]], [[38.5724446558622, 25.959617865738103], [125.64725588993335, 67.86378956926158]], [[38.5724446558622, 25.959617865738103], [-167.81360808230687, 17.862851231181914]], [[-69.36990347456107, 30.839478641455138], [-174.03342576396992, 61.329439294871115]], [[-69.36990347456107, 30.839478641455138], [-151.95784506477798, -19.042150396918796]], [[-69.36990347456107, 30.839478641455138], [-7.8043809883604975, 33.37132568529918]], [[-69.36990347456107, 30.839478641455138], [95.42615267393465, -24.760797215930186]], [[-69.36990347456107, 30.839478641455138], [13.349321140787582, 23.42368328179854]], [[-69.36990347456107, 30.839478641455138], [-62.7754600851411, -15.394136779462425]], [[-151.70791190821635, 11.677385468638152], [171.0276610214002, -42.23881138769423]], [[-151.70791190821635, 11.677385468638152], [161.97932963697372, -48.65679893860347]], [[28.292088091783675, -11.677385468638152], [-8.972338978599806, 42.23881138769423]], [[28.292088091783675, -11.677385468638152], [-161.11112027584173, -77.05492615556803]], [[28.292088091783675, -11.677385468638152], [-6.42775884342153, 50.608666268788376]], [[28.292088091783675, -11.677385468638152], [-18.020670363026287, 48.65679893860347]], [[-146.81374682635735, 28.810246062069524], [-113.56888446915391, 69.34781303252217]], [[-55.38260102772706, -10.873826643189698], [-32.51705672649833, -31.522361315919365]], [[-55.38260102772706, -10.873826643189698], [58.323125895762914, -10.641445534453094]], [[-55.38260102772706, -10.873826643189698], [-176.98660077676928, 82.14598818494383]], [[-55.38260102772706, -10.873826643189698], [127.88994782458916, 17.73355767685762]], [[124.61739897227295, 10.873826643189698], [80.02124261586415, -3.805271256249569]], [[124.61739897227295, 10.873826643189698], [-113.56888446915391, 69.34781303252217]], [[124.61739897227295, 10.873826643189698], [107.45193177703277, -11.14678470335097]], [[124.61739897227295, 10.873826643189698], [109.04637320542247, 1.3493593128518604]], [[124.61739897227295, 10.873826643189698], [-166.6506788592124, -23.42368328179854]], [[124.61739897227295, 10.873826643189698], [101.83345203338976, 62.83069530941657]], [[33.18625317364267, -28.810246062069524], [15.200098574099906, -27.460416055233637]], [[-109.99358105009915, -5.398296476839284], [-86.43775227652338, 53.6609035560857]], [[-109.99358105009915, -5.398296476839284], [-73.89033821982, 20.938640371714555]], [[-109.99358105009915, -5.398296476839284], [-30.92037409301607, 29.381371794167602]], [[-174.03342576396992, 61.329439294871115], [111.57118609778362, 18.570889676614332]], [[-174.03342576396992, 61.329439294871115], [140.01178761327, 44.519973821530236]], [[5.966574236030102, -61.329439294871115], [109.04637320542247, 1.3493593128518604]], [[70.00641894990085, 5.398296476839284], [150.80108825255795, 46.27718240984854]], [[70.00641894990085, 5.398296476839284], [149.07962590698392, -29.381371794167602]], [[70.00641894990085, 5.398296476839284], [117.22453991485892, 15.394136779462425]], [[-99.97875738413585, 3.805271256249569], [-43.35256031786837, 38.83088686617198]], [[-12.393917176670302, -42.18256320295829], [-91.00288710063512, -56.548685308949864]], [[-12.393917176670302, -42.18256320295829], [-81.97035282169912, -27.423446230461142]], [[-12.393917176670302, -42.18256320295829], [125.64725588993335, 67.86378956926158]], [[-170.40934427872517, 26.22394694216933], [104.38369604109431, 23.17625808193829]], [[-170.40934427872517, 26.22394694216933], [12.186391917693152, -17.862851231181914]], [[-97.85199515182086, 15.606481945927277], [-151.95784506477798, -19.042150396918796]], [[-97.85199515182086, 15.606481945927277], [-18.473771645076965, -23.084014821498965]], [[-97.85199515182086, 15.606481945927277], [71.13099983306184, 39.37636062615173]], [[82.14800484817914, -15.606481945927277], [149.07962590698392, -29.381371794167602]], [[9.59065572127483, -26.22394694216933], [-139.2194748069429, 30.006650460053446]], [[-86.43775227652338, 53.6609035560857], [-4.083434510742767, -7.798418140399808]], [[-86.43775227652338, 53.6609035560857], [-39.93981439403745, 34.240321982904725]], [[-86.43775227652338, 53.6609035560857], [-97.33639276289522, -34.64375656598646]], [[-86.43775227652338, 53.6609035560857], [-33.459706977408835, 31.590795800144413]], [[-151.95784506477798, -19.042150396918796], [-179.0159099992567, -11.382266352160899]], [[-151.95784506477798, -19.042150396918796], [-106.94077600909604, -27.290890077036718]], [[-151.95784506477798, -19.042150396918796], [-118.60587965329144, 6.663172925111819]], [[-151.95784506477798, -19.042150396918796], [-123.12277356357971, 0.45662905407790794]], [[28.042154935222012, 19.042150396918796], [-20.06513486849623, 62.99054057596623]], [[28.042154935222012, 19.042150396918796], [61.15502569666774, 59.59937295365859]], [[28.042154935222012, 19.042150396918796], [117.22453991485892, 15.394136779462425]], [[28.042154935222012, 19.042150396918796], [125.64725588993335, 67.86378956926158]], [[28.042154935222012, 19.042150396918796], [101.83345203338976, 62.83069530941657]], [[93.56224772347662, -53.6609035560857], [-137.54431725320725, -60.35849897505564]], [[93.56224772347662, -53.6609035560857], [50.309255842900974, -47.85473944161055]], [[171.0276610214002, -42.23881138769423], [106.10966178018, -20.938640371714555]], [[-8.972338978599806, 42.23881138769423], [-41.688302200288476, -22.881247715601802]], [[-8.972338978599806, 42.23881138769423], [40.780525193057116, -30.006650460053446]], [[-8.972338978599806, 42.23881138769423], [90.67716254028514, 30.286706723795174]], [[-8.972338978599806, 42.23881138769423], [82.6636072371048, 34.64375656598646]], [[-8.972338978599806, 42.23881138769423], [-2.3246779950751355, -41.97884104619943]], [[-169.17909694867413, 53.63860080262644], [2.4602294708947823, 16.68190389390858]], [[-169.17909694867413, 53.63860080262644], [-129.69074415709903, 47.85473944161055]], [[-169.17909694867413, 53.63860080262644], [170.90544018164513, -7.648203176239598]], [[-177.53977052910523, -16.68190389390858], [159.93486513150378, -62.99054057596623]], [[-177.53977052910523, -16.68190389390858], [161.52622835492303, 23.084014821498965]], [[-177.53977052910523, -16.68190389390858], [-80.99687644152587, 33.609064221415075]], [[-177.53977052910523, -16.68190389390858], [3.0133992232307163, -82.14598818494383]], [[26.06718996782294, -62.38323414947649], [106.10966178018, -20.938640371714555]], [[26.06718996782294, -62.38323414947649], [-49.564611490471925, -46.17682322806291]], [[-153.93281003217706, 62.38323414947649], [-65.7928794060004, 27.048698894706476]], [[-153.93281003217706, 62.38323414947649], [90.67716254028514, 30.286706723795174]], [[2.4602294708947823, 16.68190389390858], [54.059528456601, -27.65731943745975]], [[2.4602294708947823, 16.68190389390858], [-126.49687727426601, -22.377760297040364]], [[106.10966178018, -20.938640371714555], [-80.99687644152587, 33.609064221415075]], [[106.10966178018, -20.938640371714555], [-139.2194748069429, 30.006650460053446]], [[-73.89033821982, 20.938640371714555], [40.780525193057116, -30.006650460053446]], [[-73.89033821982, 20.938640371714555], [-176.98660077676928, 82.14598818494383]], [[-73.89033821982, 20.938640371714555], [109.04637320542247, 1.3493593128518604]], [[66.13215659650953, 66.98356734059305], [123.92494643222975, -15.460693367530634]], [[66.13215659650953, 66.98356734059305], [-112.85833446969092, 51.79848434476675]], [[66.13215659650953, 66.98356734059305], [153.18885568222498, 57.03869838377388]], [[-91.00288710063512, -56.548685308949864], [-121.6768741042371, 10.641445534453094]], [[114.20712059399959, -27.048698894706476], [-78.76883292137218, -62.33360308114827]], [[114.20712059399959, -27.048698894706476], [110.43410106545633, 11.051591094342868]], [[114.20712059399959, -27.048698894706476], [124.60501471992238, 51.26958830368553]], [[114.20712059399959, -27.048698894706476], [177.67532200492485, 41.97884104619943]], [[114.20712059399959, -27.048698894706476], [111.57118609778362, 18.570889676614332]], [[114.20712059399959, -27.048698894706476], [166.60907029920958, -20.10756044883211]], [[114.20712059399959, -27.048698894706476], [117.22453991485892, 15.394136779462425]], [[-65.7928794060004, 27.048698894706476], [101.23116707862782, 62.33360308114827]], [[88.9971128993649, 56.548685308949864], [110.43410106545633, 11.051591094342868]], [[88.9971128993649, 56.548685308949864], [-39.70558792045011, 83.46816034015468]], [[88.9971128993649, 56.548685308949864], [66.78265913263003, 1.0503815965671532]], [[88.9971128993649, 56.548685308949864], [26.89433962417725, 25.330873787465148]], [[88.9971128993649, 56.548685308949864], [170.90544018164513, -7.648203176239598]], [[127.97031686243537, -42.35700271519852], [-164.79990142590012, 27.460416055233637]], [[101.23116707862782, 62.33360308114827], [151.1993235672973, -2.9413326362272847]], [[101.23116707862782, 62.33360308114827], [104.38369604109431, 23.17625808193829]], [[101.23116707862782, 62.33360308114827], [-124.72377844891501, 32.99754059022732]], [[101.23116707862782, 62.33360308114827], [-2.3246779950751355, -41.97884104619943]], [[101.23116707862782, 62.33360308114827], [-166.6506788592124, -23.42368328179854]], [[-4.083434510742767, -7.798418140399808], [-97.37960684506565, 26.97433773530949]], [[159.93486513150378, -62.99054057596623], [156.15794509706583, -0.01569557955694384]], [[159.93486513150378, -62.99054057596623], [55.27622155108498, -32.99754059022732]], [[-20.06513486849623, 62.99054057596623], [-7.8043809883604975, 33.37132568529918]], [[-20.06513486849623, 62.99054057596623], [-77.54520552857598, 27.864195807853715]], [[-20.06513486849623, 62.99054057596623], [-83.38041721287175, 73.67853479191012]], [[-20.06513486849623, 62.99054057596623], [-56.9800957218416, 73.25158123342065]], [[-20.06513486849623, 62.99054057596623], [130.43538850952808, 46.17682322806291]], [[175.91656548925724, 7.798418140399808], [-122.64512587226895, 26.853735004310035]], [[175.91656548925724, 7.798418140399808], [-13.390929700790437, 20.10756044883211]], [[175.91656548925724, 7.798418140399808], [109.04637320542247, 1.3493593128518604]], [[175.91656548925724, 7.798418140399808], [15.200098574099906, -27.460416055233637]], [[175.91656548925724, 7.798418140399808], [-166.6506788592124, -23.42368328179854]], [[-113.56888446915391, 69.34781303252217], [53.503122725734, 22.377760297040364]], [[-113.56888446915391, 69.34781303252217], [60.03229312502548, 29.67789233621906]], [[-113.56888446915391, 69.34781303252217], [-68.42881390221638, -18.570889676614332]], [[5.261405801407641, -14.405311416730777], [-78.16654796661025, -62.83069530941657]], [[5.261405801407641, -14.405311416730777], [-53.376561566794955, -15.134655480214246]], [[5.261405801407641, -14.405311416730777], [-30.92037409301607, 29.381371794167602]], [[5.261405801407641, -14.405311416730777], [-33.459706977408835, 31.590795800144413]], [[5.261405801407641, -14.405311416730777], [55.27622155108498, -32.99754059022732]], [[66.4311155308461, -69.34781303252217], [151.1993235672973, -2.9413326362272847]], [[66.4311155308461, -69.34781303252217], [18.888879724158272, 77.05492615556803]], [[66.4311155308461, -69.34781303252217], [73.05922399090397, 27.290890077036718]], [[-41.688302200288476, -22.881247715601802], [-135.9638903832474, -0.6398150220982387]], [[-41.688302200288476, -22.881247715601802], [-81.97035282169912, -27.423446230461142]], [[39.13718946308076, 31.305125756095272], [-28.80067643270267, 2.9413326362272847]], [[-140.86281053691923, -31.305125756095272], [-55.39498528007762, -51.26958830368553]], [[138.31169779971154, 22.881247715601802], [-43.35256031786837, 38.83088686617198]], [[138.31169779971154, 22.881247715601802], [78.93477408125095, -4.692513721350384]], [[-42.06644316410673, -8.152073953517851], [-69.56589893454368, -11.051591094342868]], [[-42.06644316410673, -8.152073953517851], [-114.91651149403044, -53.69565823866018]], [[56.522896627919934, 19.885837069998527], [175.49171155469983, -24.534664204818863]], [[56.522896627919934, 19.885837069998527], [-122.64512587226895, 26.853735004310035]], [[56.522896627919934, 19.885837069998527], [-30.92037409301607, 29.381371794167602]], [[56.522896627919934, 19.885837069998527], [15.200098574099906, -27.460416055233637]], [[-123.47710337208007, -19.885837069998527], [-56.9800957218416, 73.25158123342065]], [[-123.47710337208007, -19.885837069998527], [-4.508288445300191, 24.534664204818863]], [[137.93355683589326, 8.152073953517851], [71.13099983306184, 39.37636062615173]], [[137.93355683589326, 8.152073953517851], [-89.32283745971488, -30.286706723795174]], [[50.180037098184734, 8.716422349475891], [-108.86900016693818, -39.37636062615173]], [[50.180037098184734, 8.716422349475891], [175.49171155469983, -24.534664204818863]], [[50.180037098184734, 8.716422349475891], [12.186391917693152, -17.862851231181914]], [[151.1993235672973, -2.9413326362272847], [140.29441207954991, -83.46816034015468]], [[-129.81996290181527, -8.716422349475891], [10.31922256348154, 14.461290802797814]], [[-129.81996290181527, -8.716422349475891], [78.93477408125095, -4.692513721350384]], [[-7.8043809883604975, 33.37132568529918], [-9.094559818354872, 7.648203176239598]], [[29.442606995471913, -69.99481360164177], [82.6636072371048, 34.64375656598646]], [[-150.55739300452808, 69.99481360164177], [18.888879724158272, 77.05492615556803]], [[-150.55739300452808, 69.99481360164177], [57.35487412773106, -26.853735004310035]], [[172.1956190116395, -33.37132568529918], [-123.12277356357971, 0.45662905407790794]], [[172.1956190116395, -33.37132568529918], [-169.46698364584054, 23.308842812390125]], [[172.1956190116395, -33.37132568529918], [96.61958278712827, -73.67853479191012]], [[-135.9638903832474, -0.6398150220982387], [-165.0048641523139, -56.34631156727348]], [[150.80108825255795, 46.27718240984854], [-133.37417653416503, 70.66248456699917]], [[150.80108825255795, 46.27718240984854], [14.995135847686104, 56.34631156727348]], [[150.80108825255795, 46.27718240984854], [-80.99687644152587, 33.609064221415075]], [[-29.19891174744204, -46.27718240984854], [-44.6875004940263, 17.669167164752693]], [[44.03610961675261, 0.6398150220982387], [-18.473771645076965, -23.084014821498965]], [[44.03610961675261, 0.6398150220982387], [14.995135847686104, 56.34631156727348]], [[44.03610961675261, 0.6398150220982387], [-70.95362679457754, -1.3493593128518604]], [[44.03610961675261, 0.6398150220982387], [111.57118609778362, 18.570889676614332]], [[-121.6768741042371, 10.641445534453094], [161.52622835492303, 23.084014821498965]], [[-121.6768741042371, 10.641445534453094], [53.503122725734, 22.377760297040364]], [[-121.6768741042371, 10.641445534453094], [-18.020670363026287, 48.65679893860347]], [[147.48294327350166, 31.522361315919365], [136.64743968213165, -38.83088686617198]], [[147.48294327350166, 31.522361315919365], [71.13099983306184, 39.37636062615173]], [[147.48294327350166, 31.522361315919365], [135.3124995059737, -17.669167164752693]], [[-32.51705672649833, -31.522361315919365], [-98.33819967296832, 2.4597204772284]], [[58.323125895762914, -10.641445534453094], [54.059528456601, -27.65731943745975]], [[58.323125895762914, -10.641445534453094], [0.9840900007433038, 11.382266352160899]], [[-125.940471543399, 27.65731943745975], [-6.42775884342153, 50.608666268788376]], [[-125.940471543399, 27.65731943745975], [-18.020670363026287, 48.65679893860347]], [[54.059528456601, -27.65731943745975], [61.15502569666774, 59.59937295365859]], [[54.059528456601, -27.65731943745975], [111.57118609778362, 18.570889676614332]], [[-18.473771645076965, -23.084014821498965], [-75.6163039589057, -23.17625808193829]], [[-18.473771645076965, -23.084014821498965], [55.27622155108498, -32.99754059022732]], [[-133.37417653416503, 70.66248456699917], [166.60907029920958, -20.10756044883211]], [[-133.37417653416503, 70.66248456699917], [117.22453991485892, 15.394136779462425]], [[-179.0159099992567, -11.382266352160899], [-169.68077743651847, -14.461290802797814]], [[0.9840900007433038, 11.382266352160899], [-56.075053567770276, 15.460693367530634]], [[46.625823465834976, -70.66248456699917], [161.97932963697372, -48.65679893860347]], [[46.625823465834976, -70.66248456699917], [-98.33819967296832, 2.4597204772284]], [[-81.97035282169912, -27.423446230461142], [-53.07593056172691, 21.965992667131438]], [[136.64743968213165, -38.83088686617198], [71.13099983306184, 39.37636062615173]], [[136.64743968213165, -38.83088686617198], [-129.69074415709903, 47.85473944161055]], [[136.64743968213165, -38.83088686617198], [-6.42775884342153, 50.608666268788376]], [[-43.35256031786837, 38.83088686617198], [-169.46698364584054, 23.308842812390125]], [[-43.35256031786837, 38.83088686617198], [-139.2194748069429, 30.006650460053446]], [[98.02964717830089, 27.423446230461142], [156.15794509706583, -0.01569557955694384]], [[98.02964717830089, 27.423446230461142], [135.3124995059737, -17.669167164752693]], [[98.02964717830089, 27.423446230461142], [102.45479447142402, -27.864195807853715]], [[-165.0048641523139, -56.34631156727348], [-56.075053567770276, 15.460693367530634]], [[-165.0048641523139, -56.34631156727348], [-34.10941174235021, 39.10357554089158]], [[-75.6163039589057, -23.17625808193829], [71.13099983306184, 39.37636062615173]], [[-75.6163039589057, -23.17625808193829], [-30.92037409301607, 29.381371794167602]], [[-75.6163039589057, -23.17625808193829], [-26.81114431777504, -57.03869838377388]], [[104.38369604109431, 23.17625808193829], [173.57224115657849, -50.608666268788376]], [[14.995135847686104, 56.34631156727348], [123.92494643222975, -15.460693367530634]], [[14.995135847686104, 56.34631156727348], [145.89058825764977, -39.10357554089158]], [[14.995135847686104, 56.34631156727348], [1.096127258560988, -11.86600781461809]], [[-56.075053567770276, 15.460693367530634], [-89.32283745971488, -30.286706723795174]], [[-56.075053567770276, 15.460693367530634], [10.533016354159459, -23.308842812390125]], [[42.455682746792746, 60.35849897505564], [-9.094559818354872, 7.648203176239598]], [[42.455682746792746, 60.35849897505564], [-33.459706977408835, 31.590795800144413]], [[42.455682746792746, 60.35849897505564], [-112.85833446969092, 51.79848434476675]], [[123.92494643222975, -15.460693367530634], [-114.91651149403044, -53.69565823866018]], [[123.92494643222975, -15.460693367530634], [-118.84497430333226, -59.59937295365859]], [[-108.86900016693818, -39.37636062615173], [-9.094559818354872, 7.648203176239598]], [[-108.86900016693818, -39.37636062615173], [-56.9800957218416, 73.25158123342065]], [[71.13099983306184, 39.37636062615173], [-39.93981439403745, 34.240321982904725]], [[71.13099983306184, 39.37636062615173], [-97.37960684506565, 26.97433773530949]], [[71.13099983306184, 39.37636062615173], [166.60907029920958, -20.10756044883211]], [[71.13099983306184, 39.37636062615173], [170.90544018164513, -7.648203176239598]], [[71.13099983306184, 39.37636062615173], [10.31922256348154, 14.461290802797814]], [[-53.07593056172691, 21.965992667131438], [53.503122725734, 22.377760297040364]], [[-114.91651149403044, -53.69565823866018], [-13.390929700790437, 20.10756044883211]], [[126.92406943827308, -21.965992667131438], [175.49171155469983, -24.534664204818863]], [[126.92406943827308, -21.965992667131438], [-161.51672100444316, -20.167870996099957]], [[61.15502569666774, 59.59937295365859], [12.186391917693152, -17.862851231181914]], [[61.15502569666774, 59.59937295365859], [-2.8025724741292404, -34.70354223106205]], [[61.15502569666774, 59.59937295365859], [117.22453991485892, 15.394136779462425]], [[61.15502569666774, 59.59937295365859], [29.770093031865155, 12.40637476550807]], [[61.15502569666774, 59.59937295365859], [125.64725588993335, 67.86378956926158]], [[-39.93981439403745, 34.240321982904725], [60.03229312502548, 29.67789233621906]], [[-39.93981439403745, 34.240321982904725], [166.60907029920958, -20.10756044883211]], [[-101.06522591874905, 4.692513721350384], [-34.10941174235021, 39.10357554089158]], [[-106.94077600909604, -27.290890077036718], [165.6761764419215, 5.569019746637281]], [[-97.37960684506565, 26.97433773530949], [124.60501471992238, 51.26958830368553]], [[-169.68077743651847, -14.461290802797814], [53.503122725734, 22.377760297040364]], [[-80.99687644152587, 33.609064221415075], [-112.85833446969092, 51.79848434476675]], [[-80.99687644152587, 33.609064221415075], [3.0133992232307163, -82.14598818494383]], [[-80.99687644152587, 33.609064221415075], [-139.2194748069429, 30.006650460053446]], [[124.60501471992238, 51.26958830368553], [156.15794509706583, -0.01569557955694384]], [[124.60501471992238, 51.26958830368553], [111.57118609778362, 18.570889676614332]], [[124.60501471992238, 51.26958830368553], [60.03229312502548, 29.67789233621906]], [[124.60501471992238, 51.26958830368553], [74.29066238411359, 47.86142980684861]], [[165.6761764419215, 5.569019746637281], [123.01990427815842, -73.25158123342065]], [[165.6761764419215, 5.569019746637281], [60.03229312502548, 29.67789233621906]], [[-78.16654796661025, -62.83069530941657], [50.309255842900974, -47.85473944161055]], [[12.186391917693152, -17.862851231181914], [40.780525193057116, -30.006650460053446]], [[-54.352744110066645, -67.86378956926158], [145.89058825764977, -39.10357554089158]], [[13.349321140787582, 23.42368328179854], [-89.32283745971488, -30.286706723795174]], [[-177.50098345532422, 12.934151558402878], [-176.98660077676928, 82.14598818494383]], [[-164.79990142590012, 27.460416055233637], [-97.33639276289522, -34.64375656598646]], [[-164.79990142590012, 27.460416055233637], [149.07962590698392, -29.381371794167602]], [[-164.79990142590012, 27.460416055233637], [57.35487412773106, -26.853735004310035]], [[-150.22990696813486, -12.40637476550807], [-98.33819967296832, 2.4597204772284]], [[156.15794509706583, -0.01569557955694384], [107.45193177703277, -11.14678470335097]], [[177.67532200492485, 41.97884104619943], [60.03229312502548, 29.67789233621906]], [[-105.70933761588643, -47.86142980684861], [-55.39498528007762, -51.26958830368553]], [[161.97932963697372, -48.65679893860347], [127.88994782458916, 17.73355767685762]], [[161.97932963697372, -48.65679893860347], [96.61958278712827, -73.67853479191012]], [[-89.32283745971488, -30.286706723795174], [-70.95362679457754, -1.3493593128518604]], [[-70.95362679457754, -1.3493593128518604], [57.35487412773106, -26.853735004310035]], [[-70.95362679457754, -1.3493593128518604], [61.39412034670857, -6.663172925111819]], [[145.89058825764977, -39.10357554089158], [177.19742752587078, 34.70354223106205]], [[-77.54520552857598, 27.864195807853715], [-62.7754600851411, -15.394136779462425]], [[-77.54520552857598, 27.864195807853715], [-52.11005217541084, -17.73355767685762]], [[-129.35267194249664, 77.18710579646138], [140.01178761327, 44.519973821530236]], [[-129.35267194249664, 77.18710579646138], [-124.72377844891501, 32.99754059022732]], [[-122.64512587226895, 26.853735004310035], [40.780525193057116, -30.006650460053446]], [[-122.64512587226895, 26.853735004310035], [24.215601589340697, 37.65859509314772]], [[-122.64512587226895, 26.853735004310035], [-6.42775884342153, 50.608666268788376]], [[-102.28089944866667, 35.99520753512429], [-13.390929700790437, 20.10756044883211]], [[-102.28089944866667, 35.99520753512429], [24.215601589340697, 37.65859509314772]], [[-102.28089944866667, 35.99520753512429], [-169.46698364584054, 23.308842812390125]], [[-102.28089944866667, 35.99520753512429], [177.19742752587078, 34.70354223106205]], [[-102.28089944866667, 35.99520753512429], [3.0133992232307163, -82.14598818494383]], [[-102.28089944866667, 35.99520753512429], [-68.42881390221638, -18.570889676614332]], [[-44.6875004940263, 17.669167164752693], [-56.9800957218416, 73.25158123342065]], [[-62.7754600851411, -15.394136779462425], [-23.84205490293416, 0.01569557955694384]], [[-13.390929700790437, 20.10756044883211], [-119.96770687497451, -29.67789233621906]], [[-33.459706977408835, 31.590795800144413], [-18.020670363026287, 48.65679893860347]], [[-33.459706977408835, 31.590795800144413], [-4.508288445300191, 24.534664204818863]], [[-123.12277356357971, 0.45662905407790794], [-55.39498528007762, -51.26958830368553]], [[-169.46698364584054, 23.308842812390125], [149.07962590698392, -29.381371794167602]], [[-112.85833446969092, 51.79848434476675], [18.888879724158272, 77.05492615556803]], [[-72.54806822296725, 11.14678470335097], [-176.98660077676928, 82.14598818494383]], [[-72.54806822296725, 11.14678470335097], [-39.988212386729984, -44.519973821530236]], [[-126.49687727426601, -22.377760297040364], [18.888879724158272, 77.05492615556803]], [[-126.49687727426601, -22.377760297040364], [170.90544018164513, -7.648203176239598]], [[127.88994782458916, 17.73355767685762], [66.78265913263003, 1.0503815965671532]], [[127.88994782458916, 17.73355767685762], [73.05922399090397, 27.290890077036718]], [[-52.11005217541084, -17.73355767685762], [53.503122725734, 22.377760297040364]], [[-52.11005217541084, -17.73355767685762], [60.03229312502548, 29.67789233621906]], [[81.6618003270317, -2.4597204772284], [10.533016354159459, -23.308842812390125]], [[53.503122725734, 22.377760297040364], [107.45193177703277, -11.14678470335097]], [[53.503122725734, 22.377760297040364], [-139.2194748069429, 30.006650460053446]], [[53.503122725734, 22.377760297040364], [-34.10941174235021, 39.10357554089158]], [[3.0133992232307163, -82.14598818494383], [-18.020670363026287, 48.65679893860347]], [[3.0133992232307163, -82.14598818494383], [82.6636072371048, 34.64375656598646]], [[107.45193177703277, -11.14678470335097], [146.5402930225912, -31.590795800144413]], [[107.45193177703277, -11.14678470335097], [74.29066238411359, 47.86142980684861]], [[60.03229312502548, 29.67789233621906], [166.60907029920958, -20.10756044883211]], [[-2.8025724741292404, -34.70354223106205], [-34.10941174235021, 39.10357554089158]], [[1.096127258560988, -11.86600781461809], [55.27622155108498, -32.99754059022732]], [[-155.78439841065932, -37.65859509314772], [117.22453991485892, 15.394136779462425]], [[166.60907029920958, -20.10756044883211], [10.31922256348154, 14.461290802797814]], [[117.22453991485892, 15.394136779462425], [101.83345203338976, 62.83069530941657]], [[140.29441207954991, -83.46816034015468], [-39.988212386729984, -44.519973821530236]], [[96.61958278712827, -73.67853479191012], [61.39412034670857, -6.663172925111819]], [[-34.10941174235021, 39.10357554089158], [90.67716254028514, 30.286706723795174]], [[-68.42881390221638, -18.570889676614332], [90.67716254028514, 30.286706723795174]], [[109.04637320542247, 1.3493593128518604], [-6.42775884342153, 50.608666268788376]], [[90.67716254028514, 30.286706723795174], [-18.020670363026287, 48.65679893860347]], [[82.6636072371048, 34.64375656598646], [2.4990165446757864, -12.934151558402878]], [[15.200098574099906, -27.460416055233637], [170.90544018164513, -7.648203176239598]], [[130.43538850952808, 46.17682322806291], [126.62343843320505, 15.134655480214246]], [[170.90544018164513, -7.648203176239598], [78.93477408125095, -4.692513721350384]], [[125.64725588993335, 67.86378956926158], [126.62343843320505, 15.134655480214246]], [[101.83345203338976, 62.83069530941657], [10.31922256348154, 14.461290802797814]]]}}]}