{"type": "FeatureCollection", "name": "E8_proj_seed1472 grid", "properties": {"shape": "E8_proj_seed1472", "lock_lat": 5.0, "lock_lon": -5.0, "bearing": 200.0}, "features": [{"type": "Feature", "properties": {"kind": "grid_vertices", "shape": "E8_proj_seed1472", "count": 240, "ids": ["V1", "V2", "V3", "V4", "V5", "V6", "V7", "V8", "V9", "V10", "V11", "V12", "V13", "V14", "V15", "V16", "V17", "V18", "V19", "V20", "V21", "V22", "V23", "V24", "V25", "V26", "V27", "V28", "V29", "V30", "V31", "V32", "V33", "V34", "V35", "V36", "V37", "V38", "V39", "V40", "V41", "V42", "V43", "V44", "V45", "V46", "V47", "V48", "V49", "V50", "V51", "V52", "V53", "V54", "V55", "V56", "V57", "V58", "V59", "V60", "V61", "V62", "V63", "V64", "V65", "V66", "V67", "V68", "V69", "V70", "V71", "V72", "V73", "V74", "V75", "V76", "V77", "V78", "V79", "V80", "V81", "V82", "V83", "V84", "V85", "V86", "V87", "V88", "V89", "V90", "V91", "V92", "V93", "V94", "V95", "V96", "V97", "V98", "V99", "V100", "V101", "V102", "V103", "V104", "V105", "V106", "V107", "V108", "V109", "V110", "V111", "V112", "V113", "V114", "V115", "V116", "V117", "V118", "V119", "V120", "V121", "V122", "V123", "V124", "V125", "V126", "V127", "V128", "V129", "V130", "V131", "V132", "V133", "V134", "V135", "V136", "V137", "V138", "V139", "V140", "V141", "V142", "V143", "V144", "V145", "V146", "V147", "V148", "V149", "V150", "V151", "V152", "V153", "V154", "V155", "V156", "V157", "V158", "V159", "V160", "V161", "V162", "V163", "V164", "V165", "V166", "V167", "V168", "V169", "V170", "V171", "V172", "V173", "V174", "V175", "V176", "V177", "V178", "V179", "V180", "V181", "V182", "V183", "V184", "V185", "V186", "V187", "V188", "V189", "V190", "V191", "V192", "V193", "V194", "V195", "V196", "V197", "V198", "V199", "V200", "V201", "V202", "V203", "V204", "V205", "V206", "V207", "V208", "V209", "V210", "V211", "V212", "V213", "V214", "V215", "V216", "V217", "V218", "V219", "V220", "V221", "V222", "V223", "V224", "V225", "V226", "V227", "V228", "V229", "V230", "V231", "V232", "V233", "V234", "V235", "V236", "V237", "V238", "V239", "V240"]}, "geometry": {"type": "MultiPoint", "coordinates": [[-126.7981551002157, 52.775350159971566], [-144.6487785471144, -15.795011863133901], [35.35122145288562, 15.795011863133901], [53.2018448997843, -52.775350159971566], [150.4647641497279, 57.2582930069981], [-113.89387857316075, -4.311864387599793], [66.10612142683925, 4.311864387599793], [-29.535235850272105, -57.2582930069981], [-111.2366456119923, 52.31243742198227], [-155.7481893284687, -11.123015550067908], [24.25181067153131, 11.123015550067908], [68.76335438800771, -52.31243742198227], [-82.54168898972583, 36.95324265095262], [-178.98684893628592, -0.4280279746841125], [1.0131510637140748, 0.4280279746841125], [97.45831101027419, -36.95324265095262], [-157.06658708464568, 20.617068200069053], [-60.843014835935485, 21.85908301369542], [119.15698516406452, -21.85908301369542], [22.933412915354328, -20.617068200069053], [-125.3103969450906, 19.45433381034514], [178.90217066737546, 43.275403773783026], [-1.0978293326245578, -43.275403773783026], [54.6896030549094, -19.45433381034514], [-165.4083303870791, 49.65279727024401], [-109.0976339717325, -11.929925212305088], [70.90236602826751, 11.929925212305088], [14.59166961292091, -49.65279727024401], [79.22819340927941, 56.06593570752664], [-87.25745344288316, 7.057413036728174], [92.74254655711684, -7.057413036728174], [-100.7718065907206, -56.06593570752664], [-32.64345839372704, 69.55877690153126], [156.71726155232562, 11.96522154912111], [-23.282738447674383, -11.96522154912111], [147.35654160627297, -69.55877690153126], [-37.18078869783102, 46.113587343825266], [143.93647964216365, 16.16085063345231], [-36.063520357836374, -16.16085063345231], [142.81921130216898, -46.113587343825266], [-170.2709791651319, 46.588413261511064], [-2.011281669040692, 26.028414680357912], [177.98871833095933, -26.028414680357912], [9.729020834868104, -46.588413261511064], [-100.89560439096063, 47.48523127964792], [56.75093241503794, 44.46129262498081], [-123.24906758496206, -44.46129262498081], [79.10439560903937, -47.48523127964792], [123.14186674529105, 76.2133077238275], [-49.52346408718075, 3.296292777194235], [130.47653591281926, -3.296292777194235], [-56.85813325470896, -76.2133077238275], [63.41846569929676, 55.604943750269705], [103.32567866223785, -3.849030264058775], [-76.67432133776217, 3.849030264058775], [-116.58153430070324, -55.604943750269705], [22.56999449602063, 48.63879288050452], [115.63168999260144, 3.9647336477357293], [-64.36831000739856, -3.9647336477357293], [-157.43000550397937, -48.63879288050452], [135.0646676091213, 31.603072971543547], [44.79057162061121, 15.287156229332332], [-135.20942837938878, -15.287156229332332], [-44.9353323908787, -31.603072971543547], [120.29621348769739, 60.86502662058533], [79.1717587707396, 17.301639992238922], [-100.8282412292604, -17.301639992238922], [-59.70378651230263, -60.86502662058533], [100.11045032794122, 43.13980436398911], [58.54811791705747, -7.937174080753142], [-121.45188208294255, 7.937174080753142], [-79.88954967205878, -43.13980436398911], [-34.78057896232846, 39.55070260169703], [139.09172453869027, 17.52277597160077], [-40.90827546130974, -17.52277597160077], [145.21942103767154, -39.55070260169703], [-159.13909436770817, 51.917942807712876], [-5.866140200282671, 19.983194368952255], [174.13385979971736, -19.983194368952255], [20.860905632291853, -51.917942807712876], [-84.33424172722432, 42.46984950639639], [37.76076003937433, 38.72353662148303], [-142.23923996062567, -38.72353662148303], [95.66575827277569, -42.46984950639639], [80.44941214485671, 81.75205287933183], [-42.28420860828744, -1.0304295688218976], [137.71579139171257, 1.0304295688218976], [-99.55058785514329, -81.75205287933183], [-103.58408507506782, 44.75025798721923], [-17.145516319477093, 8.398539980031648], [162.85448368052292, -8.398539980031648], [76.4159149249322, -44.75025798721923], [-65.66463264627014, 22.322655012942434], [1.8098797801044577, 20.088225746404376], [-178.19012021989553, -20.088225746404376], [114.33536735372986, -22.322655012942434], [-23.303487293852488, 64.3686523431913], [-41.69608961991873, -8.265286907279748], [138.30391038008128, 8.265286907279748], [156.6965127061475, -64.3686523431913], [-150.39104224456088, 11.474093163962701], [141.04967965713328, 6.92436988269274], [-38.95032034286671, -6.92436988269274], [29.608957755439146, -11.474093163962701], [165.47370047476193, 34.1326521406759], [-146.87112490905272, -31.460109782505832], [33.1288750909473, 31.460109782505832], [-14.526299525238091, -34.1326521406759], [-155.07398537383713, 52.11656822318475], [-87.24260416112018, -30.548401547423474], [92.75739583887982, 30.548401547423474], [24.92601462616288, -52.11656822318475], [-134.9600060912166, 72.71455495701811], [-56.144566540801826, 79.81248952872649], [-42.11931365613262, 43.26113946843335], [18.409027089077124, 63.479144942740255], [-167.4819900691985, 39.28132731580198], [140.6641496140213, 47.38278008887965], [139.65510732781016, 74.52986612726528], [60.18675848276813, 42.152499922018926], [-126.48510973992315, 37.14576620925234], [142.20693500447223, 61.51093325958092], [-41.61958210373583, 75.43074373132615], [5.126476575286778, 21.811632090107558], [166.98883325880743, 26.51572168469156], [148.91432625128326, 1.3890616252129295], [173.51534339158803, -15.341808665893074], [108.43878722716333, 25.03870041281944], [-96.05885254650737, 20.492834686486784], [-107.44437193184595, 58.03085617950093], [-70.17874940617311, 39.13912940406819], [-46.50921226902083, 14.384906304440104], [-148.64078604050658, 30.193378903601815], [-144.43905713459603, 6.7235838086449915], [-91.50949979407655, -0.19605279525990912], [-128.73294132764642, 78.15490100703958], [-124.13286556454156, 25.131760862629054], [-105.87309409433878, -5.289942465716245], [-73.65309483812331, -7.2762554938707575], [-52.024619041507776, 31.48490521554331], [-143.46473722493243, -16.146770150405292], [178.52351233085122, 5.1366843705771075], [-140.2736015525179, 0.7669300424175656], [-110.82957891421809, -67.68815441598947], [-108.38265506189994, 35.28464221875064], [133.83038351394262, 69.92885470675155], [-33.12729282230272, 63.337403086338064], [-1.6311438835508447, 14.464198651572046], [168.79045551558337, 28.717012551516433], [146.94190211590254, -1.340506995766482], [-142.56687277652466, -53.19808934647887], [97.67554858402463, 25.811756803469493], [-170.29837299105463, 32.094735868002374], [161.78708903376824, -33.35985520516777], [-50.05206196065253, -28.322852886114976], [57.22521997957148, 22.49622766363985], [177.00396630692478, -23.819017674008474], [142.5991951579872, -0.22516641384922337], [144.24290613476808, -7.796521437302414], [101.96844610719239, -48.858591115766636], [-114.56450162873773, 23.82922522957257], [-92.63095844895007, -7.762887468681601], [-67.57995290628978, -8.244179316157341], [-44.34545086970387, 21.743854318737743], [-135.68797154913528, -18.92246365818884], [-177.0199096812709, 3.590590166383467], [-124.13540528982664, -2.939628464488348], [-74.0490560790505, -63.61971403350408], [-112.75723419034439, -24.243855214857852], [-144.90268799704438, -8.771992998153042], [-87.63218551812744, -12.777994400000491], [-53.70408586537394, -45.499848212615106], [-163.6541778193818, -15.895411463809491], [-167.8961383342939, -46.69116995957107], [-119.22236913590234, -55.62189508240308], [160.51216984613023, -55.52030367346725], [-19.487830153869762, 55.52030367346725], [60.77763086409765, 55.62189508240308], [12.103861665706082, 46.69116995957107], [16.345822180618207, 15.895411463809491], [126.29591413462607, 45.499848212615106], [92.36781448187256, 12.777994400000491], [35.097312002955626, 8.771992998153042], [67.24276580965562, 24.243855214857852], [105.9509439209495, 63.61971403350408], [55.864594710173364, 2.939628464488348], [2.9800903187291117, -3.590590166383467], [44.312028450864716, 18.92246365818884], [135.65454913029615, -21.743854318737743], [112.42004709371024, 8.244179316157341], [87.36904155104992, 7.762887468681601], [65.43549837126228, -23.82922522957257], [-78.03155389280761, 48.858591115766636], [-35.75709386523192, 7.796521437302414], [-37.40080484201281, 0.22516641384922337], [-2.996033693075211, 23.819017674008474], [-122.77478002042854, -22.49622766363985], [129.9479380393475, 28.322852886114976], [-18.212910966231778, 33.35985520516777], [9.701627008945389, -32.094735868002374], [-82.32445141597537, -25.811756803469493], [37.43312722347532, 53.19808934647887], [-33.058097884097485, 1.340506995766482], [-11.209544484416629, -28.717012551516433], [178.36885611644917, -14.464198651572046], [146.8727071776973, -63.337403086338064], [-46.1696164860574, -69.92885470675155], [71.61734493810008, -35.28464221875064], [69.17042108578191, 67.68815441598947], [39.7263984474821, -0.7669300424175656], [-1.4764876691487676, -5.1366843705771075], [36.53526277506757, 16.146770150405292], [127.97538095849224, -31.48490521554331], [106.34690516187669, 7.2762554938707575], [74.12690590566122, 5.289942465716245], [55.86713443545845, -25.131760862629054], [51.26705867235361, -78.15490100703958], [88.49050020592347, 0.19605279525990912], [35.560942865404, -6.7235838086449915], [31.35921395949344, -30.193378903601815], [133.49078773097918, -14.384906304440104], [109.8212505938269, -39.13912940406819], [72.55562806815406, -58.03085617950093], [83.94114745349265, -20.492834686486784], [-71.56121277283667, -25.03870041281944], [-6.484656608411961, 15.341808665893074], [-31.08567374871674, -1.3890616252129295], [-13.011166741192554, -26.51572168469156], [-174.87352342471323, -21.811632090107558], [138.3804178962642, -75.43074373132615], [-37.79306499552779, -61.51093325958092], [53.514890260076875, -37.14576620925234], [-119.81324151723187, -42.152499922018926], [-40.34489267218986, -74.52986612726528], [-39.33585038597869, -47.38278008887965], [12.518009930801506, -39.28132731580198], [-161.59097291092286, -63.479144942740255], [137.88068634386738, -43.26113946843335], [123.85543345919817, -79.81248952872649], [45.0399939087834, -72.71455495701811]]}}, {"type": "Feature", "properties": {"kind": "grid_edges", "shape": "E8_proj_seed1472", "count": 317, "ids": ["E1", "E2", "E3", "E4", "E5", "E6", "E7", "E8", "E9", "E10", "E11", "E12", "E13", "E14", "E15", "E16", "E17", "E18", "E19", "E20", "E21", "E22", "E23", "E24", "E25", "E26", "E27", "E28", "E29", "E30", "E31", "E32", "E33", "E34", "E35", "E36", "E37", "E38", "E39", "E40", "E41", "E42", "E43", "E44", "E45", "E46", "E47", "E48", "E49", "E50", "E51", "E52", "E53", "E54", "E55", "E56", "E57", "E58", "E59", "E60", "E61", "E62", "E63", "E64", "E65", "E66", "E67", "E68", "E69", "E70", "E71", "E72", "E73", "E74", "E75", "E76", "E77", "E78", "E79", "E80", "E81", "E82", "E83", "E84", "E85", "E86", "E87", "E88", "E89", "E90", "E91", "E92", "E93", "E94", "E95", "E96", "E97", "E98", "E99", "E100", "E101", "E102", "E103", "E104", "E105", "E106", "E107", "E108", "E109", "E110", "E111", "E112", "E113", "E114", "E115", "E116", "E117", "E118", "E119", "E120", "E121", "E122", "E123", "E124", "E125", "E126", "E127", "E128", "E129", "E130", "E131", "E132", "E133", "E134", "E135", "E136", "E137", "E138", "E139", "E140", "E141", "E142", "E143", "E144", "E145", "E146", "E147", "E148", "E149", "E150", "E151", "E152", "E153", "E154", "E155", "E156", "E157", "E158", "E159", "E160", "E161", "E162", "E163", "E164", "E165", "E166", "E167", "E168", "E169", "E170", "E171", "E172", "E173", "E174", "E175", "E176", "E177", "E178", "E179", "E180", "E181", "E182", "E183", "E184", "E185", "E186", "E187", "E188", "E189", "E190", "E191", "E192", "E193", "E194", "E195", "E196", "E197", "E198", "E199", "E200", "E201", "E202", "E203", "E204", "E205", "E206", "E207", "E208", "E209", "E210", "E211", "E212", "E213", "E214", "E215", "E216", "E217", "E218", "E219", "E220", "E221", "E222", "E223", "E224", "E225", "E226", "E227", "E228", "E229", "E230", "E231", "E232", "E233", "E234", "E235", "E236", "E237", "E238", "E239", "E240", "E241", "E242", "E243", "E244", "E245", "E246", "E247", "E248", "E249", "E250", "E251", "E252", "E253", "E254", "E255", "E256", "E257", "E258", "E259", "E260", "E261", "E262", "E263", "E264", "E265", "E266", "E267", "E268", "E269", "E270", "E271", "E272", "E273", "E274", "E275", "E276", "E277", "E278", "E279", "E280", "E281", "E282", "E283", "E284", "E285", "E286", "E287", "E288", "E289", "E290", "E291", "E292", "E293", "E294", "E295", "E296", "E297", "E298", "E299", "E300", "E301", "E302", "E303", "E304", "E305", "E306", "E307", "E308", "E309", "E310", "E311", "E312", "E313", "E314", "E315", "E316", "E317"], "pairs": [[0, 5], [0, 117], [1, 42], [2, 15], [2, 27], [2, 28], [2, 29], [2, 32], [2, 197], [3, 10], [3, 212], [3, 229], [4, 117], [4, 127], [4, 144], [5, 141], [6, 22], [6, 190], [6, 212], [7, 237], [8, 135], [8, 161], [9, 17], [9, 24], [9, 158], [10, 34], [10, 52], [10, 176], [10, 226], [11, 75], [11, 207], [11, 237], [12, 21], [13, 167], [15, 27], [15, 198], [16, 20], [16, 25], [16, 128], [16, 160], [17, 122], [17, 147], [17, 167], [18, 62], [18, 100], [19, 41], [19, 195], [19, 235], [20, 92], [21, 147], [21, 153], [22, 26], [22, 178], [22, 196], [23, 47], [23, 177], [23, 185], [23, 199], [23, 205], [23, 225], [24, 84], [25, 114], [25, 123], [25, 143], [26, 232], [27, 205], [28, 126], [28, 182], [28, 186], [28, 189], [29, 195], [29, 203], [29, 206], [30, 35], [30, 51], [31, 47], [31, 226], [32, 37], [32, 76], [32, 179], [33, 45], [33, 49], [33, 139], [33, 201], [33, 206], [34, 73], [34, 145], [34, 149], [34, 166], [34, 211], [34, 215], [36, 41], [36, 56], [36, 186], [36, 203], [37, 207], [38, 92], [38, 97], [38, 208], [40, 128], [40, 176], [40, 189], [40, 205], [41, 45], [41, 48], [41, 191], [43, 46], [44, 94], [44, 188], [44, 202], [45, 179], [48, 68], [48, 177], [48, 187], [49, 87], [49, 105], [49, 113], [50, 169], [51, 149], [52, 147], [52, 150], [52, 181], [52, 182], [53, 184], [53, 220], [54, 129], [54, 225], [55, 201], [56, 60], [56, 65], [56, 114], [57, 64], [57, 117], [57, 126], [58, 137], [58, 201], [58, 234], [59, 91], [60, 69], [60, 88], [61, 178], [63, 134], [64, 100], [65, 81], [65, 223], [67, 95], [67, 101], [67, 135], [67, 197], [67, 235], [68, 122], [68, 220], [69, 144], [69, 176], [70, 237], [71, 168], [72, 115], [72, 144], [72, 147], [72, 161], [72, 179], [72, 224], [73, 84], [74, 93], [74, 120], [74, 138], [74, 218], [75, 86], [75, 125], [76, 197], [77, 151], [78, 189], [78, 217], [81, 181], [81, 227], [82, 186], [83, 101], [84, 213], [85, 119], [85, 150], [85, 179], [86, 106], [87, 185], [88, 97], [88, 104], [88, 105], [88, 112], [88, 136], [88, 216], [88, 224], [89, 219], [90, 99], [90, 105], [90, 237], [92, 100], [92, 109], [92, 184], [93, 153], [93, 193], [94, 198], [94, 214], [95, 213], [96, 106], [96, 160], [96, 178], [96, 187], [96, 211], [96, 226], [97, 137], [97, 138], [97, 161], [97, 162], [97, 185], [97, 209], [97, 210], [98, 106], [98, 148], [98, 166], [103, 171], [103, 191], [104, 232], [105, 149], [106, 135], [106, 151], [106, 163], [106, 170], [107, 119], [107, 210], [110, 165], [110, 175], [111, 153], [112, 128], [112, 192], [113, 123], [113, 177], [113, 209], [115, 179], [115, 211], [116, 212], [117, 119], [118, 190], [120, 122], [120, 144], [120, 176], [120, 186], [121, 152], [122, 127], [122, 170], [123, 143], [123, 153], [123, 191], [123, 219], [125, 159], [127, 175], [128, 162], [129, 177], [130, 136], [130, 138], [133, 164], [134, 230], [135, 166], [135, 167], [137, 141], [137, 185], [139, 187], [144, 149], [145, 169], [146, 218], [147, 163], [148, 156], [149, 161], [149, 164], [151, 159], [152, 168], [154, 156], [161, 209], [162, 210], [162, 230], [165, 237], [166, 214], [166, 228], [169, 170], [169, 201], [170, 172], [176, 188], [176, 196], [177, 185], [177, 193], [177, 217], [177, 225], [178, 190], [178, 198], [179, 210], [180, 212], [181, 229], [182, 206], [183, 195], [184, 218], [189, 197], [192, 197], [192, 198], [195, 197], [200, 201], [208, 226], [210, 218], [210, 219], [211, 213], [211, 226], [214, 220], [216, 220], [217, 218], [217, 220], [225, 232], [225, 237], [226, 232], [229, 237], [232, 234]], "support_counts": [1, 1, 1, 1, 1, 1, 1, 1, 1, 1, 1, 1, 1, 1, 1, 1, 1, 1, 1, 1, 1, 1, 1, 1, 1, 1, 1, 1, 1, 1, 1, 1, 1, 1, 1, 2, 1, 1, 1, 1, 1, 1, 1, 2, 1, 1, 1, 1, 1, 1, 1, 2, 1, 1, 1, 1, 1, 1, 1, 1, 1, 1, 1, 1, 1, 1, 1, 1, 1, 1, 1, 1, 1, 1, 1, 1, 1, 2, 1, 1, 1, 1, 1, 1, 1, 2, 1, 1, 1, 1, 1, 1, 1, 1, 1, 1, 1, 1, 1, 1, 1, 1, 1, 1, 1, 2, 1, 1, 1, 1, 1, 1, 1, 1, 1, 1, 1, 1, 1, 1, 1, 1, 1, 1, 1, 1, 1, 1, 1, 1, 1, 1, 1, 1, 1, 1, 1, 1, 1, 1, 1, 1, 2, 1, 1, 1, 1, 1, 1, 1, 1, 1, 1, 1, 1, 1, 1, 1, 1, 1, 1, 1, 1, 1, 1, 1, 1, 1, 1, 1, 1, 1, 1, 1, 1, 1, 1, 1, 1, 1, 1, 1, 1, 1, 1, 1, 1, 1, 1, 1, 1, 1, 1, 1, 1, 1, 1, 1, 1, 1, 1, 1, 1, 1, 1, 1, 1, 1, 1, 1, 1, 1, 1, 1, 1, 1, 1, 1, 1, 1, 1, 1, 1, 1, 1, 1, 1, 1, 1, 1, 1, 1, 1, 1, 1, 1, 1, 1, 1, 1, 1, 1, 1, 1, 1, 1, 1, 1, 1, 1, 1, 1, 1, 1, 1, 1, 1, 1, 1, 1, 1, 1, 1, 2, 1, 1, 1, 1, 1, 1, 1, 1, 1, 1, 1, 1, 2, 1, 1, 1, 1, 1, 1, 1, 1, 1, 1, 1, 1, 1, 1, 1, 1, 1, 1, 1, 1, 1, 1, 1, 1, 1, 1, 1, 1, 1, 1, 1, 1, 1, 1, 1, 1, 1, 1, 1, 1], "support_class": ["single", "single", "single", "single", "single", "single", "single", "single", "single", "single", "single", "single", "single", "single", "single", "single", "single", "single", "single", "single", "single", "single", "single", "single", "single", "single", "single", "single", "single", "single", "single", "single", "single", "single", "single", "shared", "single", "single", "single", "single", "single", "single", "single", "shared", "single", "single", "single", "single", "single", "single", "single", "shared", "single", "single", "single", "single", "single", "single", "single", "single", "single", "single", "single", "single", "single", "single", "single", "single", "single", "single", "single", "single", "single", "single", "single", "single", "single", "shared", "single", "single", "single", "single", "single", "single", "single", "shared", "single", "single", "single", "single", "single", "single", "single", "single", "single", "single", "single", "single", "single", "single", "single", "single", "single", "single", "single", "shared", "single", "single", "single", "single", "single", "single", "single", "single", "single", "single", "single", "single", "single", "single", "single", "single", "single", "single", "single", "single", "single", "single", "single", "single", "single", "single", "single", "single", "single", "single", "single", "single", "single", "single", "single", "single", "shared", "single", "single", "single", "single", "single", "single", "single", "single", "single", "single", "single", "single", "single", "single", "single", "single", "single", "single", "single", "single", "single", "single", "single", "single", "single", "single", "single", "single", "single", "single", "single", "single", "single", "single", "single", "single", "single", "single", "single", "single", "single", "single", "single", "single", "single", "single", "single", "single", "single", "single", "single", "single", "single", "single", "single", "single", "single", "single", "single", "single", "single", "single", "single", "single", "single", "single", "single", "single", "single", "single", "single", "single", "single", "single", "single", "single", "single", "single", "single", "single", "single", "single", "single", "single", "single", "single", "single", "single", "single", "single", "single", "single", "single", "single", "single", "single", "single", "single", "single", "single", "single", "single", "single", "single", "single", "single", "single", "single", "single", "single", "single", "single", "single", "single", "single", "single", "single", "single", "single", "single", "shared", "single", "single", "single", "single", "single", "single", "single", "single", "single", "single", "single", "single", "shared", "single", "single", "single", "single", "single", "single", "single", "single", "single", "single", "single", "single", "single", "single", "single", "single", "single", "single", "single", "single", "single", "single", "single", "single", "single", "single", "single", "single", "single", "single", "single", "single", "single", "single", "single", "single", "single", "single", "single", "single"]}, "geometry": {"type": "MultiLineString", "coordinates": [[[-126.7981551002157, 52.775350159971566], [-113.89387857316075, -4.311864387599793]], [[-126.7981551002157, 52.775350159971566], [140.6641496140213, 47.38278008887965]], [[-144.6487785471144, -15.795011863133901], [177.98871833095933, -26.028414680357912]], [[35.35122145288562, 15.795011863133901], [97.45831101027419, -36.95324265095262]], [[35.35122145288562, 15.795011863133901], [14.59166961292091, -49.65279727024401]], [[35.35122145288562, 15.795011863133901], [79.22819340927941, 56.06593570752664]], [[35.35122145288562, 15.795011863133901], [-87.25745344288316, 7.057413036728174]], [[35.35122145288562, 15.795011863133901], [-32.64345839372704, 69.55877690153126]], [[35.35122145288562, 15.795011863133901], [129.9479380393475, 28.322852886114976]], [[53.2018448997843, -52.775350159971566], [24.25181067153131, 11.123015550067908]], [[53.2018448997843, -52.775350159971566], [127.97538095849224, -31.48490521554331]], [[53.2018448997843, -52.775350159971566], [138.3804178962642, -75.43074373132615]], [[150.4647641497279, 57.2582930069981], [140.6641496140213, 47.38278008887965]], [[150.4647641497279, 57.2582930069981], [108.43878722716333, 25.03870041281944]], [[150.4647641497279, 57.2582930069981], [-108.38265506189994, 35.28464221875064]], [[-113.89387857316075, -4.311864387599793], [178.52351233085122, 5.1366843705771075]], [[66.10612142683925, 4.311864387599793], [-1.0978293326245578, -43.275403773783026]], [[66.10612142683925, 4.311864387599793], [87.36904155104992, 7.762887468681601]], [[66.10612142683925, 4.311864387599793], [127.97538095849224, -31.48490521554331]], [[-29.535235850272105, -57.2582930069981], [137.88068634386738, -43.26113946843335]], [[-111.2366456119923, 52.31243742198227], [-128.73294132764642, 78.15490100703958]], [[-111.2366456119923, 52.31243742198227], [-92.63095844895007, -7.762887468681601]], [[-155.7481893284687, -11.123015550067908], [-60.843014835935485, 21.85908301369542]], [[-155.7481893284687, -11.123015550067908], [-165.4083303870791, 49.65279727024401]], [[-155.7481893284687, -11.123015550067908], [144.24290613476808, -7.796521437302414]], [[24.25181067153131, 11.123015550067908], [-23.282738447674383, -11.96522154912111]], [[24.25181067153131, 11.123015550067908], [63.41846569929676, 55.604943750269705]], [[24.25181067153131, 11.123015550067908], [-19.487830153869762, 55.52030367346725]], [[24.25181067153131, 11.123015550067908], [-31.08567374871674, -1.3890616252129295]], [[68.76335438800771, -52.31243742198227], [145.21942103767154, -39.55070260169703]], [[68.76335438800771, -52.31243742198227], [71.61734493810008, -35.28464221875064]], [[68.76335438800771, -52.31243742198227], [137.88068634386738, -43.26113946843335]], [[-82.54168898972583, 36.95324265095262], [178.90217066737546, 43.275403773783026]], [[-178.98684893628592, -0.4280279746841125], [-74.0490560790505, -63.61971403350408]], [[97.45831101027419, -36.95324265095262], [14.59166961292091, -49.65279727024401]], [[97.45831101027419, -36.95324265095262], [-18.212910966231778, 33.35985520516777]], [[-157.06658708464568, 20.617068200069053], [-125.3103969450906, 19.45433381034514]], [[-157.06658708464568, 20.617068200069053], [-109.0976339717325, -11.929925212305088]], [[-157.06658708464568, 20.617068200069053], [-96.05885254650737, 20.492834686486784]], [[-157.06658708464568, 20.617068200069053], [-114.56450162873773, 23.82922522957257]], [[-60.843014835935485, 21.85908301369542], [-41.61958210373583, 75.43074373132615]], [[-60.843014835935485, 21.85908301369542], [-1.6311438835508447, 14.464198651572046]], [[-60.843014835935485, 21.85908301369542], [-74.0490560790505, -63.61971403350408]], [[119.15698516406452, -21.85908301369542], [-135.20942837938878, -15.287156229332332]], [[119.15698516406452, -21.85908301369542], [-150.39104224456088, 11.474093163962701]], [[22.933412915354328, -20.617068200069053], [-2.011281669040692, 26.028414680357912]], [[22.933412915354328, -20.617068200069053], [-2.996033693075211, 23.819017674008474]], [[22.933412915354328, -20.617068200069053], [12.518009930801506, -39.28132731580198]], [[-125.3103969450906, 19.45433381034514], [-65.66463264627014, 22.322655012942434]], [[178.90217066737546, 43.275403773783026], [-1.6311438835508447, 14.464198651572046]], [[178.90217066737546, 43.275403773783026], [161.78708903376824, -33.35985520516777]], [[-1.0978293326245578, -43.275403773783026], [70.90236602826751, 11.929925212305088]], [[-1.0978293326245578, -43.275403773783026], [12.103861665706082, 46.69116995957107]], [[-1.0978293326245578, -43.275403773783026], [-122.77478002042854, -22.49622766363985]], [[54.6896030549094, -19.45433381034514], [79.10439560903937, -47.48523127964792]], [[54.6896030549094, -19.45433381034514], [60.77763086409765, 55.62189508240308]], [[54.6896030549094, -19.45433381034514], [55.864594710173364, 2.939628464488348]], [[54.6896030549094, -19.45433381034514], [9.701627008945389, -32.094735868002374]], [[54.6896030549094, -19.45433381034514], [146.8727071776973, -63.337403086338064]], [[54.6896030549094, -19.45433381034514], [-6.484656608411961, 15.341808665893074]], [[-165.4083303870791, 49.65279727024401], [80.44941214485671, 81.75205287933183]], [[-109.0976339717325, -11.929925212305088], [-42.11931365613262, 43.26113946843335]], [[-109.0976339717325, -11.929925212305088], [5.126476575286778, 21.811632090107558]], [[-109.0976339717325, -11.929925212305088], [-110.82957891421809, -67.68815441598947]], [[70.90236602826751, 11.929925212305088], [-119.81324151723187, -42.152499922018926]], [[14.59166961292091, -49.65279727024401], [146.8727071776973, -63.337403086338064]], [[79.22819340927941, 56.06593570752664], [173.51534339158803, -15.341808665893074]], [[79.22819340927941, 56.06593570752664], [35.097312002955626, 8.771992998153042]], [[79.22819340927941, 56.06593570752664], [2.9800903187291117, -3.590590166383467]], [[79.22819340927941, 56.06593570752664], [112.42004709371024, 8.244179316157341]], [[-87.25745344288316, 7.057413036728174], [-2.996033693075211, 23.819017674008474]], [[-87.25745344288316, 7.057413036728174], [-11.209544484416629, -28.717012551516433]], [[-87.25745344288316, 7.057413036728174], [-46.1696164860574, -69.92885470675155]], [[92.74254655711684, -7.057413036728174], [147.35654160627297, -69.55877690153126]], [[92.74254655711684, -7.057413036728174], [-56.85813325470896, -76.2133077238275]], [[-100.7718065907206, -56.06593570752664], [79.10439560903937, -47.48523127964792]], [[-100.7718065907206, -56.06593570752664], [-31.08567374871674, -1.3890616252129295]], [[-32.64345839372704, 69.55877690153126], [143.93647964216365, 16.16085063345231]], [[-32.64345839372704, 69.55877690153126], [-159.13909436770817, 51.917942807712876]], [[-32.64345839372704, 69.55877690153126], [16.345822180618207, 15.895411463809491]], [[156.71726155232562, 11.96522154912111], [56.75093241503794, 44.46129262498081]], [[156.71726155232562, 11.96522154912111], [-49.52346408718075, 3.296292777194235]], [[156.71726155232562, 11.96522154912111], [-52.024619041507776, 31.48490521554331]], [[156.71726155232562, 11.96522154912111], [37.43312722347532, 53.19808934647887]], [[156.71726155232562, 11.96522154912111], [-46.1696164860574, -69.92885470675155]], [[-23.282738447674383, -11.96522154912111], [139.09172453869027, 17.52277597160077]], [[-23.282738447674383, -11.96522154912111], [133.83038351394262, 69.92885470675155]], [[-23.282738447674383, -11.96522154912111], [146.94190211590254, -1.340506995766482]], [[-23.282738447674383, -11.96522154912111], [-124.13540528982664, -2.939628464488348]], [[-23.282738447674383, -11.96522154912111], [36.53526277506757, 16.146770150405292]], [[-23.282738447674383, -11.96522154912111], [55.86713443545845, -25.131760862629054]], [[-37.18078869783102, 46.113587343825266], [-2.011281669040692, 26.028414680357912]], [[-37.18078869783102, 46.113587343825266], [22.56999449602063, 48.63879288050452]], [[-37.18078869783102, 46.113587343825266], [2.9800903187291117, -3.590590166383467]], [[-37.18078869783102, 46.113587343825266], [-11.209544484416629, -28.717012551516433]], [[143.93647964216365, 16.16085063345231], [71.61734493810008, -35.28464221875064]], [[-36.063520357836374, -16.16085063345231], [-65.66463264627014, 22.322655012942434]], [[-36.063520357836374, -16.16085063345231], [-41.69608961991873, -8.265286907279748]], [[-36.063520357836374, -16.16085063345231], [69.17042108578191, 67.68815441598947]], [[-170.2709791651319, 46.588413261511064], [-96.05885254650737, 20.492834686486784]], [[-170.2709791651319, 46.588413261511064], [-19.487830153869762, 55.52030367346725]], [[-170.2709791651319, 46.588413261511064], [112.42004709371024, 8.244179316157341]], [[-170.2709791651319, 46.588413261511064], [146.8727071776973, -63.337403086338064]], [[-2.011281669040692, 26.028414680357912], [56.75093241503794, 44.46129262498081]], [[-2.011281669040692, 26.028414680357912], [123.14186674529105, 76.2133077238275]], [[-2.011281669040692, 26.028414680357912], [65.43549837126228, -23.82922522957257]], [[9.729020834868104, -46.588413261511064], [-123.24906758496206, -44.46129262498081]], [[-100.89560439096063, 47.48523127964792], [-178.19012021989553, -20.088225746404376]], [[-100.89560439096063, 47.48523127964792], [135.65454913029615, -21.743854318737743]], [[-100.89560439096063, 47.48523127964792], [-33.058097884097485, 1.340506995766482]], [[56.75093241503794, 44.46129262498081], [16.345822180618207, 15.895411463809491]], [[123.14186674529105, 76.2133077238275], [100.11045032794122, 43.13980436398911]], [[123.14186674529105, 76.2133077238275], [60.77763086409765, 55.62189508240308]], [[123.14186674529105, 76.2133077238275], [44.312028450864716, 18.92246365818884]], [[-49.52346408718075, 3.296292777194235], [-99.55058785514329, -81.75205287933183]], [[-49.52346408718075, 3.296292777194235], [-146.87112490905272, -31.460109782505832]], [[-49.52346408718075, 3.296292777194235], [-56.144566540801826, 79.81248952872649]], [[130.47653591281926, -3.296292777194235], [-144.90268799704438, -8.771992998153042]], [[-56.85813325470896, -76.2133077238275], [146.94190211590254, -1.340506995766482]], [[63.41846569929676, 55.604943750269705], [-1.6311438835508447, 14.464198651572046]], [[63.41846569929676, 55.604943750269705], [-142.56687277652466, -53.19808934647887]], [[63.41846569929676, 55.604943750269705], [92.36781448187256, 12.777994400000491]], [[63.41846569929676, 55.604943750269705], [35.097312002955626, 8.771992998153042]], [[103.32567866223785, -3.849030264058775], [105.9509439209495, 63.61971403350408]], [[103.32567866223785, -3.849030264058775], [133.49078773097918, -14.384906304440104]], [[-76.67432133776217, 3.849030264058775], [-107.44437193184595, 58.03085617950093]], [[-76.67432133776217, 3.849030264058775], [-6.484656608411961, 15.341808665893074]], [[-116.58153430070324, -55.604943750269705], [37.43312722347532, 53.19808934647887]], [[22.56999449602063, 48.63879288050452], [135.0646676091213, 31.603072971543547]], [[22.56999449602063, 48.63879288050452], [79.1717587707396, 17.301639992238922]], [[22.56999449602063, 48.63879288050452], [-42.11931365613262, 43.26113946843335]], [[115.63168999260144, 3.9647336477357293], [120.29621348769739, 60.86502662058533]], [[115.63168999260144, 3.9647336477357293], [140.6641496140213, 47.38278008887965]], [[115.63168999260144, 3.9647336477357293], [173.51534339158803, -15.341808665893074]], [[-64.36831000739856, -3.9647336477357293], [-105.87309409433878, -5.289942465716245]], [[-64.36831000739856, -3.9647336477357293], [37.43312722347532, 53.19808934647887]], [[-64.36831000739856, -3.9647336477357293], [-39.33585038597869, -47.38278008887965]], [[-157.43000550397937, -48.63879288050452], [76.4159149249322, -44.75025798721923]], [[135.0646676091213, 31.603072971543547], [58.54811791705747, -7.937174080753142]], [[135.0646676091213, 31.603072971543547], [-103.58408507506782, 44.75025798721923]], [[44.79057162061121, 15.287156229332332], [12.103861665706082, 46.69116995957107]], [[-44.9353323908787, -31.603072971543547], [-91.50949979407655, -0.19605279525990912]], [[120.29621348769739, 60.86502662058533], [-150.39104224456088, 11.474093163962701]], [[79.1717587707396, 17.301639992238922], [37.76076003937433, 38.72353662148303]], [[79.1717587707396, 17.301639992238922], [83.94114745349265, -20.492834686486784]], [[-59.70378651230263, -60.86502662058533], [114.33536735372986, -22.322655012942434]], [[-59.70378651230263, -60.86502662058533], [141.04967965713328, 6.92436988269274]], [[-59.70378651230263, -60.86502662058533], [-128.73294132764642, 78.15490100703958]], [[-59.70378651230263, -60.86502662058533], [129.9479380393475, 28.322852886114976]], [[-59.70378651230263, -60.86502662058533], [12.518009930801506, -39.28132731580198]], [[100.11045032794122, 43.13980436398911], [-41.61958210373583, 75.43074373132615]], [[100.11045032794122, 43.13980436398911], [133.49078773097918, -14.384906304440104]], [[58.54811791705747, -7.937174080753142], [-108.38265506189994, 35.28464221875064]], [[58.54811791705747, -7.937174080753142], [-19.487830153869762, 55.52030367346725]], [[-121.45188208294255, 7.937174080753142], [137.88068634386738, -43.26113946843335]], [[-79.88954967205878, -43.13980436398911], [-112.75723419034439, -24.243855214857852]], [[-34.78057896232846, 39.55070260169703], [18.409027089077124, 63.479144942740255]], [[-34.78057896232846, 39.55070260169703], [-108.38265506189994, 35.28464221875064]], [[-34.78057896232846, 39.55070260169703], [-1.6311438835508447, 14.464198651572046]], [[-34.78057896232846, 39.55070260169703], [-92.63095844895007, -7.762887468681601]], [[-34.78057896232846, 39.55070260169703], [16.345822180618207, 15.895411463809491]], [[-34.78057896232846, 39.55070260169703], [-71.56121277283667, -25.03870041281944]], [[139.09172453869027, 17.52277597160077], [80.44941214485671, 81.75205287933183]], [[-40.90827546130974, -17.52277597160077], [1.8098797801044577, 20.088225746404376]], [[-40.90827546130974, -17.52277597160077], [-126.48510973992315, 37.14576620925234]], [[-40.90827546130974, -17.52277597160077], [-73.65309483812331, -7.2762554938707575]], [[-40.90827546130974, -17.52277597160077], [35.560942865404, -6.7235838086449915]], [[145.21942103767154, -39.55070260169703], [137.71579139171257, 1.0304295688218976]], [[145.21942103767154, -39.55070260169703], [148.91432625128326, 1.3890616252129295]], [[-159.13909436770817, 51.917942807712876], [129.9479380393475, 28.322852886114976]], [[-5.866140200282671, 19.983194368952255], [97.67554858402463, 25.811756803469493]], [[174.13385979971736, -19.983194368952255], [112.42004709371024, 8.244179316157341]], [[174.13385979971736, -19.983194368952255], [88.49050020592347, 0.19605279525990912]], [[37.76076003937433, 38.72353662148303], [92.36781448187256, 12.777994400000491]], [[37.76076003937433, 38.72353662148303], [-13.011166741192554, -26.51572168469156]], [[-142.23923996062567, -38.72353662148303], [2.9800903187291117, -3.590590166383467]], [[95.66575827277569, -42.46984950639639], [141.04967965713328, 6.92436988269274]], [[80.44941214485671, 81.75205287933183], [106.34690516187669, 7.2762554938707575]], [[-42.28420860828744, -1.0304295688218976], [60.18675848276813, 42.152499922018926]], [[-42.28420860828744, -1.0304295688218976], [-142.56687277652466, -53.19808934647887]], [[-42.28420860828744, -1.0304295688218976], [16.345822180618207, 15.895411463809491]], [[137.71579139171257, 1.0304295688218976], [33.1288750909473, 31.460109782505832]], [[-99.55058785514329, -81.75205287933183], [55.864594710173364, 2.939628464488348]], [[-103.58408507506782, 44.75025798721923], [-41.69608961991873, -8.265286907279748]], [[-103.58408507506782, 44.75025798721923], [165.47370047476193, 34.1326521406759]], [[-103.58408507506782, 44.75025798721923], [-146.87112490905272, -31.460109782505832]], [[-103.58408507506782, 44.75025798721923], [-134.9600060912166, 72.71455495701811]], [[-103.58408507506782, 44.75025798721923], [-124.13286556454156, 25.131760862629054]], [[-103.58408507506782, 44.75025798721923], [51.26705867235361, -78.15490100703958]], [[-103.58408507506782, 44.75025798721923], [-71.56121277283667, -25.03870041281944]], [[-17.145516319477093, 8.398539980031648], [31.35921395949344, -30.193378903601815]], [[162.85448368052292, -8.398539980031648], [156.6965127061475, -64.3686523431913]], [[162.85448368052292, -8.398539980031648], [-146.87112490905272, -31.460109782505832]], [[162.85448368052292, -8.398539980031648], [137.88068634386738, -43.26113946843335]], [[-65.66463264627014, 22.322655012942434], [-150.39104224456088, 11.474093163962701]], [[-65.66463264627014, 22.322655012942434], [-87.24260416112018, -30.548401547423474]], [[-65.66463264627014, 22.322655012942434], [105.9509439209495, 63.61971403350408]], [[1.8098797801044577, 20.088225746404376], [161.78708903376824, -33.35985520516777]], [[1.8098797801044577, 20.088225746404376], [-35.75709386523192, 7.796521437302414]], [[-178.19012021989553, -20.088225746404376], [-18.212910966231778, 33.35985520516777]], [[-178.19012021989553, -20.088225746404376], [74.12690590566122, 5.289942465716245]], [[114.33536735372986, -22.322655012942434], [106.34690516187669, 7.2762554938707575]], [[-23.303487293852488, 64.3686523431913], [33.1288750909473, 31.460109782505832]], [[-23.303487293852488, 64.3686523431913], [-114.56450162873773, 23.82922522957257]], [[-23.303487293852488, 64.3686523431913], [12.103861665706082, 46.69116995957107]], [[-23.303487293852488, 64.3686523431913], [44.312028450864716, 18.92246365818884]], [[-23.303487293852488, 64.3686523431913], [36.53526277506757, 16.146770150405292]], [[-23.303487293852488, 64.3686523431913], [-31.08567374871674, -1.3890616252129295]], [[-41.69608961991873, -8.265286907279748], [-105.87309409433878, -5.289942465716245]], [[-41.69608961991873, -8.265286907279748], [-73.65309483812331, -7.2762554938707575]], [[-41.69608961991873, -8.265286907279748], [-92.63095844895007, -7.762887468681601]], [[-41.69608961991873, -8.265286907279748], [-67.57995290628978, -8.244179316157341]], [[-41.69608961991873, -8.265286907279748], [55.864594710173364, 2.939628464488348]], [[-41.69608961991873, -8.265286907279748], [39.7263984474821, -0.7669300424175656]], [[-41.69608961991873, -8.265286907279748], [-1.4764876691487676, -5.1366843705771075]], [[138.30391038008128, 8.265286907279748], [33.1288750909473, 31.460109782505832]], [[138.30391038008128, 8.265286907279748], [168.79045551558337, 28.717012551516433]], [[138.30391038008128, 8.265286907279748], [-124.13540528982664, -2.939628464488348]], [[29.608957755439146, -11.474093163962701], [-53.70408586537394, -45.499848212615106]], [[29.608957755439146, -11.474093163962701], [65.43549837126228, -23.82922522957257]], [[165.47370047476193, 34.1326521406759], [-119.81324151723187, -42.152499922018926]], [[-146.87112490905272, -31.460109782505832], [146.94190211590254, -1.340506995766482]], [[33.1288750909473, 31.460109782505832], [-128.73294132764642, 78.15490100703958]], [[33.1288750909473, 31.460109782505832], [97.67554858402463, 25.811756803469493]], [[33.1288750909473, 31.460109782505832], [-44.34545086970387, 21.743854318737743]], [[33.1288750909473, 31.460109782505832], [-87.63218551812744, -12.777994400000491]], [[-14.526299525238091, -34.1326521406759], [60.18675848276813, 42.152499922018926]], [[-14.526299525238091, -34.1326521406759], [-1.4764876691487676, -5.1366843705771075]], [[92.75739583887982, 30.548401547423474], [-177.0199096812709, 3.590590166383467]], [[92.75739583887982, 30.548401547423474], [160.51216984613023, -55.52030367346725]], [[24.92601462616288, -52.11656822318475], [161.78708903376824, -33.35985520516777]], [[-134.9600060912166, 72.71455495701811], [-96.05885254650737, 20.492834686486784]], [[-134.9600060912166, 72.71455495701811], [-78.03155389280761, 48.858591115766636]], [[-56.144566540801826, 79.81248952872649], [5.126476575286778, 21.811632090107558]], [[-56.144566540801826, 79.81248952872649], [60.77763086409765, 55.62189508240308]], [[-56.144566540801826, 79.81248952872649], [39.7263984474821, -0.7669300424175656]], [[18.409027089077124, 63.479144942740255], [16.345822180618207, 15.895411463809491]], [[18.409027089077124, 63.479144942740255], [36.53526277506757, 16.146770150405292]], [[-167.4819900691985, 39.28132731580198], [127.97538095849224, -31.48490521554331]], [[140.6641496140213, 47.38278008887965], [60.18675848276813, 42.152499922018926]], [[139.65510732781016, 74.52986612726528], [87.36904155104992, 7.762887468681601]], [[-126.48510973992315, 37.14576620925234], [-41.61958210373583, 75.43074373132615]], [[-126.48510973992315, 37.14576620925234], [-108.38265506189994, 35.28464221875064]], [[-126.48510973992315, 37.14576620925234], [-19.487830153869762, 55.52030367346725]], [[-126.48510973992315, 37.14576620925234], [2.9800903187291117, -3.590590166383467]], [[142.20693500447223, 61.51093325958092], [-170.29837299105463, 32.094735868002374]], [[-41.61958210373583, 75.43074373132615], [108.43878722716333, 25.03870041281944]], [[-41.61958210373583, 75.43074373132615], [-87.63218551812744, -12.777994400000491]], [[5.126476575286778, 21.811632090107558], [-110.82957891421809, -67.68815441598947]], [[5.126476575286778, 21.811632090107558], [161.78708903376824, -33.35985520516777]], [[5.126476575286778, 21.811632090107558], [65.43549837126228, -23.82922522957257]], [[5.126476575286778, 21.811632090107558], [31.35921395949344, -30.193378903601815]], [[148.91432625128326, 1.3890616252129295], [101.96844610719239, -48.858591115766636]], [[108.43878722716333, 25.03870041281944], [160.51216984613023, -55.52030367346725]], [[-96.05885254650737, 20.492834686486784], [-67.57995290628978, -8.244179316157341]], [[-107.44437193184595, 58.03085617950093], [60.77763086409765, 55.62189508240308]], [[-70.17874940617311, 39.13912940406819], [-124.13286556454156, 25.131760862629054]], [[-70.17874940617311, 39.13912940406819], [-73.65309483812331, -7.2762554938707575]], [[-144.43905713459603, 6.7235838086449915], [-135.68797154913528, -18.92246365818884]], [[-91.50949979407655, -0.19605279525990912], [-37.79306499552779, -61.51093325958092]], [[-128.73294132764642, 78.15490100703958], [-124.13540528982664, -2.939628464488348]], [[-128.73294132764642, 78.15490100703958], [-74.0490560790505, -63.61971403350408]], [[-105.87309409433878, -5.289942465716245], [178.52351233085122, 5.1366843705771075]], [[-105.87309409433878, -5.289942465716245], [55.864594710173364, 2.939628464488348]], [[-52.024619041507776, 31.48490521554331], [44.312028450864716, 18.92246365818884]], [[-108.38265506189994, 35.28464221875064], [146.94190211590254, -1.340506995766482]], [[133.83038351394262, 69.92885470675155], [-144.90268799704438, -8.771992998153042]], [[-33.12729282230272, 63.337403086338064], [35.560942865404, -6.7235838086449915]], [[-1.6311438835508447, 14.464198651572046], [-44.34545086970387, 21.743854318737743]], [[168.79045551558337, 28.717012551516433], [177.00396630692478, -23.819017674008474]], [[146.94190211590254, -1.340506995766482], [-92.63095844895007, -7.762887468681601]], [[146.94190211590254, -1.340506995766482], [-135.68797154913528, -18.92246365818884]], [[97.67554858402463, 25.811756803469493], [101.96844610719239, -48.858591115766636]], [[-170.29837299105463, 32.094735868002374], [-112.75723419034439, -24.243855214857852]], [[-50.05206196065253, -28.322852886114976], [177.00396630692478, -23.819017674008474]], [[-92.63095844895007, -7.762887468681601], [39.7263984474821, -0.7669300424175656]], [[-67.57995290628978, -8.244179316157341], [-1.4764876691487676, -5.1366843705771075]], [[-67.57995290628978, -8.244179316157341], [-37.79306499552779, -61.51093325958092]], [[-177.0199096812709, 3.590590166383467], [137.88068634386738, -43.26113946843335]], [[-124.13540528982664, -2.939628464488348], [74.12690590566122, 5.289942465716245]], [[-124.13540528982664, -2.939628464488348], [-174.87352342471323, -21.811632090107558]], [[-144.90268799704438, -8.771992998153042], [-87.63218551812744, -12.777994400000491]], [[-144.90268799704438, -8.771992998153042], [37.43312722347532, 53.19808934647887]], [[-87.63218551812744, -12.777994400000491], [-163.6541778193818, -15.895411463809491]], [[-19.487830153869762, 55.52030367346725], [135.65454913029615, -21.743854318737743]], [[-19.487830153869762, 55.52030367346725], [-122.77478002042854, -22.49622766363985]], [[60.77763086409765, 55.62189508240308], [55.864594710173364, 2.939628464488348]], [[60.77763086409765, 55.62189508240308], [-35.75709386523192, 7.796521437302414]], [[60.77763086409765, 55.62189508240308], [88.49050020592347, 0.19605279525990912]], [[60.77763086409765, 55.62189508240308], [-6.484656608411961, 15.341808665893074]], [[12.103861665706082, 46.69116995957107], [87.36904155104992, 7.762887468681601]], [[12.103861665706082, 46.69116995957107], [-18.212910966231778, 33.35985520516777]], [[16.345822180618207, 15.895411463809491], [-1.4764876691487676, -5.1366843705771075]], [[126.29591413462607, 45.499848212615106], [127.97538095849224, -31.48490521554331]], [[92.36781448187256, 12.777994400000491], [138.3804178962642, -75.43074373132615]], [[35.097312002955626, 8.771992998153042], [-46.1696164860574, -69.92885470675155]], [[67.24276580965562, 24.243855214857852], [-2.996033693075211, 23.819017674008474]], [[105.9509439209495, 63.61971403350408], [35.560942865404, -6.7235838086449915]], [[112.42004709371024, 8.244179316157341], [129.9479380393475, 28.322852886114976]], [[-78.03155389280761, 48.858591115766636], [129.9479380393475, 28.322852886114976]], [[-78.03155389280761, 48.858591115766636], [-18.212910966231778, 33.35985520516777]], [[-2.996033693075211, 23.819017674008474], [129.9479380393475, 28.322852886114976]], [[-82.32445141597537, -25.811756803469493], [37.43312722347532, 53.19808934647887]], [[69.17042108578191, 67.68815441598947], [-31.08567374871674, -1.3890616252129295]], [[-1.4764876691487676, -5.1366843705771075], [35.560942865404, -6.7235838086449915]], [[-1.4764876691487676, -5.1366843705771075], [31.35921395949344, -30.193378903601815]], [[36.53526277506757, 16.146770150405292], [106.34690516187669, 7.2762554938707575]], [[36.53526277506757, 16.146770150405292], [-31.08567374871674, -1.3890616252129295]], [[74.12690590566122, 5.289942465716245], [133.49078773097918, -14.384906304440104]], [[51.26705867235361, -78.15490100703958], [133.49078773097918, -14.384906304440104]], [[88.49050020592347, 0.19605279525990912], [35.560942865404, -6.7235838086449915]], [[88.49050020592347, 0.19605279525990912], [133.49078773097918, -14.384906304440104]], [[-6.484656608411961, 15.341808665893074], [-119.81324151723187, -42.152499922018926]], [[-6.484656608411961, 15.341808665893074], [137.88068634386738, -43.26113946843335]], [[-31.08567374871674, -1.3890616252129295], [-119.81324151723187, -42.152499922018926]], [[138.3804178962642, -75.43074373132615], [137.88068634386738, -43.26113946843335]], [[-119.81324151723187, -42.152499922018926], [-39.33585038597869, -47.38278008887965]]]}}]}