{"type": "FeatureCollection", "name": "E8_proj_seed1354 grid", "properties": {"shape": "E8_proj_seed1354", "lock_lat": -85.0, "lock_lon": 85.0, "bearing": 240.0}, "features": [{"type": "Feature", "properties": {"kind": "grid_vertices", "shape": "E8_proj_seed1354", "count": 240, "ids": ["V1", "V2", "V3", "V4", "V5", "V6", "V7", "V8", "V9", "V10", "V11", "V12", "V13", "V14", "V15", "V16", "V17", "V18", "V19", "V20", "V21", "V22", "V23", "V24", "V25", "V26", "V27", "V28", "V29", "V30", "V31", "V32", "V33", "V34", "V35", "V36", "V37", "V38", "V39", "V40", "V41", "V42", "V43", "V44", "V45", "V46", "V47", "V48", "V49", "V50", "V51", "V52", "V53", "V54", "V55", "V56", "V57", "V58", "V59", "V60", "V61", "V62", "V63", "V64", "V65", "V66", "V67", "V68", "V69", "V70", "V71", "V72", "V73", "V74", "V75", "V76", "V77", "V78", "V79", "V80", "V81", "V82", "V83", "V84", "V85", "V86", "V87", "V88", "V89", "V90", "V91", "V92", "V93", "V94", "V95", "V96", "V97", "V98", "V99", "V100", "V101", "V102", "V103", "V104", "V105", "V106", "V107", "V108", "V109", "V110", "V111", "V112", "V113", "V114", "V115", "V116", "V117", "V118", "V119", "V120", "V121", "V122", "V123", "V124", "V125", "V126", "V127", "V128", "V129", "V130", "V131", "V132", "V133", "V134", "V135", "V136", "V137", "V138", "V139", "V140", "V141", "V142", "V143", "V144", "V145", "V146", "V147", "V148", "V149", "V150", "V151", "V152", "V153", "V154", "V155", "V156", "V157", "V158", "V159", "V160", "V161", "V162", "V163", "V164", "V165", "V166", "V167", "V168", "V169", "V170", "V171", "V172", "V173", "V174", "V175", "V176", "V177", "V178", "V179", "V180", "V181", "V182", "V183", "V184", "V185", "V186", "V187", "V188", "V189", "V190", "V191", "V192", "V193", "V194", "V195", "V196", "V197", "V198", "V199", "V200", "V201", "V202", "V203", "V204", "V205", "V206", "V207", "V208", "V209", "V210", "V211", "V212", "V213", "V214", "V215", "V216", "V217", "V218", "V219", "V220", "V221", "V222", "V223", "V224", "V225", "V226", "V227", "V228", "V229", "V230", "V231", "V232", "V233", "V234", "V235", "V236", "V237", "V238", "V239", "V240"]}, "geometry": {"type": "MultiPoint", "coordinates": [[-103.40983470941791, 48.06780331501934], [-26.09754228225436, -33.199757148358444], [153.90245771774565, 33.199757148358444], [76.59016529058209, -48.06780331501934], [-23.153652751513384, -63.799876728590064], [-57.31032141231855, 35.04181753390182], [122.68967858768144, -35.04181753390182], [156.8463472484866, 63.799876728590064], [143.52334122083045, 73.55255324872044], [-45.92944289137606, -23.8926595540346], [134.07055710862394, 23.8926595540346], [-36.47665877916955, -73.55255324872044], [-0.13253767218740065, 25.479115900789264], [-103.93403232929298, -37.125027846042805], [76.06596767070702, 37.125027846042805], [179.86746232781263, -25.479115900789264], [-88.82321374646267, -19.854141297839686], [-10.616964361806707, 5.229581177379851], [169.3830356381933, -5.229581177379851], [91.17678625353734, 19.854141297839686], [-108.47889211502877, -12.821019404097456], [-8.620861430769928, -0.805021014093764], [171.3791385692301, 0.805021014093764], [71.52110788497123, 12.821019404097456], [-68.18254557969748, 14.977210256391214], [57.5172340949549, -46.649751568401285], [-122.48276590504511, 46.649751568401285], [111.81745442030252, -14.977210256391214], [152.11495384101576, -10.38908582239147], [-149.36148749528164, 67.32479127288887], [30.638512504718356, -67.32479127288887], [-27.885046158984263, 10.38908582239147], [152.84529699212737, 43.08336826630643], [-90.81855887591956, 10.234213967503099], [89.18144112408045, -10.234213967503099], [-27.154703007872637, -43.08336826630643], [75.57341919249468, 68.31063850594589], [-159.6834707434723, -0.434651608934052], [20.31652925652769, 0.434651608934052], [-104.42658080750532, -68.31063850594589], [-163.25764022836026, 23.412157621868378], [111.0991164867583, 66.66916661785227], [-68.9008835132417, -66.66916661785227], [16.742359771639727, -23.412157621868378], [-167.22169073854465, 22.795232064542446], [64.65117963861927, 63.88556681562205], [-115.34882036138075, -63.88556681562205], [12.77830926145533, -22.795232064542446], [-113.95357518734275, 47.68675253292531], [124.9718611664322, 5.2846986691155], [-55.02813883356778, -5.2846986691155], [66.04642481265726, -47.68675253292531], [125.14911639010212, -12.016739438669697], [-26.226088531444567, -67.01213436317357], [153.77391146855544, 67.01213436317357], [-54.85088360989789, 12.016739438669697], [51.47671183194325, -6.687372105868504], [-167.54997032413064, -61.49601964758184], [12.45002967586936, 61.49601964758184], [-128.52328816805675, 6.687372105868504], [-179.80002470309577, -62.53944519175878], [59.11111432644218, -38.357756051870055], [-120.88888567355782, 38.357756051870055], [0.1999752969042434, 62.53944519175878], [179.3462426828362, -47.754755867000846], [43.33668561679278, -37.00443767968458], [-136.66331438320722, 37.00443767968458], [-0.6537573171637959, 47.754755867000846], [-83.58339845050097, -19.777758318290758], [98.46684238547628, -44.576171644330465], [-81.53315761452372, 44.576171644330465], [96.41660154949903, 19.777758318290758], [82.58936438370424, 48.56926688525573], [176.36339900318052, -4.955666954594018], [-3.6366009968195026, 4.955666954594018], [-97.41063561629576, -48.56926688525573], [166.22793915216417, 19.10837815374463], [97.81021469595491, 39.37650154257818], [-82.18978530404509, -39.37650154257818], [-13.772060847835855, -19.10837815374463], [168.71746798663062, 19.26241395013523], [79.53537032652838, 35.43602934302072], [-100.46462967347163, -35.43602934302072], [-11.282532013369382, -19.26241395013523], [-134.90482398312574, 60.68454518425028], [114.11582026783539, 0.48896732547671073], [-65.88417973216463, -0.48896732547671073], [45.09517601687428, -60.68454518425028], [32.70927176288983, 56.729673232217415], [35.225796276920775, 31.129788405601037], [-144.77420372307924, -31.129788405601037], [-147.2907282371102, -56.729673232217415], [98.0092903840932, 72.58222162121395], [29.1700022020522, 24.49220491437822], [-150.8299977979478, -24.49220491437822], [-81.99070961590678, -72.58222162121395], [-31.34252427767296, 50.51447630458412], [69.14607876069984, 4.486071403122901], [-110.85392123930018, -4.486071403122901], [148.65747572232706, -50.51447630458412], [-151.64970770051255, -11.733124000951815], [-2.163340701957467, -19.53648483672987], [177.83665929804252, 19.53648483672987], [28.35029229948746, 11.733124000951815], [-103.08861425301178, 14.28498613791986], [130.54194065218573, -39.0139161510662], [-49.45805934781428, 39.0139161510662], [76.91138574698823, -14.28498613791986], [-114.30388566981443, 17.24874548744269], [141.45510310964636, -29.359992210701524], [-38.54489689035363, 29.359992210701524], [65.69611433018558, -17.24874548744269], [-145.71053636536527, 43.47945035522794], [86.59857187962695, 10.079794603109884], [103.43949691971568, 15.327121662832376], [22.77143226117246, 52.254714764489464], [173.9333779138645, -22.699422918160742], [-133.2551992332578, 3.3329986092624577], [-146.22011498648217, 8.586133312600944], [104.64748757814765, -20.5711848999867], [148.3540434555093, -75.06899487820283], [-39.42033764873524, 8.895731892005026], [-52.285162770591405, 18.206552601444557], [33.22046814492347, -8.55989361936792], [-115.32443038574911, -20.65408054243848], [-125.98802185869968, -82.41712781516125], [-164.53669434360398, -67.9745595641093], [-57.74024575257043, -18.720800121852413], [152.7919760134369, 51.35628305032986], [-55.98159835524261, 73.06428151258666], [-95.0359671591155, 77.02624782855695], [59.412244693095445, 45.95486637594401], [-135.13707992246628, 23.86579074778278], [166.84902449983414, 25.642668978294108], [170.3690389748816, 23.827878776518915], [-90.74707875286391, 61.880691113912526], [-85.88968627468934, 33.94206068500483], [4.73822296518184, 30.289873405297428], [9.610763205876632, 51.176894119099636], [-26.22430928138313, 38.59192999342706], [-135.2709511460086, -18.213461626189606], [-85.4033812927503, 10.831331226281234], [-96.80519598784149, 14.71754308719088], [-14.630126679350292, -9.191781993119308], [99.0330037209519, -42.19687980913546], [-5.216874697178545, 3.9941878112049247], [-7.008514666720381, 17.691454601070813], [49.373247621949616, -10.032103486865632], [-127.43344737401866, -32.34769727237713], [99.4430431327635, -68.5604729935042], [128.37223563322442, -60.95267358116404], [-25.043377940163825, -36.68369239284628], [-57.552004555379014, -27.38133671845296], [16.791622429747203, -39.49567801676791], [22.187656383875176, -43.334981977003395], [-10.133657871064278, -9.637856220071445], [-118.29154161306879, -74.34572528746523], [-60.84586416455887, -41.805581366248575], [-72.86746235916385, -42.034110687200865], [11.712074777970214, -57.48657308918094], [-82.03478186604941, 46.53133281205522], [41.48340627134984, 18.03183763672914], [56.86314485706089, 28.401745706833303], [-3.0744986914131305, 38.80754897294286], [-165.69564867055152, -30.290572320245193], [-82.02587134677253, 11.155184307405179], [-100.55698575198095, 17.366361961762017], [45.85427013161707, -15.436498549891704], [-27.092748835460117, -29.625931577719527], [-34.55490996367572, 9.574017899852388], [-40.56328511277915, 14.837254901778328], [12.044050431595414, -1.9873881253600798], [-91.28703033817611, -14.715955927305187], [-39.00100724016557, -51.95583999465292], [-58.48186799717004, -57.608715907889604], [-44.82373084457385, -6.617448831217145], [135.17626915542618, 6.617448831217145], [121.51813200282997, 57.608715907889604], [140.99899275983444, 51.95583999465292], [88.7129696618239, 14.715955927305187], [-167.95594956840458, 1.9873881253600798], [139.43671488722086, -14.837254901778328], [145.44509003632427, -9.574017899852388], [152.9072511645399, 29.625931577719527], [-134.14572986838294, 15.436498549891704], [79.44301424801905, -17.366361961762017], [97.97412865322748, -11.155184307405179], [14.30435132944847, 30.290572320245193], [176.92550130858686, -38.80754897294286], [-123.13685514293913, -28.401745706833303], [-138.51659372865018, -18.03183763672914], [97.96521813395059, -46.53133281205522], [-168.2879252220298, 57.48657308918094], [107.13253764083615, 42.034110687200865], [119.15413583544114, 41.805581366248575], [61.708458386931206, 74.34572528746523], [169.8663421289357, 9.637856220071445], [-157.81234361612482, 43.334981977003395], [-163.20837757025282, 39.49567801676791], [122.44799544462099, 27.38133671845296], [154.95662205983618, 36.68369239284628], [-51.62776436677557, 60.95267358116404], [-80.5569568672365, 68.5604729935042], [52.56655262598134, 32.34769727237713], [-130.62675237805038, 10.032103486865632], [172.99148533327963, -17.691454601070813], [174.78312530282145, -3.9941878112049247], [-80.96699627904812, 42.19687980913546], [165.3698733206497, 9.191781993119308], [83.19480401215853, -14.71754308719088], [94.5966187072497, -10.831331226281234], [44.729048853991394, 18.213461626189606], [153.7756907186169, -38.59192999342706], [-170.38923679412338, -51.176894119099636], [-175.26177703481815, -30.289873405297428], [94.11031372531068, -33.94206068500483], [89.25292124713609, -61.880691113912526], [-9.63096102511841, -23.827878776518915], [-13.15097550016584, -25.642668978294108], [44.86292007753373, -23.86579074778278], [-120.58775530690455, -45.95486637594401], [84.96403284088451, -77.02624782855695], [124.0184016447574, -73.06428151258666], [-27.20802398656309, -51.35628305032986], [122.25975424742957, 18.720800121852413], [15.463305656396045, 67.9745595641093], [54.01197814130033, 82.41712781516125], [64.6755696142509, 20.65408054243848], [-146.77953185507653, 8.55989361936792], [127.71483722940862, -18.206552601444557], [140.57966235126474, -8.895731892005026], [-31.645956544490687, 75.06899487820283], [-75.35251242185235, 20.5711848999867], [33.77988501351783, -8.586133312600944], [46.74480076674223, -3.3329986092624577], [-6.06662208613551, 22.699422918160742], [-157.22856773882756, -52.254714764489464], [-76.56050308028433, -15.327121662832376], [-93.40142812037305, -10.079794603109884], [34.289463634634714, -43.47945035522794]]}}, {"type": "Feature", "properties": {"kind": "grid_edges", "shape": "E8_proj_seed1354", "count": 328, "ids": ["E1", "E2", "E3", "E4", "E5", "E6", "E7", "E8", "E9", "E10", "E11", "E12", "E13", "E14", "E15", "E16", "E17", "E18", "E19", "E20", "E21", "E22", "E23", "E24", "E25", "E26", "E27", "E28", "E29", "E30", "E31", "E32", "E33", "E34", "E35", "E36", "E37", "E38", "E39", "E40", "E41", "E42", "E43", "E44", "E45", "E46", "E47", "E48", "E49", "E50", "E51", "E52", "E53", "E54", "E55", "E56", "E57", "E58", "E59", "E60", "E61", "E62", "E63", "E64", "E65", "E66", "E67", "E68", "E69", "E70", "E71", "E72", "E73", "E74", "E75", "E76", "E77", "E78", "E79", "E80", "E81", "E82", "E83", "E84", "E85", "E86", "E87", "E88", "E89", "E90", "E91", "E92", "E93", "E94", "E95", "E96", "E97", "E98", "E99", "E100", "E101", "E102", "E103", "E104", "E105", "E106", "E107", "E108", "E109", "E110", "E111", "E112", "E113", "E114", "E115", "E116", "E117", "E118", "E119", "E120", "E121", "E122", "E123", "E124", "E125", "E126", "E127", "E128", "E129", "E130", "E131", "E132", "E133", "E134", "E135", "E136", "E137", "E138", "E139", "E140", "E141", "E142", "E143", "E144", "E145", "E146", "E147", "E148", "E149", "E150", "E151", "E152", "E153", "E154", "E155", "E156", "E157", "E158", "E159", "E160", "E161", "E162", "E163", "E164", "E165", "E166", "E167", "E168", "E169", "E170", "E171", "E172", "E173", "E174", "E175", "E176", "E177", "E178", "E179", "E180", "E181", "E182", "E183", "E184", "E185", "E186", "E187", "E188", "E189", "E190", "E191", "E192", "E193", "E194", "E195", "E196", "E197", "E198", "E199", "E200", "E201", "E202", "E203", "E204", "E205", "E206", "E207", "E208", "E209", "E210", "E211", "E212", "E213", "E214", "E215", "E216", "E217", "E218", "E219", "E220", "E221", "E222", "E223", "E224", "E225", "E226", "E227", "E228", "E229", "E230", "E231", "E232", "E233", "E234", "E235", "E236", "E237", "E238", "E239", "E240", "E241", "E242", "E243", "E244", "E245", "E246", "E247", "E248", "E249", "E250", "E251", "E252", "E253", "E254", "E255", "E256", "E257", "E258", "E259", "E260", "E261", "E262", "E263", "E264", "E265", "E266", "E267", "E268", "E269", "E270", "E271", "E272", "E273", "E274", "E275", "E276", "E277", "E278", "E279", "E280", "E281", "E282", "E283", "E284", "E285", "E286", "E287", "E288", "E289", "E290", "E291", "E292", "E293", "E294", "E295", "E296", "E297", "E298", "E299", "E300", "E301", "E302", "E303", "E304", "E305", "E306", "E307", "E308", "E309", "E310", "E311", "E312", "E313", "E314", "E315", "E316", "E317", "E318", "E319", "E320", "E321", "E322", "E323", "E324", "E325", "E326", "E327", "E328"], "pairs": [[0, 9], [0, 117], [0, 127], [0, 143], [1, 147], [1, 165], [2, 186], [3, 11], [3, 31], [3, 42], [3, 234], [4, 24], [4, 112], [4, 122], [5, 66], [5, 71], [5, 131], [5, 140], [6, 14], [6, 22], [6, 188], [7, 11], [7, 196], [7, 204], [7, 205], [8, 17], [8, 113], [8, 118], [8, 119], [8, 145], [9, 13], [9, 143], [10, 72], [11, 202], [11, 207], [12, 88], [12, 114], [12, 130], [13, 99], [14, 88], [14, 96], [14, 97], [14, 209], [16, 144], [17, 102], [17, 127], [17, 143], [17, 159], [18, 23], [18, 27], [18, 209], [18, 221], [19, 26], [19, 102], [19, 202], [19, 230], [20, 130], [20, 154], [20, 156], [21, 127], [22, 92], [22, 108], [22, 178], [22, 184], [22, 202], [22, 232], [23, 27], [23, 201], [23, 235], [24, 48], [24, 98], [24, 108], [24, 155], [25, 114], [26, 177], [26, 220], [27, 109], [27, 206], [29, 55], [29, 62], [29, 136], [29, 137], [29, 138], [29, 203], [30, 38], [30, 43], [30, 208], [31, 39], [31, 71], [31, 173], [33, 41], [33, 45], [33, 201], [33, 203], [34, 42], [34, 160], [34, 165], [35, 234], [35, 238], [36, 49], [37, 132], [38, 160], [38, 168], [38, 170], [38, 208], [41, 195], [42, 88], [42, 160], [42, 209], [42, 228], [43, 167], [43, 215], [43, 226], [44, 136], [45, 95], [45, 117], [45, 191], [46, 216], [46, 218], [47, 149], [48, 106], [48, 118], [48, 141], [49, 113], [49, 126], [49, 137], [49, 138], [49, 182], [50, 70], [50, 86], [50, 104], [50, 108], [50, 160], [50, 166], [52, 77], [52, 81], [52, 211], [54, 199], [55, 87], [55, 174], [55, 205], [55, 207], [56, 218], [57, 181], [57, 182], [58, 136], [58, 233], [59, 199], [61, 89], [61, 106], [61, 115], [61, 146], [62, 71], [62, 76], [62, 141], [63, 77], [63, 79], [63, 107], [63, 234], [63, 235], [63, 238], [67, 81], [67, 141], [67, 143], [67, 197], [67, 207], [67, 229], [67, 231], [67, 239], [68, 115], [68, 122], [70, 202], [70, 228], [71, 134], [71, 138], [71, 162], [71, 167], [71, 194], [72, 93], [72, 144], [72, 163], [72, 208], [74, 185], [74, 186], [74, 234], [80, 150], [80, 182], [81, 133], [82, 92], [82, 124], [83, 86], [83, 185], [84, 145], [85, 150], [85, 179], [85, 224], [86, 142], [87, 200], [88, 104], [88, 105], [88, 144], [88, 145], [88, 200], [88, 216], [89, 114], [89, 195], [89, 226], [91, 106], [92, 120], [92, 138], [92, 144], [93, 129], [93, 177], [95, 110], [95, 175], [95, 191], [95, 199], [96, 108], [96, 211], [99, 222], [99, 229], [99, 230], [100, 152], [101, 133], [102, 218], [103, 151], [103, 183], [104, 225], [105, 128], [105, 176], [105, 188], [105, 193], [106, 108], [107, 206], [107, 219], [110, 145], [110, 157], [111, 205], [112, 129], [113, 121], [113, 147], [114, 116], [114, 120], [114, 130], [114, 150], [115, 122], [115, 127], [115, 135], [115, 147], [116, 119], [116, 180], [118, 126], [118, 150], [118, 178], [120, 122], [122, 158], [125, 133], [127, 187], [129, 137], [129, 165], [130, 166], [131, 134], [131, 147], [131, 162], [131, 167], [131, 195], [133, 167], [134, 150], [136, 201], [137, 143], [137, 193], [138, 143], [138, 171], [138, 186], [138, 200], [139, 155], [142, 143], [143, 199], [144, 146], [144, 160], [144, 176], [145, 225], [146, 150], [146, 208], [147, 171], [151, 213], [153, 155], [154, 155], [157, 221], [159, 171], [160, 162], [160, 228], [164, 168], [165, 225], [166, 170], [166, 214], [169, 235], [170, 172], [171, 234], [173, 175], [175, 207], [178, 214], [179, 203], [183, 223], [184, 187], [184, 202], [185, 188], [192, 225], [193, 225], [195, 201], [196, 199], [196, 236], [197, 207], [199, 230], [203, 207], [205, 233], [206, 234], [208, 217], [212, 222], [216, 224], [223, 238], [224, 227], [225, 227], [225, 233], [230, 231], [230, 234], [231, 237], [234, 238]], "support_counts": [1, 1, 1, 1, 1, 1, 1, 1, 1, 1, 1, 1, 1, 1, 1, 1, 1, 1, 2, 1, 1, 1, 1, 1, 1, 1, 1, 1, 1, 1, 1, 1, 1, 1, 1, 1, 1, 1, 1, 1, 1, 1, 1, 1, 1, 1, 1, 1, 1, 1, 1, 1, 2, 1, 1, 2, 1, 1, 1, 1, 1, 1, 1, 1, 1, 1, 1, 1, 1, 1, 1, 1, 1, 1, 2, 1, 1, 1, 1, 1, 1, 1, 1, 1, 1, 1, 1, 1, 2, 1, 1, 1, 1, 1, 1, 1, 1, 1, 1, 1, 1, 1, 1, 1, 1, 1, 1, 1, 1, 1, 1, 2, 1, 1, 1, 1, 1, 1, 1, 1, 1, 1, 1, 1, 1, 1, 1, 1, 1, 1, 1, 1, 1, 1, 1, 1, 1, 1, 1, 1, 1, 1, 1, 1, 1, 1, 1, 1, 1, 1, 1, 1, 1, 1, 1, 1, 1, 1, 1, 1, 1, 1, 1, 2, 2, 1, 1, 1, 1, 1, 1, 1, 1, 1, 1, 1, 1, 1, 1, 1, 1, 1, 1, 1, 1, 1, 1, 1, 1, 1, 1, 1, 1, 1, 1, 1, 1, 1, 2, 1, 1, 1, 1, 1, 1, 1, 2, 1, 1, 2, 1, 1, 1, 1, 1, 1, 1, 1, 1, 1, 1, 1, 1, 1, 1, 1, 1, 1, 1, 1, 1, 1, 1, 1, 1, 2, 1, 1, 1, 1, 1, 1, 1, 1, 1, 1, 1, 1, 1, 2, 1, 1, 1, 1, 1, 1, 1, 1, 1, 1, 2, 1, 1, 1, 1, 1, 1, 1, 1, 1, 1, 1, 1, 1, 1, 1, 1, 2, 1, 1, 1, 1, 1, 1, 1, 1, 1, 1, 1, 1, 1, 2, 1, 1, 1, 1, 1, 1, 1, 1, 1, 1, 1, 1, 1, 1, 1, 1, 1, 1, 1, 1, 1, 1, 1, 1, 1, 1, 1, 1, 1, 1, 1, 1, 1, 1, 1, 1], "support_class": ["single", "single", "single", "single", "single", "single", "single", "single", "single", "single", "single", "single", "single", "single", "single", "single", "single", "single", "shared", "single", "single", "single", "single", "single", "single", "single", "single", "single", "single", "single", "single", "single", "single", "single", "single", "single", "single", "single", "single", "single", "single", "single", "single", "single", "single", "single", "single", "single", "single", "single", "single", "single", "shared", "single", "single", "shared", "single", "single", "single", "single", "single", "single", "single", "single", "single", "single", "single", "single", "single", "single", "single", "single", "single", "single", "shared", "single", "single", "single", "single", "single", "single", "single", "single", "single", "single", "single", "single", "single", "shared", "single", "single", "single", "single", "single", "single", "single", "single", "single", "single", "single", "single", "single", "single", "single", "single", "single", "single", "single", "single", "single", "single", "shared", "single", "single", "single", "single", "single", "single", "single", "single", "single", "single", "single", "single", "single", "single", "single", "single", "single", "single", "single", "single", "single", "single", "single", "single", "single", "single", "single", "single", "single", "single", "single", "single", "single", "single", "single", "single", "single", "single", "single", "single", "single", "single", "single", "single", "single", "single", "single", "single", "single", "single", "single", "shared", "shared", "single", "single", "single", "single", "single", "single", "single", "single", "single", "single", "single", "single", "single", "single", "single", "single", "single", "single", "single", "single", "single", "single", "single", "single", "single", "single", "single", "single", "single", "single", "single", "single", "single", "shared", "single", "single", "single", "single", "single", "single", "single", "shared", "single", "single", "shared", "single", "single", "single", "single", "single", "single", "single", "single", "single", "single", "single", "single", "single", "single", "single", "single", "single", "single", "single", "single", "single", "single", "single", "single", "single", "shared", "single", "single", "single", "single", "single", "single", "single", "single", "single", "single", "single", "single", "single", "shared", "single", "single", "single", "single", "single", "single", "single", "single", "single", "single", "shared", "single", "single", "single", "single", "single", "single", "single", "single", "single", "single", "single", "single", "single", "single", "single", "single", "shared", "single", "single", "single", "single", "single", "single", "single", "single", "single", "single", "single", "single", "single", "shared", "single", "single", "single", "single", "single", "single", "single", "single", "single", "single", "single", "single", "single", "single", "single", "single", "single", "single", "single", "single", "single", "single", "single", "single", "single", "single", "single", "single", "single", "single", "single", "single", "single", "single", "single", "single"]}, "geometry": {"type": "MultiLineString", "coordinates": [[[-103.40983470941791, 48.06780331501934], [-45.92944289137606, -23.8926595540346]], [[-103.40983470941791, 48.06780331501934], [-133.2551992332578, 3.3329986092624577]], [[-103.40983470941791, 48.06780331501934], [-57.74024575257043, -18.720800121852413]], [[-103.40983470941791, 48.06780331501934], [-14.630126679350292, -9.191781993119308]], [[-26.09754228225436, -33.199757148358444], [49.373247621949616, -10.032103486865632]], [[-26.09754228225436, -33.199757148358444], [-82.02587134677253, 11.155184307405179]], [[153.90245771774565, 33.199757148358444], [97.97412865322748, -11.155184307405179]], [[76.59016529058209, -48.06780331501934], [-36.47665877916955, -73.55255324872044]], [[76.59016529058209, -48.06780331501934], [-27.885046158984263, 10.38908582239147]], [[76.59016529058209, -48.06780331501934], [-68.9008835132417, -66.66916661785227]], [[76.59016529058209, -48.06780331501934], [46.74480076674223, -3.3329986092624577]], [[-23.153652751513384, -63.799876728590064], [-68.18254557969748, 14.977210256391214]], [[-23.153652751513384, -63.799876728590064], [-145.71053636536527, 43.47945035522794]], [[-23.153652751513384, -63.799876728590064], [-52.285162770591405, 18.206552601444557]], [[-57.31032141231855, 35.04181753390182], [-136.66331438320722, 37.00443767968458]], [[-57.31032141231855, 35.04181753390182], [96.41660154949903, 19.777758318290758]], [[-57.31032141231855, 35.04181753390182], [59.412244693095445, 45.95486637594401]], [[-57.31032141231855, 35.04181753390182], [-135.2709511460086, -18.213461626189606]], [[122.68967858768144, -35.04181753390182], [76.06596767070702, 37.125027846042805]], [[122.68967858768144, -35.04181753390182], [171.3791385692301, 0.805021014093764]], [[122.68967858768144, -35.04181753390182], [176.92550130858686, -38.80754897294286]], [[156.8463472484866, 63.799876728590064], [-36.47665877916955, -73.55255324872044]], [[156.8463472484866, 63.799876728590064], [169.8663421289357, 9.637856220071445]], [[156.8463472484866, 63.799876728590064], [-130.62675237805038, 10.032103486865632]], [[156.8463472484866, 63.799876728590064], [172.99148533327963, -17.691454601070813]], [[143.52334122083045, 73.55255324872044], [-10.616964361806707, 5.229581177379851]], [[143.52334122083045, 73.55255324872044], [86.59857187962695, 10.079794603109884]], [[143.52334122083045, 73.55255324872044], [-146.22011498648217, 8.586133312600944]], [[143.52334122083045, 73.55255324872044], [104.64748757814765, -20.5711848999867]], [[143.52334122083045, 73.55255324872044], [-5.216874697178545, 3.9941878112049247]], [[-45.92944289137606, -23.8926595540346], [-103.93403232929298, -37.125027846042805]], [[-45.92944289137606, -23.8926595540346], [-14.630126679350292, -9.191781993119308]], [[134.07055710862394, 23.8926595540346], [82.58936438370424, 48.56926688525573]], [[-36.47665877916955, -73.55255324872044], [-80.5569568672365, 68.5604729935042]], [[-36.47665877916955, -73.55255324872044], [-80.96699627904812, 42.19687980913546]], [[-0.13253767218740065, 25.479115900789264], [32.70927176288983, 56.729673232217415]], [[-0.13253767218740065, 25.479115900789264], [103.43949691971568, 15.327121662832376]], [[-0.13253767218740065, 25.479115900789264], [-95.0359671591155, 77.02624782855695]], [[-103.93403232929298, -37.125027846042805], [148.65747572232706, -50.51447630458412]], [[76.06596767070702, 37.125027846042805], [32.70927176288983, 56.729673232217415]], [[76.06596767070702, 37.125027846042805], [-31.34252427767296, 50.51447630458412]], [[76.06596767070702, 37.125027846042805], [69.14607876069984, 4.486071403122901]], [[76.06596767070702, 37.125027846042805], [83.19480401215853, -14.71754308719088]], [[-88.82321374646267, -19.854141297839686], [99.0330037209519, -42.19687980913546]], [[-10.616964361806707, 5.229581177379851], [177.83665929804252, 19.53648483672987]], [[-10.616964361806707, 5.229581177379851], [-57.74024575257043, -18.720800121852413]], [[-10.616964361806707, 5.229581177379851], [-14.630126679350292, -9.191781993119308]], [[-10.616964361806707, 5.229581177379851], [11.712074777970214, -57.48657308918094]], [[169.3830356381933, -5.229581177379851], [71.52110788497123, 12.821019404097456]], [[169.3830356381933, -5.229581177379851], [111.81745442030252, -14.977210256391214]], [[169.3830356381933, -5.229581177379851], [83.19480401215853, -14.71754308719088]], [[169.3830356381933, -5.229581177379851], [84.96403284088451, -77.02624782855695]], [[91.17678625353734, 19.854141297839686], [-122.48276590504511, 46.649751568401285]], [[91.17678625353734, 19.854141297839686], [177.83665929804252, 19.53648483672987]], [[91.17678625353734, 19.854141297839686], [-80.5569568672365, 68.5604729935042]], [[91.17678625353734, 19.854141297839686], [140.57966235126474, -8.895731892005026]], [[-108.47889211502877, -12.821019404097456], [-95.0359671591155, 77.02624782855695]], [[-108.47889211502877, -12.821019404097456], [22.187656383875176, -43.334981977003395]], [[-108.47889211502877, -12.821019404097456], [-118.29154161306879, -74.34572528746523]], [[-8.620861430769928, -0.805021014093764], [-57.74024575257043, -18.720800121852413]], [[171.3791385692301, 0.805021014093764], [98.0092903840932, 72.58222162121395]], [[171.3791385692301, 0.805021014093764], [-114.30388566981443, 17.24874548744269]], [[171.3791385692301, 0.805021014093764], [140.99899275983444, 51.95583999465292]], [[171.3791385692301, 0.805021014093764], [-134.14572986838294, 15.436498549891704]], [[171.3791385692301, 0.805021014093764], [-80.5569568672365, 68.5604729935042]], [[171.3791385692301, 0.805021014093764], [-75.35251242185235, 20.5711848999867]], [[71.52110788497123, 12.821019404097456], [111.81745442030252, -14.977210256391214]], [[71.52110788497123, 12.821019404097456], [-51.62776436677557, 60.95267358116404]], [[71.52110788497123, 12.821019404097456], [-6.06662208613551, 22.699422918160742]], [[-68.18254557969748, 14.977210256391214], [-113.95357518734275, 47.68675253292531]], [[-68.18254557969748, 14.977210256391214], [-110.85392123930018, -4.486071403122901]], [[-68.18254557969748, 14.977210256391214], [-114.30388566981443, 17.24874548744269]], [[-68.18254557969748, 14.977210256391214], [-10.133657871064278, -9.637856220071445]], [[57.5172340949549, -46.649751568401285], [103.43949691971568, 15.327121662832376]], [[-122.48276590504511, 46.649751568401285], [121.51813200282997, 57.608715907889604]], [[-122.48276590504511, 46.649751568401285], [-120.58775530690455, -45.95486637594401]], [[111.81745442030252, -14.977210256391214], [141.45510310964636, -29.359992210701524]], [[111.81745442030252, -14.977210256391214], [174.78312530282145, -3.9941878112049247]], [[-149.36148749528164, 67.32479127288887], [-54.85088360989789, 12.016739438669697]], [[-149.36148749528164, 67.32479127288887], [-120.88888567355782, 38.357756051870055]], [[-149.36148749528164, 67.32479127288887], [-85.88968627468934, 33.94206068500483]], [[-149.36148749528164, 67.32479127288887], [4.73822296518184, 30.289873405297428]], [[-149.36148749528164, 67.32479127288887], [9.610763205876632, 51.176894119099636]], [[-149.36148749528164, 67.32479127288887], [52.56655262598134, 32.34769727237713]], [[30.638512504718356, -67.32479127288887], [20.31652925652769, 0.434651608934052]], [[30.638512504718356, -67.32479127288887], [16.742359771639727, -23.412157621868378]], [[30.638512504718356, -67.32479127288887], [165.3698733206497, 9.191781993119308]], [[-27.885046158984263, 10.38908582239147], [-104.42658080750532, -68.31063850594589]], [[-27.885046158984263, 10.38908582239147], [96.41660154949903, 19.777758318290758]], [[-27.885046158984263, 10.38908582239147], [-39.00100724016557, -51.95583999465292]], [[-90.81855887591956, 10.234213967503099], [111.0991164867583, 66.66916661785227]], [[-90.81855887591956, 10.234213967503099], [64.65117963861927, 63.88556681562205]], [[-90.81855887591956, 10.234213967503099], [-51.62776436677557, 60.95267358116404]], [[-90.81855887591956, 10.234213967503099], [52.56655262598134, 32.34769727237713]], [[89.18144112408045, -10.234213967503099], [-68.9008835132417, -66.66916661785227]], [[89.18144112408045, -10.234213967503099], [-82.03478186604941, 46.53133281205522]], [[89.18144112408045, -10.234213967503099], [-82.02587134677253, 11.155184307405179]], [[-27.154703007872637, -43.08336826630643], [46.74480076674223, -3.3329986092624577]], [[-27.154703007872637, -43.08336826630643], [-93.40142812037305, -10.079794603109884]], [[75.57341919249468, 68.31063850594589], [124.9718611664322, 5.2846986691155]], [[-159.6834707434723, -0.434651608934052], [-135.13707992246628, 23.86579074778278]], [[20.31652925652769, 0.434651608934052], [-82.03478186604941, 46.53133281205522]], [[20.31652925652769, 0.434651608934052], [-27.092748835460117, -29.625931577719527]], [[20.31652925652769, 0.434651608934052], [-40.56328511277915, 14.837254901778328]], [[20.31652925652769, 0.434651608934052], [165.3698733206497, 9.191781993119308]], [[111.0991164867583, 66.66916661785227], [61.708458386931206, 74.34572528746523]], [[-68.9008835132417, -66.66916661785227], [32.70927176288983, 56.729673232217415]], [[-68.9008835132417, -66.66916661785227], [-82.03478186604941, 46.53133281205522]], [[-68.9008835132417, -66.66916661785227], [83.19480401215853, -14.71754308719088]], [[-68.9008835132417, -66.66916661785227], [-146.77953185507653, 8.55989361936792]], [[16.742359771639727, -23.412157621868378], [45.85427013161707, -15.436498549891704]], [[16.742359771639727, -23.412157621868378], [94.11031372531068, -33.94206068500483]], [[16.742359771639727, -23.412157621868378], [54.01197814130033, 82.41712781516125]], [[-167.22169073854465, 22.795232064542446], [-85.88968627468934, 33.94206068500483]], [[64.65117963861927, 63.88556681562205], [-81.99070961590678, -72.58222162121395]], [[64.65117963861927, 63.88556681562205], [-133.2551992332578, 3.3329986092624577]], [[64.65117963861927, 63.88556681562205], [97.96521813395059, -46.53133281205522]], [[-115.34882036138075, -63.88556681562205], [89.25292124713609, -61.880691113912526]], [[-115.34882036138075, -63.88556681562205], [-13.15097550016584, -25.642668978294108]], [[12.77830926145533, -22.795232064542446], [99.4430431327635, -68.5604729935042]], [[-113.95357518734275, 47.68675253292531], [-49.45805934781428, 39.0139161510662]], [[-113.95357518734275, 47.68675253292531], [-146.22011498648217, 8.586133312600944]], [[-113.95357518734275, 47.68675253292531], [-85.4033812927503, 10.831331226281234]], [[124.9718611664322, 5.2846986691155], [86.59857187962695, 10.079794603109884]], [[124.9718611664322, 5.2846986691155], [-164.53669434360398, -67.9745595641093]], [[124.9718611664322, 5.2846986691155], [4.73822296518184, 30.289873405297428]], [[124.9718611664322, 5.2846986691155], [9.610763205876632, 51.176894119099636]], [[124.9718611664322, 5.2846986691155], [145.44509003632427, -9.574017899852388]], [[-55.02813883356778, -5.2846986691155], [-81.53315761452372, 44.576171644330465]], [[-55.02813883356778, -5.2846986691155], [-65.88417973216463, -0.48896732547671073]], [[-55.02813883356778, -5.2846986691155], [-103.08861425301178, 14.28498613791986]], [[-55.02813883356778, -5.2846986691155], [-114.30388566981443, 17.24874548744269]], [[-55.02813883356778, -5.2846986691155], [-82.03478186604941, 46.53133281205522]], [[-55.02813883356778, -5.2846986691155], [-100.55698575198095, 17.366361961762017]], [[125.14911639010212, -12.016739438669697], [97.81021469595491, 39.37650154257818]], [[125.14911639010212, -12.016739438669697], [79.53537032652838, 35.43602934302072]], [[125.14911639010212, -12.016739438669697], [44.729048853991394, 18.213461626189606]], [[153.77391146855544, 67.01213436317357], [122.44799544462099, 27.38133671845296]], [[-54.85088360989789, 12.016739438669697], [45.09517601687428, -60.68454518425028]], [[-54.85088360989789, 12.016739438669697], [-58.48186799717004, -57.608715907889604]], [[-54.85088360989789, 12.016739438669697], [172.99148533327963, -17.691454601070813]], [[-54.85088360989789, 12.016739438669697], [-80.96699627904812, 42.19687980913546]], [[51.47671183194325, -6.687372105868504], [-13.15097550016584, -25.642668978294108]], [[-167.54997032413064, -61.49601964758184], [139.43671488722086, -14.837254901778328]], [[-167.54997032413064, -61.49601964758184], [145.44509003632427, -9.574017899852388]], [[12.45002967586936, 61.49601964758184], [-85.88968627468934, 33.94206068500483]], [[12.45002967586936, 61.49601964758184], [33.77988501351783, -8.586133312600944]], [[-128.52328816805675, 6.687372105868504], [122.44799544462099, 27.38133671845296]], [[59.11111432644218, -38.357756051870055], [35.225796276920775, 31.129788405601037]], [[59.11111432644218, -38.357756051870055], [-49.45805934781428, 39.0139161510662]], [[59.11111432644218, -38.357756051870055], [22.77143226117246, 52.254714764489464]], [[59.11111432644218, -38.357756051870055], [-7.008514666720381, 17.691454601070813]], [[-120.88888567355782, 38.357756051870055], [96.41660154949903, 19.777758318290758]], [[-120.88888567355782, 38.357756051870055], [166.22793915216417, 19.10837815374463]], [[-120.88888567355782, 38.357756051870055], [-85.4033812927503, 10.831331226281234]], [[0.1999752969042434, 62.53944519175878], [97.81021469595491, 39.37650154257818]], [[0.1999752969042434, 62.53944519175878], [-13.772060847835855, -19.10837815374463]], [[0.1999752969042434, 62.53944519175878], [76.91138574698823, -14.28498613791986]], [[0.1999752969042434, 62.53944519175878], [46.74480076674223, -3.3329986092624577]], [[0.1999752969042434, 62.53944519175878], [-6.06662208613551, 22.699422918160742]], [[0.1999752969042434, 62.53944519175878], [-93.40142812037305, -10.079794603109884]], [[-0.6537573171637959, 47.754755867000846], [79.53537032652838, 35.43602934302072]], [[-0.6537573171637959, 47.754755867000846], [-85.4033812927503, 10.831331226281234]], [[-0.6537573171637959, 47.754755867000846], [-14.630126679350292, -9.191781993119308]], [[-0.6537573171637959, 47.754755867000846], [-157.81234361612482, 43.334981977003395]], [[-0.6537573171637959, 47.754755867000846], [-80.96699627904812, 42.19687980913546]], [[-0.6537573171637959, 47.754755867000846], [127.71483722940862, -18.206552601444557]], [[-0.6537573171637959, 47.754755867000846], [-31.645956544490687, 75.06899487820283]], [[-0.6537573171637959, 47.754755867000846], [34.289463634634714, -43.47945035522794]], [[-83.58339845050097, -19.777758318290758], [22.77143226117246, 52.254714764489464]], [[-83.58339845050097, -19.777758318290758], [-52.285162770591405, 18.206552601444557]], [[-81.53315761452372, 44.576171644330465], [-80.5569568672365, 68.5604729935042]], [[-81.53315761452372, 44.576171644330465], [-146.77953185507653, 8.55989361936792]], [[96.41660154949903, 19.777758318290758], [170.3690389748816, 23.827878776518915]], [[96.41660154949903, 19.777758318290758], [9.610763205876632, 51.176894119099636]], [[96.41660154949903, 19.777758318290758], [56.86314485706089, 28.401745706833303]], [[96.41660154949903, 19.777758318290758], [45.85427013161707, -15.436498549891704]], [[96.41660154949903, 19.777758318290758], [119.15413583544114, 41.805581366248575]], [[82.58936438370424, 48.56926688525573], [29.1700022020522, 24.49220491437822]], [[82.58936438370424, 48.56926688525573], [99.0330037209519, -42.19687980913546]], [[82.58936438370424, 48.56926688525573], [-3.0744986914131305, 38.80754897294286]], [[82.58936438370424, 48.56926688525573], [165.3698733206497, 9.191781993119308]], [[-3.6366009968195026, 4.955666954594018], [79.44301424801905, -17.366361961762017]], [[-3.6366009968195026, 4.955666954594018], [97.97412865322748, -11.155184307405179]], [[-3.6366009968195026, 4.955666954594018], [46.74480076674223, -3.3329986092624577]], [[168.71746798663062, 19.26241395013523], [128.37223563322442, -60.95267358116404]], [[168.71746798663062, 19.26241395013523], [145.44509003632427, -9.574017899852388]], [[79.53537032652838, 35.43602934302072], [166.84902449983414, 25.642668978294108]], [[-100.46462967347163, -35.43602934302072], [98.0092903840932, 72.58222162121395]], [[-100.46462967347163, -35.43602934302072], [-115.32443038574911, -20.65408054243848]], [[-11.282532013369382, -19.26241395013523], [-65.88417973216463, -0.48896732547671073]], [[-11.282532013369382, -19.26241395013523], [79.44301424801905, -17.366361961762017]], [[-134.90482398312574, 60.68454518425028], [-5.216874697178545, 3.9941878112049247]], [[114.11582026783539, 0.48896732547671073], [128.37223563322442, -60.95267358116404]], [[114.11582026783539, 0.48896732547671073], [88.7129696618239, 14.715955927305187]], [[114.11582026783539, 0.48896732547671073], [122.25975424742957, 18.720800121852413]], [[-65.88417973216463, -0.48896732547671073], [-96.80519598784149, 14.71754308719088]], [[45.09517601687428, -60.68454518425028], [154.95662205983618, 36.68369239284628]], [[32.70927176288983, 56.729673232217415], [-103.08861425301178, 14.28498613791986]], [[32.70927176288983, 56.729673232217415], [130.54194065218573, -39.0139161510662]], [[32.70927176288983, 56.729673232217415], [99.0330037209519, -42.19687980913546]], [[32.70927176288983, 56.729673232217415], [-5.216874697178545, 3.9941878112049247]], [[32.70927176288983, 56.729673232217415], [154.95662205983618, 36.68369239284628]], [[32.70927176288983, 56.729673232217415], [89.25292124713609, -61.880691113912526]], [[35.225796276920775, 31.129788405601037], [103.43949691971568, 15.327121662832376]], [[35.225796276920775, 31.129788405601037], [61.708458386931206, 74.34572528746523]], [[35.225796276920775, 31.129788405601037], [54.01197814130033, 82.41712781516125]], [[-147.2907282371102, -56.729673232217415], [-49.45805934781428, 39.0139161510662]], [[98.0092903840932, 72.58222162121395], [148.3540434555093, -75.06899487820283]], [[98.0092903840932, 72.58222162121395], [9.610763205876632, 51.176894119099636]], [[98.0092903840932, 72.58222162121395], [99.0330037209519, -42.19687980913546]], [[29.1700022020522, 24.49220491437822], [-55.98159835524261, 73.06428151258666]], [[29.1700022020522, 24.49220491437822], [121.51813200282997, 57.608715907889604]], [[-81.99070961590678, -72.58222162121395], [-38.54489689035363, 29.359992210701524]], [[-81.99070961590678, -72.58222162121395], [-44.82373084457385, -6.617448831217145]], [[-81.99070961590678, -72.58222162121395], [97.96521813395059, -46.53133281205522]], [[-81.99070961590678, -72.58222162121395], [122.44799544462099, 27.38133671845296]], [[-31.34252427767296, 50.51447630458412], [-114.30388566981443, 17.24874548744269]], [[-31.34252427767296, 50.51447630458412], [44.729048853991394, 18.213461626189606]], [[148.65747572232706, -50.51447630458412], [124.0184016447574, -73.06428151258666]], [[148.65747572232706, -50.51447630458412], [127.71483722940862, -18.206552601444557]], [[148.65747572232706, -50.51447630458412], [140.57966235126474, -8.895731892005026]], [[-151.64970770051255, -11.733124000951815], [-57.552004555379014, -27.38133671845296]], [[-2.163340701957467, -19.53648483672987], [166.84902449983414, 25.642668978294108]], [[177.83665929804252, 19.53648483672987], [-13.15097550016584, -25.642668978294108]], [[28.35029229948746, 11.733124000951815], [-25.043377940163825, -36.68369239284628]], [[28.35029229948746, 11.733124000951815], [152.9072511645399, 29.625931577719527]], [[-103.08861425301178, 14.28498613791986], [15.463305656396045, 67.9745595641093]], [[130.54194065218573, -39.0139161510662], [152.7919760134369, 51.35628305032986]], [[130.54194065218573, -39.0139161510662], [135.17626915542618, 6.617448831217145]], [[130.54194065218573, -39.0139161510662], [176.92550130858686, -38.80754897294286]], [[130.54194065218573, -39.0139161510662], [107.13253764083615, 42.034110687200865]], [[-49.45805934781428, 39.0139161510662], [-114.30388566981443, 17.24874548744269]], [[76.91138574698823, -14.28498613791986], [174.78312530282145, -3.9941878112049247]], [[76.91138574698823, -14.28498613791986], [44.86292007753373, -23.86579074778278]], [[-38.54489689035363, 29.359992210701524], [-5.216874697178545, 3.9941878112049247]], [[-38.54489689035363, 29.359992210701524], [-60.84586416455887, -41.805581366248575]], [[65.69611433018558, -17.24874548744269], [172.99148533327963, -17.691454601070813]], [[-145.71053636536527, 43.47945035522794], [-55.98159835524261, 73.06428151258666]], [[86.59857187962695, 10.079794603109884], [-39.42033764873524, 8.895731892005026]], [[86.59857187962695, 10.079794603109884], [49.373247621949616, -10.032103486865632]], [[103.43949691971568, 15.327121662832376], [173.9333779138645, -22.699422918160742]], [[103.43949691971568, 15.327121662832376], [148.3540434555093, -75.06899487820283]], [[103.43949691971568, 15.327121662832376], [-95.0359671591155, 77.02624782855695]], [[103.43949691971568, 15.327121662832376], [128.37223563322442, -60.95267358116404]], [[22.77143226117246, 52.254714764489464], [-52.285162770591405, 18.206552601444557]], [[22.77143226117246, 52.254714764489464], [-57.74024575257043, -18.720800121852413]], [[22.77143226117246, 52.254714764489464], [-90.74707875286391, 61.880691113912526]], [[22.77143226117246, 52.254714764489464], [49.373247621949616, -10.032103486865632]], [[173.9333779138645, -22.699422918160742], [104.64748757814765, -20.5711848999867]], [[173.9333779138645, -22.699422918160742], [-167.95594956840458, 1.9873881253600798]], [[-146.22011498648217, 8.586133312600944], [-164.53669434360398, -67.9745595641093]], [[-146.22011498648217, 8.586133312600944], [128.37223563322442, -60.95267358116404]], [[-146.22011498648217, 8.586133312600944], [140.99899275983444, 51.95583999465292]], [[148.3540434555093, -75.06899487820283], [-52.285162770591405, 18.206552601444557]], [[-52.285162770591405, 18.206552601444557], [-72.86746235916385, -42.034110687200865]], [[-125.98802185869968, -82.41712781516125], [166.84902449983414, 25.642668978294108]], [[-57.74024575257043, -18.720800121852413], [14.30435132944847, 30.290572320245193]], [[-55.98159835524261, 73.06428151258666], [4.73822296518184, 30.289873405297428]], [[-55.98159835524261, 73.06428151258666], [-82.02587134677253, 11.155184307405179]], [[-95.0359671591155, 77.02624782855695], [-100.55698575198095, 17.366361961762017]], [[59.412244693095445, 45.95486637594401], [170.3690389748816, 23.827878776518915]], [[59.412244693095445, 45.95486637594401], [49.373247621949616, -10.032103486865632]], [[59.412244693095445, 45.95486637594401], [56.86314485706089, 28.401745706833303]], [[59.412244693095445, 45.95486637594401], [45.85427013161707, -15.436498549891704]], [[59.412244693095445, 45.95486637594401], [61.708458386931206, 74.34572528746523]], [[166.84902449983414, 25.642668978294108], [45.85427013161707, -15.436498549891704]], [[170.3690389748816, 23.827878776518915], [128.37223563322442, -60.95267358116404]], [[-85.88968627468934, 33.94206068500483], [-51.62776436677557, 60.95267358116404]], [[4.73822296518184, 30.289873405297428], [-14.630126679350292, -9.191781993119308]], [[4.73822296518184, 30.289873405297428], [107.13253764083615, 42.034110687200865]], [[9.610763205876632, 51.176894119099636], [-14.630126679350292, -9.191781993119308]], [[9.610763205876632, 51.176894119099636], [12.044050431595414, -1.9873881253600798]], [[9.610763205876632, 51.176894119099636], [97.97412865322748, -11.155184307405179]], [[9.610763205876632, 51.176894119099636], [154.95662205983618, 36.68369239284628]], [[-26.22430928138313, 38.59192999342706], [-10.133657871064278, -9.637856220071445]], [[-96.80519598784149, 14.71754308719088], [-14.630126679350292, -9.191781993119308]], [[-14.630126679350292, -9.191781993119308], [122.44799544462099, 27.38133671845296]], [[99.0330037209519, -42.19687980913546], [-7.008514666720381, 17.691454601070813]], [[99.0330037209519, -42.19687980913546], [-82.03478186604941, 46.53133281205522]], [[99.0330037209519, -42.19687980913546], [135.17626915542618, 6.617448831217145]], [[-5.216874697178545, 3.9941878112049247], [15.463305656396045, 67.9745595641093]], [[-7.008514666720381, 17.691454601070813], [128.37223563322442, -60.95267358116404]], [[-7.008514666720381, 17.691454601070813], [165.3698733206497, 9.191781993119308]], [[49.373247621949616, -10.032103486865632], [12.044050431595414, -1.9873881253600798]], [[-25.043377940163825, -36.68369239284628], [-170.38923679412338, -51.176894119099636]], [[16.791622429747203, -39.49567801676791], [-10.133657871064278, -9.637856220071445]], [[22.187656383875176, -43.334981977003395], [-10.133657871064278, -9.637856220071445]], [[-60.84586416455887, -41.805581366248575], [84.96403284088451, -77.02624782855695]], [[11.712074777970214, -57.48657308918094], [12.044050431595414, -1.9873881253600798]], [[-82.03478186604941, 46.53133281205522], [56.86314485706089, 28.401745706833303]], [[-82.03478186604941, 46.53133281205522], [-146.77953185507653, 8.55989361936792]], [[-165.69564867055152, -30.290572320245193], [-27.092748835460117, -29.625931577719527]], [[-82.02587134677253, 11.155184307405179], [15.463305656396045, 67.9745595641093]], [[-100.55698575198095, 17.366361961762017], [-40.56328511277915, 14.837254901778328]], [[-100.55698575198095, 17.366361961762017], [-175.26177703481815, -30.289873405297428]], [[-34.55490996367572, 9.574017899852388], [-6.06662208613551, 22.699422918160742]], [[-40.56328511277915, 14.837254901778328], [-91.28703033817611, -14.715955927305187]], [[12.044050431595414, -1.9873881253600798], [46.74480076674223, -3.3329986092624577]], [[-39.00100724016557, -51.95583999465292], [-44.82373084457385, -6.617448831217145]], [[-44.82373084457385, -6.617448831217145], [-80.96699627904812, 42.19687980913546]], [[140.99899275983444, 51.95583999465292], [-175.26177703481815, -30.289873405297428]], [[88.7129696618239, 14.715955927305187], [52.56655262598134, 32.34769727237713]], [[152.9072511645399, 29.625931577719527], [-27.20802398656309, -51.35628305032986]], [[-134.14572986838294, 15.436498549891704], [14.30435132944847, 30.290572320245193]], [[-134.14572986838294, 15.436498549891704], [-80.5569568672365, 68.5604729935042]], [[79.44301424801905, -17.366361961762017], [176.92550130858686, -38.80754897294286]], [[-168.2879252220298, 57.48657308918094], [15.463305656396045, 67.9745595641093]], [[107.13253764083615, 42.034110687200865], [15.463305656396045, 67.9745595641093]], [[61.708458386931206, 74.34572528746523], [-51.62776436677557, 60.95267358116404]], [[169.8663421289357, 9.637856220071445], [122.44799544462099, 27.38133671845296]], [[169.8663421289357, 9.637856220071445], [-157.22856773882756, -52.254714764489464]], [[-157.81234361612482, 43.334981977003395], [-80.96699627904812, 42.19687980913546]], [[122.44799544462099, 27.38133671845296], [140.57966235126474, -8.895731892005026]], [[52.56655262598134, 32.34769727237713], [-80.96699627904812, 42.19687980913546]], [[172.99148533327963, -17.691454601070813], [33.77988501351783, -8.586133312600944]], [[174.78312530282145, -3.9941878112049247], [46.74480076674223, -3.3329986092624577]], [[165.3698733206497, 9.191781993119308], [-9.63096102511841, -23.827878776518915]], [[153.7756907186169, -38.59192999342706], [124.0184016447574, -73.06428151258666]], [[89.25292124713609, -61.880691113912526], [122.25975424742957, 18.720800121852413]], [[-27.20802398656309, -51.35628305032986], [-93.40142812037305, -10.079794603109884]], [[122.25975424742957, 18.720800121852413], [64.6755696142509, 20.65408054243848]], [[15.463305656396045, 67.9745595641093], [64.6755696142509, 20.65408054243848]], [[15.463305656396045, 67.9745595641093], [33.77988501351783, -8.586133312600944]], [[140.57966235126474, -8.895731892005026], [-31.645956544490687, 75.06899487820283]], [[140.57966235126474, -8.895731892005026], [46.74480076674223, -3.3329986092624577]], [[-31.645956544490687, 75.06899487820283], [-76.56050308028433, -15.327121662832376]], [[46.74480076674223, -3.3329986092624577], [-93.40142812037305, -10.079794603109884]]]}}]}