{"type": "FeatureCollection", "name": "E8_proj_seed904 sites", "properties": {"shape": "E8_proj_seed904", "lock_lat": 75.0, "lock_lon": 15.0, "bearing": 10.0, "thresholds": {"close": 0.09892531138990063, "medium": 0.13489815189531904, "close_km": 11.0, "medium_km": 15.0, "dist_mode": "edge_exact"}}, "features": [{"type": "Feature", "properties": {"kind": "site", "name": "Glastonbury Tor", "dist_deg": 0.0528788, "dist_km": 5.88, "class": "close", "dist_source": "ks_full_grid", "edges_supported": 1}, "geometry": {"type": "Point", "coordinates": [-2.7, 51.0]}}, {"type": "Feature", "properties": {"kind": "site", "name": "Shaftesbury", "dist_deg": 0.0101024, "dist_km": 1.123, "class": "close", "dist_source": "ks_full_grid", "edges_supported": 1}, "geometry": {"type": "Point", "coordinates": [-2.195, 51.0]}}, {"type": "Feature", "properties": {"kind": "site", "name": "Brandenburg Gate", "dist_deg": 0.0476685, "dist_km": 5.301, "class": "close", "dist_source": "ks_full_grid", "edges_supported": 4}, "geometry": {"type": "Point", "coordinates": [13.3778, 52.5164]}}, {"type": "Feature", "properties": {"kind": "site", "name": "Placa de Catalunya", "dist_deg": 0.0061617, "dist_km": 0.685, "class": "close", "dist_source": "ks_full_grid", "edges_supported": 3}, "geometry": {"type": "Point", "coordinates": [2.17, 41.387]}}, {"type": "Feature", "properties": {"kind": "site", "name": "Island of the Sun", "dist_deg": 0.0758026, "dist_km": 8.429, "class": "close", "dist_source": "ks_full_grid", "edges_supported": 1}, "geometry": {"type": "Point", "coordinates": [-69.1717, -16.0167]}}, {"type": "Feature", "properties": {"kind": "site", "name": "Plaza Mayor Lima", "dist_deg": 0.0038036, "dist_km": 0.423, "class": "close", "dist_source": "ks_full_grid", "edges_supported": 3}, "geometry": {"type": "Point", "coordinates": [-77.0306, -12.0458]}}, {"type": "Feature", "properties": {"kind": "site", "name": "Rio Ucayali-Rio Maranon confluence", "dist_deg": 0.0114238, "dist_km": 1.27, "class": "close", "dist_source": "ks_full_grid", "edges_supported": 4}, "geometry": {"type": "Point", "coordinates": [-73.45, -4.45]}}, {"type": "Feature", "properties": {"kind": "site", "name": "Uluru", "dist_deg": 0.0039164, "dist_km": 0.435, "class": "close", "dist_source": "ks_full_grid", "edges_supported": 8}, "geometry": {"type": "Point", "coordinates": [130.9917, -25.3433]}}, {"type": "Feature", "properties": {"kind": "site", "name": "Kata Tjuta", "dist_deg": 0.0081078, "dist_km": 0.901, "class": "close", "dist_source": "ks_full_grid", "edges_supported": 4}, "geometry": {"type": "Point", "coordinates": [130.7528, -25.2981]}}, {"type": "Feature", "properties": {"kind": "site", "name": "Nourlangie Rock", "dist_deg": 0.022262, "dist_km": 2.475, "class": "close", "dist_source": "ks_full_grid", "edges_supported": 4}, "geometry": {"type": "Point", "coordinates": [132.8111, -12.8669]}}, {"type": "Feature", "properties": {"kind": "site", "name": "Hamelin Pool", "dist_deg": 0.002001, "dist_km": 0.223, "class": "close", "dist_source": "ks_full_grid", "edges_supported": 1}, "geometry": {"type": "Point", "coordinates": [114.2003, -26.435]}}, {"type": "Feature", "properties": {"kind": "site", "name": "Tirta Empul", "dist_deg": 0.0317062, "dist_km": 3.526, "class": "close", "dist_source": "ks_full_grid", "edges_supported": 1}, "geometry": {"type": "Point", "coordinates": [115.3111, -8.4167]}}, {"type": "Feature", "properties": {"kind": "site", "name": "Borobudur", "dist_deg": 0.05796, "dist_km": 6.445, "class": "close", "dist_source": "ks_full_grid", "edges_supported": 2}, "geometry": {"type": "Point", "coordinates": [110.2042, -7.6081]}}, {"type": "Feature", "properties": {"kind": "site", "name": "Mount Kinabalu", "dist_deg": 0.0365108, "dist_km": 4.06, "class": "close", "dist_source": "ks_full_grid", "edges_supported": 2}, "geometry": {"type": "Point", "coordinates": [116.5628, 6.0744]}}, {"type": "Feature", "properties": {"kind": "site", "name": "Mount Kailash", "dist_deg": 0.0141072, "dist_km": 1.569, "class": "close", "dist_source": "ks_full_grid", "edges_supported": 4}, "geometry": {"type": "Point", "coordinates": [81.3125, 31.0675]}}, {"type": "Feature", "properties": {"kind": "site", "name": "Karakul Lake", "dist_deg": 0.0956786, "dist_km": 10.639, "class": "close", "dist_source": "ks_full_grid", "edges_supported": 1}, "geometry": {"type": "Point", "coordinates": [73.4886, 39.0217]}}, {"type": "Feature", "properties": {"kind": "site", "name": "Sundarbans-Sagar Island", "dist_deg": 0.015182, "dist_km": 1.688, "class": "close", "dist_source": "ks_full_grid", "edges_supported": 3}, "geometry": {"type": "Point", "coordinates": [88.2953, 22.5564]}}, {"type": "Feature", "properties": {"kind": "site", "name": "Mount Shasta", "dist_deg": 0.0091321, "dist_km": 1.015, "class": "close", "dist_source": "ks_full_grid", "edges_supported": 3}, "geometry": {"type": "Point", "coordinates": [-122.31, 41.31]}}, {"type": "Feature", "properties": {"kind": "site", "name": "Kachina Peaks Wilderness", "dist_deg": 0.0407459, "dist_km": 4.531, "class": "close", "dist_source": "ks_full_grid", "edges_supported": 2}, "geometry": {"type": "Point", "coordinates": [-111.6625, 35.3394]}}, {"type": "Feature", "properties": {"kind": "site", "name": "Golden Hinde", "dist_deg": 0.0160477, "dist_km": 1.784, "class": "close", "dist_source": "ks_full_grid", "edges_supported": 2}, "geometry": {"type": "Point", "coordinates": [-125.4494, 49.6506]}}, {"type": "Feature", "properties": {"kind": "site", "name": "El Tule-Palenque", "dist_deg": 0.0367729, "dist_km": 4.089, "class": "close", "dist_source": "ks_full_grid", "edges_supported": 1}, "geometry": {"type": "Point", "coordinates": [-91.9817, 17.51]}}, {"type": "Feature", "properties": {"kind": "site", "name": "Laguna Corcovado", "dist_deg": 0.0088302, "dist_km": 0.982, "class": "close", "dist_source": "ks_full_grid", "edges_supported": 4}, "geometry": {"type": "Point", "coordinates": [-83.6167, 8.55]}}, {"type": "Feature", "properties": {"kind": "site", "name": "Cerro de la Silla", "dist_deg": 0.0473366, "dist_km": 5.264, "class": "close", "dist_source": "ks_full_grid", "edges_supported": 1}, "geometry": {"type": "Point", "coordinates": [-100.3092, 25.6733]}}, {"type": "Feature", "properties": {"kind": "site", "name": "Mount Fuji", "dist_deg": 0.0186903, "dist_km": 2.078, "class": "close", "dist_source": "ks_full_grid", "edges_supported": 1}, "geometry": {"type": "Point", "coordinates": [138.7317, 35.3628]}}, {"type": "Feature", "properties": {"kind": "site", "name": "Mani San", "dist_deg": 0.0153665, "dist_km": 1.709, "class": "close", "dist_source": "ks_full_grid", "edges_supported": 2}, "geometry": {"type": "Point", "coordinates": [126.4347, 37.6117]}}, {"type": "Feature", "properties": {"kind": "site", "name": "Sefa Utaki", "dist_deg": 0.0110812, "dist_km": 1.232, "class": "close", "dist_source": "ks_full_grid", "edges_supported": 3}, "geometry": {"type": "Point", "coordinates": [127.7669, 26.1444]}}, {"type": "Feature", "properties": {"kind": "site", "name": "Haleakala Crater", "dist_deg": 0.0152315, "dist_km": 1.694, "class": "close", "dist_source": "ks_full_grid", "edges_supported": 4}, "geometry": {"type": "Point", "coordinates": [-156.1828, 20.7186]}}, {"type": "Feature", "properties": {"kind": "site", "name": "Midway Atoll", "dist_deg": 0.0627467, "dist_km": 6.977, "class": "close", "dist_source": "ks_full_grid", "edges_supported": 1}, "geometry": {"type": "Point", "coordinates": [-177.3833, 28.25]}}, {"type": "Feature", "properties": {"kind": "site", "name": "Mauna Loa", "dist_deg": 0.0207787, "dist_km": 2.311, "class": "close", "dist_source": "ks_full_grid", "edges_supported": 4}, "geometry": {"type": "Point", "coordinates": [-155.5356, 19.7569]}}, {"type": "Feature", "properties": {"kind": "site", "name": "Lake Rotopounamu", "dist_deg": 0.0128476, "dist_km": 1.429, "class": "close", "dist_source": "ks_full_grid", "edges_supported": 4}, "geometry": {"type": "Point", "coordinates": [175.7372, -39.0258]}}, {"type": "Feature", "properties": {"kind": "site", "name": "Mount Panié", "dist_deg": 0.0706739, "dist_km": 7.859, "class": "close", "dist_source": "ks_full_grid", "edges_supported": 3}, "geometry": {"type": "Point", "coordinates": [164.7706, -20.5894]}}, {"type": "Feature", "properties": {"kind": "site", "name": "Macquarie Island", "dist_deg": 0.0045481, "dist_km": 0.506, "class": "close", "dist_source": "ks_full_grid", "edges_supported": 3}, "geometry": {"type": "Point", "coordinates": [158.8956, -54.5947]}}, {"type": "Feature", "properties": {"kind": "site", "name": "Great Pyramid of Giza", "dist_deg": 0.0263219, "dist_km": 2.927, "class": "close", "dist_source": "ks_full_grid", "edges_supported": 3}, "geometry": {"type": "Point", "coordinates": [31.1342, 29.9792]}}, {"type": "Feature", "properties": {"kind": "site", "name": "Mount Sinai", "dist_deg": 0.063989, "dist_km": 7.115, "class": "close", "dist_source": "ks_full_grid", "edges_supported": 2}, "geometry": {"type": "Point", "coordinates": [33.973, 28.5394]}}, {"type": "Feature", "properties": {"kind": "site", "name": "Mount of Olives", "dist_deg": 0.0189775, "dist_km": 2.11, "class": "close", "dist_source": "ks_full_grid", "edges_supported": 2}, "geometry": {"type": "Point", "coordinates": [35.2439, 31.778]}}, {"type": "Feature", "properties": {"kind": "site", "name": "Mecca", "dist_deg": 0.163402, "dist_km": 18.169, "class": "far", "dist_source": "ks_full_grid", "edges_supported": 0}, "geometry": {"type": "Point", "coordinates": [39.8147, 21.4275]}}, {"type": "Feature", "properties": {"kind": "site", "name": "Takht-e Soleiman", "dist_deg": 0.0591514, "dist_km": 6.577, "class": "close", "dist_source": "ks_full_grid", "edges_supported": 1}, "geometry": {"type": "Point", "coordinates": [47.2361, 36.6033]}}, {"type": "Feature", "properties": {"kind": "site", "name": "Table Mountain", "dist_deg": 0.0240651, "dist_km": 2.676, "class": "close", "dist_source": "ks_full_grid", "edges_supported": 3}, "geometry": {"type": "Point", "coordinates": [18.43, -33.9247]}}, {"type": "Feature", "properties": {"kind": "site", "name": "Pilansberg", "dist_deg": 0.0515419, "dist_km": 5.731, "class": "close", "dist_source": "ks_full_grid", "edges_supported": 1}, "geometry": {"type": "Point", "coordinates": [27.0322, -25.2294]}}, {"type": "Feature", "properties": {"kind": "site", "name": "Mont-aux-Sources", "dist_deg": 0.0491771, "dist_km": 5.468, "class": "close", "dist_source": "ks_full_grid", "edges_supported": 3}, "geometry": {"type": "Point", "coordinates": [28.8847, -28.7592]}}, {"type": "Feature", "properties": {"kind": "site", "name": "Sergiev Posad", "dist_deg": 0.0156176, "dist_km": 1.737, "class": "close", "dist_source": "ks_full_grid", "edges_supported": 4}, "geometry": {"type": "Point", "coordinates": [37.6175, 55.7558]}}, {"type": "Feature", "properties": {"kind": "site", "name": "Mount Konzhakovsky Kamen", "dist_deg": 0.1143793, "dist_km": 12.718, "class": "medium", "dist_source": "ks_full_grid", "edges_supported": 0}, "geometry": {"type": "Point", "coordinates": [60.0, 59.0]}}, {"type": "Feature", "properties": {"kind": "site", "name": "Mount Elbrus", "dist_deg": 0.0384893, "dist_km": 4.28, "class": "close", "dist_source": "ks_full_grid", "edges_supported": 3}, "geometry": {"type": "Point", "coordinates": [42.4392, 43.355]}}, {"type": "Feature", "properties": {"kind": "site", "name": "Po Lin Monastery", "dist_deg": 0.0456616, "dist_km": 5.077, "class": "close", "dist_source": "ks_full_grid", "edges_supported": 3}, "geometry": {"type": "Point", "coordinates": [113.9078, 22.2556]}}, {"type": "Feature", "properties": {"kind": "site", "name": "Emei Shan", "dist_deg": 0.0010066, "dist_km": 0.112, "class": "close", "dist_source": "ks_full_grid", "edges_supported": 2}, "geometry": {"type": "Point", "coordinates": [104.0756, 30.6511]}}, {"type": "Feature", "properties": {"kind": "site", "name": "Mount Pulag", "dist_deg": 0.0163881, "dist_km": 1.822, "class": "close", "dist_source": "ks_full_grid", "edges_supported": 2}, "geometry": {"type": "Point", "coordinates": [120.8836, 16.5836]}}, {"type": "Feature", "properties": {"kind": "site", "name": "Niagara Falls", "dist_deg": 0.0084067, "dist_km": 0.935, "class": "close", "dist_source": "ks_full_grid", "edges_supported": 2}, "geometry": {"type": "Point", "coordinates": [-79.0853, 43.0903]}}, {"type": "Feature", "properties": {"kind": "site", "name": "Pilot Knob State Park", "dist_deg": 0.0046472, "dist_km": 0.517, "class": "close", "dist_source": "ks_full_grid", "edges_supported": 3}, "geometry": {"type": "Point", "coordinates": [-93.5533, 43.2528]}}, {"type": "Feature", "properties": {"kind": "site", "name": "Akimiski Island", "dist_deg": 0.0837047, "dist_km": 9.307, "class": "close", "dist_source": "ks_full_grid", "edges_supported": 1}, "geometry": {"type": "Point", "coordinates": [-81.3172, 52.9872]}}, {"type": "Feature", "properties": {"kind": "site", "name": "Mount Dimlang", "dist_deg": 0.0820916, "dist_km": 9.128, "class": "close", "dist_source": "ks_full_grid", "edges_supported": 2}, "geometry": {"type": "Point", "coordinates": [11.75, 8.5]}}, {"type": "Feature", "properties": {"kind": "site", "name": "Lake Chad", "dist_deg": 0.0324282, "dist_km": 3.606, "class": "close", "dist_source": "ks_full_grid", "edges_supported": 4}, "geometry": {"type": "Point", "coordinates": [14.1, 13.3303]}}, {"type": "Feature", "properties": {"kind": "site", "name": "Isangila Falls", "dist_deg": 0.0115923, "dist_km": 1.289, "class": "close", "dist_source": "ks_full_grid", "edges_supported": 5}, "geometry": {"type": "Point", "coordinates": [12.0, -6.0]}}, {"type": "Feature", "properties": {"kind": "site", "name": "Marco Zero Recife", "dist_deg": 0.0050215, "dist_km": 0.558, "class": "close", "dist_source": "ks_full_grid", "edges_supported": 2}, "geometry": {"type": "Point", "coordinates": [-34.8711, -8.0633]}}, {"type": "Feature", "properties": {"kind": "site", "name": "Peter and Paul Rocks", "dist_deg": 0.1030975, "dist_km": 11.464, "class": "medium", "dist_source": "ks_full_grid", "edges_supported": 0}, "geometry": {"type": "Point", "coordinates": [-29.3353, -0.9169]}}, {"type": "Feature", "properties": {"kind": "site", "name": "Parnaiba River Headwaters", "dist_deg": 0.0049961, "dist_km": 0.555, "class": "close", "dist_source": "ks_full_grid", "edges_supported": 3}, "geometry": {"type": "Point", "coordinates": [-43.1747, -8.3231]}}, {"type": "Feature", "properties": {"kind": "site", "name": "Plaza de Mayo", "dist_deg": 0.0213619, "dist_km": 2.375, "class": "close", "dist_source": "ks_full_grid", "edges_supported": 1}, "geometry": {"type": "Point", "coordinates": [-58.3722, -34.6083]}}, {"type": "Feature", "properties": {"kind": "site", "name": "Iguazu Falls", "dist_deg": 0.0217361, "dist_km": 2.417, "class": "close", "dist_source": "ks_full_grid", "edges_supported": 2}, "geometry": {"type": "Point", "coordinates": [-54.4453, -25.6803]}}, {"type": "Feature", "properties": {"kind": "site", "name": "Plaza de Armas Santiago", "dist_deg": 0.0092018, "dist_km": 1.023, "class": "close", "dist_source": "ks_full_grid", "edges_supported": 3}, "geometry": {"type": "Point", "coordinates": [-70.6519, -33.4431]}}, {"type": "Feature", "properties": {"kind": "site", "name": "Jebel Toubkal", "dist_deg": 0.0392825, "dist_km": 4.368, "class": "close", "dist_source": "ks_full_grid", "edges_supported": 3}, "geometry": {"type": "Point", "coordinates": [-7.9161, 31.0619]}}, {"type": "Feature", "properties": {"kind": "site", "name": "Pico de Teide", "dist_deg": 0.0023651, "dist_km": 0.263, "class": "close", "dist_source": "ks_full_grid", "edges_supported": 1}, "geometry": {"type": "Point", "coordinates": [-16.6333, 28.2667]}}, {"type": "Feature", "properties": {"kind": "site", "name": "Chott el Djerid", "dist_deg": 0.0102366, "dist_km": 1.138, "class": "close", "dist_source": "ks_full_grid", "edges_supported": 5}, "geometry": {"type": "Point", "coordinates": [9.5375, 33.8869]}}, {"type": "Feature", "properties": {"kind": "site", "name": "Teatro Amazonas", "dist_deg": 0.096104, "dist_km": 10.686, "class": "close", "dist_source": "ks_full_grid", "edges_supported": 1}, "geometry": {"type": "Point", "coordinates": [-60.0231, -3.1306]}}, {"type": "Feature", "properties": {"kind": "site", "name": "Angel Falls", "dist_deg": 0.0451428, "dist_km": 5.02, "class": "close", "dist_source": "ks_full_grid", "edges_supported": 3}, "geometry": {"type": "Point", "coordinates": [-62.5356, 5.9675]}}, {"type": "Feature", "properties": {"kind": "site", "name": "Lago Arari", "dist_deg": 0.0063296, "dist_km": 0.704, "class": "close", "dist_source": "ks_full_grid", "edges_supported": 1}, "geometry": {"type": "Point", "coordinates": [-58.75, -3.4167]}}, {"type": "Feature", "properties": {"kind": "site", "name": "Christ the Redeemer", "dist_deg": 0.0607479, "dist_km": 6.755, "class": "close", "dist_source": "ks_full_grid", "edges_supported": 1}, "geometry": {"type": "Point", "coordinates": [-43.2106, -22.9519]}}, {"type": "Feature", "properties": {"kind": "site", "name": "Praca dos Tres Poderes", "dist_deg": 0.0630378, "dist_km": 7.01, "class": "close", "dist_source": "ks_full_grid", "edges_supported": 1}, "geometry": {"type": "Point", "coordinates": [-47.8611, -15.7997]}}, {"type": "Feature", "properties": {"kind": "site", "name": "Terreiro de Jesus", "dist_deg": 0.0239374, "dist_km": 2.662, "class": "close", "dist_source": "ks_full_grid", "edges_supported": 5}, "geometry": {"type": "Point", "coordinates": [-38.51, -12.9733]}}, {"type": "Feature", "properties": {"kind": "site", "name": "High Tatra", "dist_deg": 0.0689486, "dist_km": 7.667, "class": "close", "dist_source": "ks_full_grid", "edges_supported": 1}, "geometry": {"type": "Point", "coordinates": [20.0, 49.1667]}}, {"type": "Feature", "properties": {"kind": "site", "name": "Stortorget Stockholm", "dist_deg": 0.0468182, "dist_km": 5.206, "class": "close", "dist_source": "ks_full_grid", "edges_supported": 1}, "geometry": {"type": "Point", "coordinates": [18.0708, 59.325]}}, {"type": "Feature", "properties": {"kind": "site", "name": "Mount Olympus", "dist_deg": 0.0889045, "dist_km": 9.886, "class": "close", "dist_source": "ks_full_grid", "edges_supported": 1}, "geometry": {"type": "Point", "coordinates": [22.35, 40.0833]}}, {"type": "Feature", "properties": {"kind": "site", "name": "Arunachala Hill", "dist_deg": 0.0321895, "dist_km": 3.579, "class": "close", "dist_source": "ks_full_grid", "edges_supported": 3}, "geometry": {"type": "Point", "coordinates": [79.0517, 12.2406]}}, {"type": "Feature", "properties": {"kind": "site", "name": "Piram Island", "dist_deg": 0.036631, "dist_km": 4.073, "class": "close", "dist_source": "ks_full_grid", "edges_supported": 3}, "geometry": {"type": "Point", "coordinates": [72.35, 21.6]}}, {"type": "Feature", "properties": {"kind": "site", "name": "Adam’s Peak", "dist_deg": 0.006481, "dist_km": 0.721, "class": "close", "dist_source": "ks_full_grid", "edges_supported": 4}, "geometry": {"type": "Point", "coordinates": [80.4997, 6.8092]}}, {"type": "Feature", "properties": {"kind": "site", "name": "Uhuru Peak Kilimanjaro", "dist_deg": 0.0857942, "dist_km": 9.54, "class": "close", "dist_source": "ks_full_grid", "edges_supported": 1}, "geometry": {"type": "Point", "coordinates": [37.3533, -3.0758]}}, {"type": "Feature", "properties": {"kind": "site", "name": "Lake Victoria (Ukerewe Island)", "dist_deg": 0.105397, "dist_km": 11.72, "class": "medium", "dist_source": "ks_full_grid", "edges_supported": 0}, "geometry": {"type": "Point", "coordinates": [32.9, -0.9833]}}, {"type": "Feature", "properties": {"kind": "site", "name": "Mount Nkungwe", "dist_deg": 0.0154331, "dist_km": 1.716, "class": "close", "dist_source": "ks_full_grid", "edges_supported": 2}, "geometry": {"type": "Point", "coordinates": [29.8, -6.1167]}}, {"type": "Feature", "properties": {"kind": "site", "name": "Mount Belukha", "dist_deg": 0.0396367, "dist_km": 4.407, "class": "close", "dist_source": "ks_full_grid", "edges_supported": 1}, "geometry": {"type": "Point", "coordinates": [88.9, 48.5]}}, {"type": "Feature", "properties": {"kind": "site", "name": "Uzynaral Strait", "dist_deg": 0.0148421, "dist_km": 1.65, "class": "close", "dist_source": "ks_full_grid", "edges_supported": 3}, "geometry": {"type": "Point", "coordinates": [75.5, 46.6]}}, {"type": "Feature", "properties": {"kind": "site", "name": "Lake Baikal (Cape Khoboy)", "dist_deg": 0.0443814, "dist_km": 4.935, "class": "close", "dist_source": "ks_full_grid", "edges_supported": 3}, "geometry": {"type": "Point", "coordinates": [107.6667, 53.1667]}}, {"type": "Feature", "properties": {"kind": "site", "name": "Forbidden City Beijing", "dist_deg": 0.0213108, "dist_km": 2.37, "class": "close", "dist_source": "ks_full_grid", "edges_supported": 1}, "geometry": {"type": "Point", "coordinates": [116.4075, 39.9042]}}, {"type": "Feature", "properties": {"kind": "site", "name": "Tai Shan", "dist_deg": 0.0020759, "dist_km": 0.231, "class": "close", "dist_source": "ks_full_grid", "edges_supported": 8}, "geometry": {"type": "Point", "coordinates": [117.3333, 36.5]}}, {"type": "Feature", "properties": {"kind": "site", "name": "Karakorum", "dist_deg": 0.0112928, "dist_km": 1.256, "class": "close", "dist_source": "ks_full_grid", "edges_supported": 2}, "geometry": {"type": "Point", "coordinates": [102.8239, 47.1972]}}, {"type": "Feature", "properties": {"kind": "site", "name": "Boulder Colorado", "dist_deg": 0.0466288, "dist_km": 5.185, "class": "close", "dist_source": "ks_full_grid", "edges_supported": 2}, "geometry": {"type": "Point", "coordinates": [-105.2706, 40.015]}}, {"type": "Feature", "properties": {"kind": "site", "name": "Mount Whitney", "dist_deg": 0.0608463, "dist_km": 6.766, "class": "close", "dist_source": "ks_full_grid", "edges_supported": 1}, "geometry": {"type": "Point", "coordinates": [-118.292, 36.5786]}}, {"type": "Feature", "properties": {"kind": "site", "name": "Cahokia Mounds", "dist_deg": 0.0038267, "dist_km": 0.425, "class": "close", "dist_source": "ks_full_grid", "edges_supported": 5}, "geometry": {"type": "Point", "coordinates": [-90.0678, 38.6503]}}, {"type": "Feature", "properties": {"kind": "site", "name": "Three Sisters Blue Mountains", "dist_deg": 0.0845105, "dist_km": 9.397, "class": "close", "dist_source": "ks_full_grid", "edges_supported": 1}, "geometry": {"type": "Point", "coordinates": [150.5, -33.75]}}, {"type": "Feature", "properties": {"kind": "site", "name": "Mount Picton Tasmania", "dist_deg": 0.0224412, "dist_km": 2.495, "class": "close", "dist_source": "ks_full_grid", "edges_supported": 3}, "geometry": {"type": "Point", "coordinates": [146.6075, -43.1575]}}, {"type": "Feature", "properties": {"kind": "site", "name": "Fraser Island", "dist_deg": 0.013923, "dist_km": 1.548, "class": "close", "dist_source": "ks_full_grid", "edges_supported": 2}, "geometry": {"type": "Point", "coordinates": [153.0294, -25.3925]}}, {"type": "Feature", "properties": {"kind": "site", "name": "Cerro de Puntas", "dist_deg": 0.0236841, "dist_km": 2.634, "class": "close", "dist_source": "ks_full_grid", "edges_supported": 1}, "geometry": {"type": "Point", "coordinates": [-67.2639, 18.3561]}}, {"type": "Feature", "properties": {"kind": "site", "name": "Great Exuma Island", "dist_deg": 0.0619185, "dist_km": 6.885, "class": "close", "dist_source": "ks_full_grid", "edges_supported": 1}, "geometry": {"type": "Point", "coordinates": [-75.8167, 23.5167]}}, {"type": "Feature", "properties": {"kind": "site", "name": "Montego Bay", "dist_deg": 0.0038291, "dist_km": 0.426, "class": "close", "dist_source": "ks_full_grid", "edges_supported": 2}, "geometry": {"type": "Point", "coordinates": [-77.9167, 18.4667]}}, {"type": "Feature", "properties": {"kind": "site", "name": "Mount Simpson PNG", "dist_deg": 0.048719, "dist_km": 5.417, "class": "close", "dist_source": "ks_full_grid", "edges_supported": 2}, "geometry": {"type": "Point", "coordinates": [148.0, -9.5]}}, {"type": "Feature", "properties": {"kind": "site", "name": "Popomanaseu", "dist_deg": 0.0467643, "dist_km": 5.2, "class": "close", "dist_source": "ks_full_grid", "edges_supported": 1}, "geometry": {"type": "Point", "coordinates": [160.0667, -9.7]}}, {"type": "Feature", "properties": {"kind": "site", "name": "Puncak Jaya", "dist_deg": 0.0089665, "dist_km": 0.997, "class": "close", "dist_source": "ks_full_grid", "edges_supported": 2}, "geometry": {"type": "Point", "coordinates": [138.5, -4.5]}}, {"type": "Feature", "properties": {"kind": "site", "name": "Dakar", "dist_deg": 0.0415954, "dist_km": 4.625, "class": "close", "dist_source": "ks_full_grid", "edges_supported": 1}, "geometry": {"type": "Point", "coordinates": [-17.3333, 14.75]}}, {"type": "Feature", "properties": {"kind": "site", "name": "Timbuktu", "dist_deg": 0.0777881, "dist_km": 8.65, "class": "close", "dist_source": "ks_full_grid", "edges_supported": 1}, "geometry": {"type": "Point", "coordinates": [-3.5, 15.0]}}, {"type": "Feature", "properties": {"kind": "site", "name": "Fogo Cape Verde", "dist_deg": 0.0241253, "dist_km": 2.683, "class": "close", "dist_source": "ks_full_grid", "edges_supported": 4}, "geometry": {"type": "Point", "coordinates": [-24.3817, 14.9133]}}, {"type": "Feature", "properties": {"kind": "site", "name": "Tsodilo Hill", "dist_deg": 0.0265841, "dist_km": 2.956, "class": "close", "dist_source": "ks_full_grid", "edges_supported": 3}, "geometry": {"type": "Point", "coordinates": [21.7667, -18.75]}}, {"type": "Feature", "properties": {"kind": "site", "name": "Kgalagadi Transfrontier Park", "dist_deg": 0.0095492, "dist_km": 1.062, "class": "close", "dist_source": "ks_full_grid", "edges_supported": 1}, "geometry": {"type": "Point", "coordinates": [20.7122, -25.2872]}}, {"type": "Feature", "properties": {"kind": "site", "name": "Great Zimbabwe", "dist_deg": 0.0502705, "dist_km": 5.59, "class": "close", "dist_source": "ks_full_grid", "edges_supported": 1}, "geometry": {"type": "Point", "coordinates": [30.9275, -20.2672]}}, {"type": "Feature", "properties": {"kind": "site", "name": "Khao Nan Mia", "dist_deg": 0.0641023, "dist_km": 7.128, "class": "close", "dist_source": "ks_full_grid", "edges_supported": 1}, "geometry": {"type": "Point", "coordinates": [99.5941, 8.8594]}}, {"type": "Feature", "properties": {"kind": "site", "name": "Lake Toba", "dist_deg": 0.0046684, "dist_km": 0.519, "class": "close", "dist_source": "ks_full_grid", "edges_supported": 4}, "geometry": {"type": "Point", "coordinates": [98.8756, 2.6845]}}, {"type": "Feature", "properties": {"kind": "site", "name": "Angkor Wat", "dist_deg": 0.0084501, "dist_km": 0.94, "class": "close", "dist_source": "ks_full_grid", "edges_supported": 4}, "geometry": {"type": "Point", "coordinates": [103.86, 13.4256]}}, {"type": "Feature", "properties": {"kind": "site", "name": "Mount Tomaniivi", "dist_deg": 0.0058072, "dist_km": 0.646, "class": "close", "dist_source": "ks_full_grid", "edges_supported": 4}, "geometry": {"type": "Point", "coordinates": [178.0167, -17.6167]}}, {"type": "Feature", "properties": {"kind": "site", "name": "Tarawa Island", "dist_deg": 0.0546096, "dist_km": 6.072, "class": "close", "dist_source": "ks_full_grid", "edges_supported": 1}, "geometry": {"type": "Point", "coordinates": [173.0764, 1.4403]}}, {"type": "Feature", "properties": {"kind": "site", "name": "Mount Silisili", "dist_deg": 0.0361553, "dist_km": 4.02, "class": "close", "dist_source": "ks_full_grid", "edges_supported": 2}, "geometry": {"type": "Point", "coordinates": [-172.4858, -13.6183]}}, {"type": "Feature", "properties": {"kind": "site", "name": "Denali (Mount McKinley)", "dist_deg": 0.0148241, "dist_km": 1.648, "class": "close", "dist_source": "ks_full_grid", "edges_supported": 1}, "geometry": {"type": "Point", "coordinates": [-149.4289, 63.0694]}}, {"type": "Feature", "properties": {"kind": "site", "name": "Great Bear Lake", "dist_deg": 0.0271971, "dist_km": 3.024, "class": "close", "dist_source": "ks_full_grid", "edges_supported": 2}, "geometry": {"type": "Point", "coordinates": [-120.3833, 66.1197]}}, {"type": "Feature", "properties": {"kind": "site", "name": "Fox Islands Aleutian", "dist_deg": 0.0108011, "dist_km": 1.201, "class": "close", "dist_source": "ks_full_grid", "edges_supported": 2}, "geometry": {"type": "Point", "coordinates": [-166.5833, 53.7667]}}, {"type": "Feature", "properties": {"kind": "site", "name": "Mount Maromokotro", "dist_deg": 0.0075968, "dist_km": 0.845, "class": "close", "dist_source": "ks_full_grid", "edges_supported": 2}, "geometry": {"type": "Point", "coordinates": [49.4847, -13.0183]}}, {"type": "Feature", "properties": {"kind": "site", "name": "Piton des Neiges", "dist_deg": 0.0162522, "dist_km": 1.807, "class": "close", "dist_source": "ks_full_grid", "edges_supported": 1}, "geometry": {"type": "Point", "coordinates": [55.7333, -21.3167]}}, {"type": "Feature", "properties": {"kind": "site", "name": "Morne Seychellois", "dist_deg": 0.0654193, "dist_km": 7.274, "class": "close", "dist_source": "ks_full_grid", "edges_supported": 1}, "geometry": {"type": "Point", "coordinates": [55.45, -4.6167]}}, {"type": "Feature", "properties": {"kind": "site", "name": "Mount Damavand", "dist_deg": 0.0941504, "dist_km": 10.469, "class": "close", "dist_source": "ks_full_grid", "edges_supported": 1}, "geometry": {"type": "Point", "coordinates": [52.1097, 35.9547]}}, {"type": "Feature", "properties": {"kind": "site", "name": "Vozrozhdeniya Island", "dist_deg": 0.1499601, "dist_km": 16.675, "class": "far", "dist_source": "ks_full_grid", "edges_supported": 0}, "geometry": {"type": "Point", "coordinates": [59.1419, 45.0917]}}, {"type": "Feature", "properties": {"kind": "site", "name": "Malek Siah Kuh", "dist_deg": 0.1147399, "dist_km": 12.758, "class": "medium", "dist_source": "ks_full_grid", "edges_supported": 0}, "geometry": {"type": "Point", "coordinates": [60.8636, 29.4892]}}, {"type": "Feature", "properties": {"kind": "site", "name": "Klyuchevskaya Sopka", "dist_deg": 0.0417155, "dist_km": 4.639, "class": "close", "dist_source": "ks_full_grid", "edges_supported": 2}, "geometry": {"type": "Point", "coordinates": [160.6428, 56.0581]}}, {"type": "Feature", "properties": {"kind": "site", "name": "Sakhalin Island", "dist_deg": 0.0259791, "dist_km": 2.889, "class": "close", "dist_source": "ks_full_grid", "edges_supported": 3}, "geometry": {"type": "Point", "coordinates": [143.0028, 50.2247]}}, {"type": "Feature", "properties": {"kind": "site", "name": "Cherskiy", "dist_deg": 0.0238272, "dist_km": 2.65, "class": "close", "dist_source": "ks_full_grid", "edges_supported": 8}, "geometry": {"type": "Point", "coordinates": [-115.9872, 34.6272]}}, {"type": "Feature", "properties": {"kind": "site", "name": "Easter Island", "dist_deg": 0.0014543, "dist_km": 0.162, "class": "close", "dist_source": "ks_full_grid", "edges_supported": 2}, "geometry": {"type": "Point", "coordinates": [-109.3664, -27.1211]}}, {"type": "Feature", "properties": {"kind": "site", "name": "Reykjavik-Thingvellir", "dist_deg": 0.0525979, "dist_km": 5.849, "class": "close", "dist_source": "ks_full_grid", "edges_supported": 1}, "geometry": {"type": "Point", "coordinates": [-21.8953, 64.1353]}}, {"type": "Feature", "properties": {"kind": "site", "name": "Callanish", "dist_deg": 0.0015519, "dist_km": 0.173, "class": "close", "dist_source": "ks_full_grid", "edges_supported": 4}, "geometry": {"type": "Point", "coordinates": [-6.7367, 58.1997]}}, {"type": "Feature", "properties": {"kind": "site", "name": "Nuuk Greenland", "dist_deg": 0.0034957, "dist_km": 0.389, "class": "close", "dist_source": "ks_full_grid", "edges_supported": 2}, "geometry": {"type": "Point", "coordinates": [-51.7214, 64.1836]}}, {"type": "Feature", "properties": {"kind": "site", "name": "Port Stanley", "dist_deg": 0.1023037, "dist_km": 11.376, "class": "medium", "dist_source": "ks_full_grid", "edges_supported": 0}, "geometry": {"type": "Point", "coordinates": [-57.8492, -51.7011]}}, {"type": "Feature", "properties": {"kind": "site", "name": "South Georgia Island", "dist_deg": 0.0346358, "dist_km": 3.851, "class": "close", "dist_source": "ks_full_grid", "edges_supported": 1}, "geometry": {"type": "Point", "coordinates": [-36.75, -54.25]}}, {"type": "Feature", "properties": {"kind": "site", "name": "Lake Buenos Aires", "dist_deg": 0.0342264, "dist_km": 3.806, "class": "close", "dist_source": "ks_full_grid", "edges_supported": 1}, "geometry": {"type": "Point", "coordinates": [-71.3675, -46.5033]}}, {"type": "Feature", "properties": {"kind": "site", "name": "Wood Buffalo National Park", "dist_deg": 0.0424727, "dist_km": 4.723, "class": "close", "dist_source": "ks_full_grid", "edges_supported": 1}, "geometry": {"type": "Point", "coordinates": [-112.8542, 58.9239]}}, {"type": "Feature", "properties": {"kind": "site", "name": "Adelaide Peninsula", "dist_deg": 0.0193804, "dist_km": 2.155, "class": "close", "dist_source": "ks_full_grid", "edges_supported": 5}, "geometry": {"type": "Point", "coordinates": [-97.8, 68.0833]}}, {"type": "Feature", "properties": {"kind": "site", "name": "Bay of God’s Mercy", "dist_deg": 0.0518772, "dist_km": 5.769, "class": "close", "dist_source": "ks_full_grid", "edges_supported": 1}, "geometry": {"type": "Point", "coordinates": [-84.1333, 64.6]}}, {"type": "Feature", "properties": {"kind": "site", "name": "Ascension Island", "dist_deg": 0.0069505, "dist_km": 0.773, "class": "close", "dist_source": "ks_full_grid", "edges_supported": 1}, "geometry": {"type": "Point", "coordinates": [-14.3558, -7.9467]}}, {"type": "Feature", "properties": {"kind": "site", "name": "St. Helena Island", "dist_deg": 0.0667842, "dist_km": 7.426, "class": "close", "dist_source": "ks_full_grid", "edges_supported": 3}, "geometry": {"type": "Point", "coordinates": [-5.7167, -15.9333]}}, {"type": "Feature", "properties": {"kind": "site", "name": "Mount Loma", "dist_deg": 0.0358614, "dist_km": 3.988, "class": "close", "dist_source": "ks_full_grid", "edges_supported": 2}, "geometry": {"type": "Point", "coordinates": [-11.117, 9.217]}}, {"type": "Feature", "properties": {"kind": "site", "name": "Lena-Muna juncture", "dist_deg": 0.0085872, "dist_km": 0.955, "class": "close", "dist_source": "ks_full_grid", "edges_supported": 5}, "geometry": {"type": "Point", "coordinates": [123.2833, 68.0167]}}, {"type": "Feature", "properties": {"kind": "site", "name": "Lake Ozero Taymyr", "dist_deg": 0.0064929, "dist_km": 0.722, "class": "close", "dist_source": "ks_full_grid", "edges_supported": 2}, "geometry": {"type": "Point", "coordinates": [101.7167, 74.5167]}}, {"type": "Feature", "properties": {"kind": "site", "name": "Tunguska", "dist_deg": 0.0190731, "dist_km": 2.121, "class": "close", "dist_source": "ks_full_grid", "edges_supported": 3}, "geometry": {"type": "Point", "coordinates": [102.7861, 52.6528]}}, {"type": "Feature", "properties": {"kind": "site", "name": "Mount Ross Kerguelen", "dist_deg": 0.0050407, "dist_km": 0.56, "class": "close", "dist_source": "ks_full_grid", "edges_supported": 2}, "geometry": {"type": "Point", "coordinates": [69.5, -49.5833]}}, {"type": "Feature", "properties": {"kind": "site", "name": "Big Ben Heard Island", "dist_deg": 0.0200003, "dist_km": 2.224, "class": "close", "dist_source": "ks_full_grid", "edges_supported": 6}, "geometry": {"type": "Point", "coordinates": [73.525, -53.1083]}}, {"type": "Feature", "properties": {"kind": "site", "name": "Prydz Bay", "dist_deg": 0.0017565, "dist_km": 0.195, "class": "close", "dist_source": "ks_full_grid", "edges_supported": 2}, "geometry": {"type": "Point", "coordinates": [75.0, -69.0]}}, {"type": "Feature", "properties": {"kind": "site", "name": "Mount Lamlam Guam", "dist_deg": 3.06e-05, "dist_km": 0.003, "class": "close", "dist_source": "ks_full_grid", "edges_supported": 3}, "geometry": {"type": "Point", "coordinates": [144.6628, 13.3386]}}, {"type": "Feature", "properties": {"kind": "site", "name": "Yap Island", "dist_deg": 0.0429093, "dist_km": 4.771, "class": "close", "dist_source": "ks_full_grid", "edges_supported": 1}, "geometry": {"type": "Point", "coordinates": [134.3833, -2.55]}}, {"type": "Feature", "properties": {"kind": "site", "name": "Nan Madol", "dist_deg": 0.0018804, "dist_km": 0.209, "class": "close", "dist_source": "ks_full_grid", "edges_supported": 3}, "geometry": {"type": "Point", "coordinates": [158.3358, 6.8444]}}, {"type": "Feature", "properties": {"kind": "site", "name": "Mount Orohena", "dist_deg": 0.0077831, "dist_km": 0.865, "class": "close", "dist_source": "ks_full_grid", "edges_supported": 1}, "geometry": {"type": "Point", "coordinates": [-149.4842, -17.6197]}}, {"type": "Feature", "properties": {"kind": "site", "name": "Hivaoa Island", "dist_deg": 0.0646251, "dist_km": 7.186, "class": "close", "dist_source": "ks_full_grid", "edges_supported": 1}, "geometry": {"type": "Point", "coordinates": [-139.0211, -9.7547]}}, {"type": "Feature", "properties": {"kind": "site", "name": "Kiritimati (Christmas Island)", "dist_deg": 0.0469216, "dist_km": 5.217, "class": "close", "dist_source": "ks_full_grid", "edges_supported": 2}, "geometry": {"type": "Point", "coordinates": [-157.4278, 1.8722]}}, {"type": "Feature", "properties": {"kind": "site", "name": "Graciosa Azores", "dist_deg": 0.0100635, "dist_km": 1.119, "class": "close", "dist_source": "ks_full_grid", "edges_supported": 4}, "geometry": {"type": "Point", "coordinates": [-28.0069, 39.0525]}}, {"type": "Feature", "properties": {"kind": "site", "name": "St. George’s Island Bermuda", "dist_deg": 0.0010246, "dist_km": 0.114, "class": "close", "dist_source": "ks_full_grid", "edges_supported": 4}, "geometry": {"type": "Point", "coordinates": [-64.7786, 32.2811]}}, {"type": "Feature", "properties": {"kind": "site", "name": "Lisbon Portugal", "dist_deg": 0.0007201, "dist_km": 0.08, "class": "close", "dist_source": "ks_full_grid", "edges_supported": 2}, "geometry": {"type": "Point", "coordinates": [-9.1356, 38.7069]}}, {"type": "Feature", "properties": {"kind": "site", "name": "Longyearbyen Spitsbergen", "dist_deg": 0.0063188, "dist_km": 0.703, "class": "close", "dist_source": "ks_full_grid", "edges_supported": 8}, "geometry": {"type": "Point", "coordinates": [18.1642, 78.6481]}}, {"type": "Feature", "properties": {"kind": "site", "name": "Independence Fjord", "dist_deg": 0.0269622, "dist_km": 2.998, "class": "close", "dist_source": "ks_full_grid", "edges_supported": 5}, "geometry": {"type": "Point", "coordinates": [-28.2725, 81.9247]}}, {"type": "Feature", "properties": {"kind": "site", "name": "Yuzhny Novaya Zemlya", "dist_deg": 0.0557816, "dist_km": 6.203, "class": "close", "dist_source": "ks_full_grid", "edges_supported": 1}, "geometry": {"type": "Point", "coordinates": [80.3667, 73.4833]}}, {"type": "Feature", "properties": {"kind": "site", "name": "Mount Hope Antarctica", "dist_deg": 0.0304211, "dist_km": 3.383, "class": "close", "dist_source": "ks_full_grid", "edges_supported": 2}, "geometry": {"type": "Point", "coordinates": [171.0, -83.75]}}, {"type": "Feature", "properties": {"kind": "site", "name": "Bear Island Antarctica", "dist_deg": 0.0222954, "dist_km": 2.479, "class": "close", "dist_source": "ks_full_grid", "edges_supported": 2}, "geometry": {"type": "Point", "coordinates": [-67.06, -68.18]}}, {"type": "Feature", "properties": {"kind": "site", "name": "Elephant Island", "dist_deg": 0.0151938, "dist_km": 1.69, "class": "close", "dist_source": "ks_full_grid", "edges_supported": 3}, "geometry": {"type": "Point", "coordinates": [-55.1167, -61.1333]}}, {"type": "Feature", "properties": {"kind": "site", "name": "South Pole", "dist_deg": 0.0428636, "dist_km": 4.766, "class": "close", "dist_source": "ks_full_grid", "edges_supported": 3}, "geometry": {"type": "Point", "coordinates": [0.0, -90.0]}}, {"type": "Feature", "properties": {"kind": "site", "name": "South Magnetic Pole", "dist_deg": 0.1007858, "dist_km": 11.207, "class": "medium", "dist_source": "ks_full_grid", "edges_supported": 0}, "geometry": {"type": "Point", "coordinates": [138.0, -67.0]}}, {"type": "Feature", "properties": {"kind": "site", "name": "Sanae Antarctica", "dist_deg": 0.0010892, "dist_km": 0.121, "class": "close", "dist_source": "ks_full_grid", "edges_supported": 1}, "geometry": {"type": "Point", "coordinates": [127.5233, -71.6728]}}, {"type": "Feature", "properties": {"kind": "site", "name": "Halifax Nova Scotia", "dist_deg": 0.0192137, "dist_km": 2.136, "class": "close", "dist_source": "ks_full_grid", "edges_supported": 5}, "geometry": {"type": "Point", "coordinates": [-63.5753, 44.6489]}}, {"type": "Feature", "properties": {"kind": "site", "name": "Washington DC", "dist_deg": 0.0388309, "dist_km": 4.318, "class": "close", "dist_source": "ks_full_grid", "edges_supported": 1}, "geometry": {"type": "Point", "coordinates": [-77.0364, 38.895]}}]}