{"type": "FeatureCollection", "name": "E8_proj_seed752 grid", "properties": {"shape": "E8_proj_seed752", "lock_lat": 5.0, "lock_lon": 145.0, "bearing": 350.0}, "features": [{"type": "Feature", "properties": {"kind": "grid_vertices", "shape": "E8_proj_seed752", "count": 240, "ids": ["V1", "V2", "V3", "V4", "V5", "V6", "V7", "V8", "V9", "V10", "V11", "V12", "V13", "V14", "V15", "V16", "V17", "V18", "V19", "V20", "V21", "V22", "V23", "V24", "V25", "V26", "V27", "V28", "V29", "V30", "V31", "V32", "V33", "V34", "V35", "V36", "V37", "V38", "V39", "V40", "V41", "V42", "V43", "V44", "V45", "V46", "V47", "V48", "V49", "V50", "V51", "V52", "V53", "V54", "V55", "V56", "V57", "V58", "V59", "V60", "V61", "V62", "V63", "V64", "V65", "V66", "V67", "V68", "V69", "V70", "V71", "V72", "V73", "V74", "V75", "V76", "V77", "V78", "V79", "V80", "V81", "V82", "V83", "V84", "V85", "V86", "V87", "V88", "V89", "V90", "V91", "V92", "V93", "V94", "V95", "V96", "V97", "V98", "V99", "V100", "V101", "V102", "V103", "V104", "V105", "V106", "V107", "V108", "V109", "V110", "V111", "V112", "V113", "V114", "V115", "V116", "V117", "V118", "V119", "V120", "V121", "V122", "V123", "V124", "V125", "V126", "V127", "V128", "V129", "V130", "V131", "V132", "V133", "V134", "V135", "V136", "V137", "V138", "V139", "V140", "V141", "V142", "V143", "V144", "V145", "V146", "V147", "V148", "V149", "V150", "V151", "V152", "V153", "V154", "V155", "V156", "V157", "V158", "V159", "V160", "V161", "V162", "V163", "V164", "V165", "V166", "V167", "V168", "V169", "V170", "V171", "V172", "V173", "V174", "V175", "V176", "V177", "V178", "V179", "V180", "V181", "V182", "V183", "V184", "V185", "V186", "V187", "V188", "V189", "V190", "V191", "V192", "V193", "V194", "V195", "V196", "V197", "V198", "V199", "V200", "V201", "V202", "V203", "V204", "V205", "V206", "V207", "V208", "V209", "V210", "V211", "V212", "V213", "V214", "V215", "V216", "V217", "V218", "V219", "V220", "V221", "V222", "V223", "V224", "V225", "V226", "V227", "V228", "V229", "V230", "V231", "V232", "V233", "V234", "V235", "V236", "V237", "V238", "V239", "V240"]}, "geometry": {"type": "MultiPoint", "coordinates": [[75.07975739873872, 49.24860620260109], [-68.7007423991439, -57.483880793950426], [111.2992576008561, 57.483880793950426], [-104.9202426012613, -49.24860620260109], [120.67976070637057, -4.36293727612252], [-17.773819121917168, 32.325036808768644], [162.22618087808286, -32.325036808768644], [-59.32023929362942, 4.36293727612252], [-78.60135296180842, 1.4043207304507193], [71.43668098060876, 27.427732996528817], [-108.56331901939124, -27.427732996528817], [101.3986470381916, -1.4043207304507193], [21.72865760382202, 19.73872888045495], [175.97645225598404, 1.506370121426164], [-4.023547744015944, -1.506370121426164], [-158.271342396178, -19.73872888045495], [87.66355923826052, 35.33963062619757], [-21.67296634078321, 1.6716472146138175], [158.3270336592168, -1.6716472146138175], [-92.33644076173948, -35.33963062619757], [37.37413591713704, -33.94912182047279], [-168.9096309258205, 68.29538914155064], [11.090369074179513, -68.29538914155064], [-142.625864082863, 33.94912182047279], [-50.71839746483635, 45.505978509183585], [92.70416895348316, -9.414460553801863], [-87.29583104651685, 9.414460553801863], [129.28160253516364, -45.505978509183585], [118.10678532068641, 20.63531449271372], [4.989374079806218, 57.407669527447005], [-175.01062592019377, -57.407669527447005], [-61.89321467931359, -20.63531449271372], [-176.4528114633078, 83.77902822618996], [82.24130998472015, 40.4331635605148], [-97.75869001527985, -40.4331635605148], [3.5471885366922082, -83.77902822618996], [37.06304379853891, 37.24172033946581], [158.08113590101243, 29.00723103418322], [-21.91886409898757, -29.00723103418322], [-142.9369562014611, -37.24172033946581], [95.8004446445896, 45.74695019863807], [44.20987098559568, 63.361069869043504], [-135.79012901440433, -63.361069869043504], [-84.19955535541041, -45.74695019863807], [54.13509351947875, -6.723043708492225], [157.86615487520265, 69.86234986878351], [-22.13384512479735, -69.86234986878351], [-125.86490648052124, 6.723043708492225], [-31.17644576556834, 74.90628620802065], [97.4094498018189, 15.574405050573382], [-82.59055019818112, -15.574405050573382], [148.82355423443167, -74.90628620802065], [-175.1254391665484, -35.344489266748454], [115.5667328613444, -3.614642333035597], [-64.43326713865561, 3.614642333035597], [4.874560833451619, 35.344489266748454], [64.17374627255381, -6.438089375917862], [168.94633578201268, -17.374160873165344], [-11.053664217987313, 17.374160873165344], [-115.8262537274462, 6.438089375917862], [130.84027883376297, -3.780628209573258], [164.8925248822916, -46.23393430949478], [-15.107475117708374, 46.23393430949478], [-49.15972116623701, 3.780628209573258], [91.05849091279488, -54.419182649028734], [172.1918737939825, 25.458168494097958], [-7.808126206017511, -25.458168494097958], [-88.94150908720513, 54.419182649028734], [-151.65565315786333, 11.669924025938064], [124.18920964244305, -24.789376767429964], [-55.810790357556954, 24.789376767429964], [28.34434684213669, -11.669924025938064], [-23.453869010382718, -0.7978755935324296], [-144.33532772316042, -18.081878887110246], [35.66467227683958, 18.081878887110246], [156.5461309896173, 0.7978755935324296], [-142.6993663549085, -0.3585909940085239], [-87.71170751893736, -24.9165990948317], [92.28829248106264, 24.9165990948317], [37.3006336450915, 0.3585909940085239], [-24.76017472855588, -63.595209425219004], [-128.09580239531599, 29.952146691090597], [51.90419760468401, -29.952146691090597], [155.23982527144412, 63.595209425219004], [-85.1489645824464, 7.47166453561735], [154.12427639153873, -59.67844034043507], [-25.875723608461254, 59.67844034043507], [94.85103541755362, -7.47166453561735], [35.14991435011694, 23.133249494832487], [-9.268307567886474, -0.5633726205689301], [170.73169243211353, 0.5633726205689301], [-144.85008564988308, -23.133249494832487], [18.89422271811102, -22.24668652581078], [-21.58176243924665, 70.67951823607928], [158.41823756075337, -70.67951823607928], [-161.10577728188898, 22.24668652581078], [-24.125933092219405, 24.916806131765505], [51.05847549161552, -8.78259179245781], [-128.94152450838448, 8.78259179245781], [155.87406690778062, -24.916806131765505], [57.245975272647456, -38.02335346748133], [176.98834864316012, 55.815074638018224], [-3.011651356839888, -55.815074638018224], [-122.75402472735256, 38.02335346748133], [-78.28268945637903, 59.863702822340514], [108.07912196104735, -8.44381111394315], [-71.92087803895267, 8.44381111394315], [101.71731054362098, -59.863702822340514], [-25.200429169882756, -28.5654955624994], [69.90785056487935, -48.4248933902734], [-110.09214943512065, 48.4248933902734], [154.79957083011726, 28.5654955624994], [39.92997582860505, 15.137434193071154], [106.60533091134795, 37.714891424219246], [58.982873066129244, -23.258205022941006], [-66.92903068745385, 72.97699182950393], [121.4908717136864, -18.83544797747954], [-176.37899824236726, 41.130772583658896], [-157.85636486854503, -39.87742038135137], [165.20561840506718, 13.478912722810524], [75.5537321000394, 0.9107918162814546], [84.6340477583128, 61.60036200902808], [39.143116062283795, 10.83937717996951], [90.32431942398203, 33.515251454393905], [108.99295617841975, 13.378076461173409], [132.09767914005158, 23.073518436755553], [106.92691476921104, -17.73675249956282], [170.3874331904215, 49.0571688463766], [35.48185196354426, 5.006609593006343], [-32.68767372073303, 63.46098023143404], [-17.212501210163378, 11.237045138280445], [-2.872791750826356, 56.54598338720964], [-45.94011916479245, 41.75613207840437], [165.45620298360348, 51.719583692275194], [37.22030631683139, -59.39922238738488], [-104.03551231143796, 44.30532167511426], [22.489578686968766, 27.13987791778141], [62.93451108494027, 49.48884985490553], [35.86198392148878, 4.03882698462622], [-12.345189273697454, 58.41148405651218], [83.86285497891909, 6.265432001683964], [-179.708068789463, 78.84635527621764], [-4.918307057572457, 31.308661032216374], [135.10223669079062, 58.002931469286075], [64.58741071878981, -53.480558377290585], [-101.60069030127961, 36.93815696547958], [-35.44525562152926, -43.653863248122114], [-152.38488232918166, -57.08407199097843], [-146.9153812485606, -55.15279060368695], [175.64099909037577, -11.947288544127007], [173.69724608997117, -69.25679944085279], [-131.99041475515162, -4.072641713508146], [37.41159166291146, -23.046506483993475], [102.9406109652411, 10.273112295448074], [56.2152993040448, -43.618591434829185], [-56.03387496061956, 48.95703258414086], [118.92646398444326, -39.128579814027205], [-176.3744644045622, 19.97389167058562], [-152.99274068442242, -73.97632643467983], [164.21340255100796, -14.179346298533492], [-27.77396619867397, -11.362104830023807], [-33.91266155221211, 31.74618815341999], [-13.308508248419757, -38.432614094181226], [-62.79427514167585, 15.419768811705538], [-119.35665543918151, -84.53028103430827], [-110.71636839341258, 19.047459246749053], [-74.76903119987907, -29.38216906702764], [-122.45549500475859, -11.578974192096595], [34.06239051202337, -19.061701005198874], [-30.018813585281375, 48.996006310491154], [-16.396910617187924, -10.049373878641314], [-2.2163672238815946, 22.749709472506588], [-38.943827855411634, -34.083215641965005], [163.61674106927995, 23.87701559705082], [29.554319634227348, -74.2442247139548], [-100.73343415858973, 23.649630099022005], [79.26656584141028, -23.649630099022005], [-150.44568036577266, 74.2442247139548], [-16.383258930720046, -23.87701559705082], [141.05617214458837, 34.083215641965005], [177.78363277611842, -22.749709472506588], [163.60308938281207, 10.049373878641314], [149.98118641471862, -48.996006310491154], [-145.93760948797663, 19.061701005198874], [57.54450499524142, 11.578974192096595], [105.23096880012095, 29.38216906702764], [69.28363160658742, -19.047459246749053], [60.64334456081849, 84.53028103430827], [117.20572485832416, -15.419768811705538], [166.69149175158023, 38.432614094181226], [146.08733844778791, -31.74618815341999], [152.22603380132603, 11.362104830023807], [-15.786597448992058, 14.179346298533492], [27.007259315577606, 73.97632643467983], [3.625535595437805, -19.97389167058562], [-61.07353601555673, 39.128579814027205], [123.96612503938046, -48.95703258414086], [-123.78470069595521, 43.618591434829185], [-77.0593890347589, -10.273112295448074], [-142.58840833708854, 23.046506483993475], [48.0095852448484, 4.072641713508146], [-6.30275391002884, 69.25679944085279], [-4.359000909624244, 11.947288544127007], [33.08461875143939, 55.15279060368695], [27.615117670818336, 57.08407199097843], [144.55474437847073, 43.653863248122114], [78.39930969872039, -36.93815696547958], [-115.4125892812102, 53.480558377290585], [-44.8977633092094, -58.002931469286075], [175.08169294242757, -31.308661032216374], [0.2919312105370132, -78.84635527621764], [-96.13714502108091, -6.265432001683964], [167.65481072630254, -58.41148405651218], [-144.1380160785112, -4.03882698462622], [-117.06548891505975, -49.48884985490553], [-157.51042131303123, -27.13987791778141], [75.96448768856204, -44.30532167511426], [-142.77969368316863, 59.39922238738488], [-14.543797016396526, -51.719583692275194], [134.05988083520754, -41.75613207840437], [177.12720824917363, -56.54598338720964], [162.78749878983663, -11.237045138280445], [147.31232627926695, -63.46098023143404], [-144.51814803645576, -5.006609593006343], [-9.61256680957853, -49.0571688463766], [-73.07308523078896, 17.73675249956282], [-47.90232085994843, -23.073518436755553], [-71.00704382158027, -13.378076461173409], [-89.67568057601797, -33.515251454393905], [-140.85688393771622, -10.83937717996951], [-95.3659522416872, -61.60036200902808], [-104.4462678999606, -0.9107918162814546], [-14.794381594932837, -13.478912722810524], [22.14363513145498, 39.87742038135137], [3.621001757632761, -41.130772583658896], [-58.509128286313604, 18.83544797747954], [113.07096931254617, -72.97699182950393], [-121.01712693387077, 23.258205022941006], [-73.39466908865205, -37.714891424219246], [-140.07002417139495, -15.137434193071154]]}}, {"type": "Feature", "properties": {"kind": "grid_edges", "shape": "E8_proj_seed752", "count": 337, "ids": ["E1", "E2", "E3", "E4", "E5", "E6", "E7", "E8", "E9", "E10", "E11", "E12", "E13", "E14", "E15", "E16", "E17", "E18", "E19", "E20", "E21", "E22", "E23", "E24", "E25", "E26", "E27", "E28", "E29", "E30", "E31", "E32", "E33", "E34", "E35", "E36", "E37", "E38", "E39", "E40", "E41", "E42", "E43", "E44", "E45", "E46", "E47", "E48", "E49", "E50", "E51", "E52", "E53", "E54", "E55", "E56", "E57", "E58", "E59", "E60", "E61", "E62", "E63", "E64", "E65", "E66", "E67", "E68", "E69", "E70", "E71", "E72", "E73", "E74", "E75", "E76", "E77", "E78", "E79", "E80", "E81", "E82", "E83", "E84", "E85", "E86", "E87", "E88", "E89", "E90", "E91", "E92", "E93", "E94", "E95", "E96", "E97", "E98", "E99", "E100", "E101", "E102", "E103", "E104", "E105", "E106", "E107", "E108", "E109", "E110", "E111", "E112", "E113", "E114", "E115", "E116", "E117", "E118", "E119", "E120", "E121", "E122", "E123", "E124", "E125", "E126", "E127", "E128", "E129", "E130", "E131", "E132", "E133", "E134", "E135", "E136", "E137", "E138", "E139", "E140", "E141", "E142", "E143", "E144", "E145", "E146", "E147", "E148", "E149", "E150", "E151", "E152", "E153", "E154", "E155", "E156", "E157", "E158", "E159", "E160", "E161", "E162", "E163", "E164", "E165", "E166", "E167", "E168", "E169", "E170", "E171", "E172", "E173", "E174", "E175", "E176", "E177", "E178", "E179", "E180", "E181", "E182", "E183", "E184", "E185", "E186", "E187", "E188", "E189", "E190", "E191", "E192", "E193", "E194", "E195", "E196", "E197", "E198", "E199", "E200", "E201", "E202", "E203", "E204", "E205", "E206", "E207", "E208", "E209", "E210", "E211", "E212", "E213", "E214", "E215", "E216", "E217", "E218", "E219", "E220", "E221", "E222", "E223", "E224", "E225", "E226", "E227", "E228", "E229", "E230", "E231", "E232", "E233", "E234", "E235", "E236", "E237", "E238", "E239", "E240", "E241", "E242", "E243", "E244", "E245", "E246", "E247", "E248", "E249", "E250", "E251", "E252", "E253", "E254", "E255", "E256", "E257", "E258", "E259", "E260", "E261", "E262", "E263", "E264", "E265", "E266", "E267", "E268", "E269", "E270", "E271", "E272", "E273", "E274", "E275", "E276", "E277", "E278", "E279", "E280", "E281", "E282", "E283", "E284", "E285", "E286", "E287", "E288", "E289", "E290", "E291", "E292", "E293", "E294", "E295", "E296", "E297", "E298", "E299", "E300", "E301", "E302", "E303", "E304", "E305", "E306", "E307", "E308", "E309", "E310", "E311", "E312", "E313", "E314", "E315", "E316", "E317", "E318", "E319", "E320", "E321", "E322", "E323", "E324", "E325", "E326", "E327", "E328", "E329", "E330", "E331", "E332", "E333", "E334", "E335", "E336", "E337"], "pairs": [[0, 5], [0, 12], [0, 24], [1, 5], [1, 8], [1, 161], [2, 27], [2, 182], [2, 187], [2, 197], [2, 206], [4, 24], [5, 130], [5, 133], [5, 140], [5, 143], [6, 11], [7, 31], [7, 196], [7, 203], [7, 205], [8, 116], [8, 131], [8, 133], [8, 149], [8, 166], [9, 120], [9, 123], [9, 124], [9, 175], [10, 22], [10, 178], [10, 179], [10, 213], [10, 229], [11, 27], [11, 203], [11, 204], [11, 217], [11, 233], [11, 239], [12, 38], [12, 114], [12, 129], [12, 137], [12, 168], [13, 75], [13, 132], [13, 135], [14, 19], [14, 93], [14, 176], [15, 231], [16, 62], [16, 90], [16, 116], [16, 120], [16, 136], [16, 165], [16, 168], [16, 169], [17, 123], [17, 135], [17, 159], [18, 22], [18, 193], [18, 220], [18, 233], [19, 195], [20, 140], [22, 182], [24, 84], [24, 122], [25, 153], [26, 177], [28, 33], [28, 53], [28, 189], [29, 198], [30, 155], [31, 71], [31, 163], [31, 168], [31, 172], [32, 37], [32, 76], [32, 112], [32, 130], [32, 134], [32, 176], [32, 178], [33, 82], [33, 122], [33, 142], [33, 206], [34, 163], [34, 213], [35, 157], [36, 40], [36, 45], [36, 131], [37, 44], [37, 59], [38, 163], [38, 168], [40, 44], [40, 112], [40, 116], [40, 128], [40, 181], [40, 189], [41, 103], [41, 106], [41, 122], [42, 149], [45, 181], [45, 197], [46, 94], [47, 169], [47, 233], [48, 112], [48, 122], [48, 190], [48, 197], [49, 196], [50, 170], [51, 69], [52, 177], [53, 221], [54, 62], [54, 133], [55, 66], [55, 87], [56, 113], [56, 153], [56, 177], [57, 117], [57, 190], [57, 223], [58, 193], [58, 200], [59, 230], [60, 145], [60, 149], [61, 68], [61, 103], [61, 154], [61, 155], [61, 178], [61, 187], [62, 78], [62, 137], [62, 193], [62, 237], [63, 67], [63, 71], [63, 135], [63, 203], [64, 154], [65, 81], [67, 175], [67, 233], [68, 86], [69, 99], [69, 119], [70, 84], [70, 192], [70, 207], [71, 128], [71, 133], [71, 137], [71, 205], [72, 76], [72, 93], [72, 177], [73, 116], [74, 93], [75, 87], [75, 173], [78, 168], [78, 221], [79, 86], [79, 103], [79, 175], [80, 112], [80, 128], [82, 170], [82, 184], [82, 222], [83, 125], [83, 203], [83, 233], [83, 235], [84, 197], [85, 133], [86, 106], [86, 124], [86, 136], [86, 152], [86, 184], [86, 190], [86, 204], [86, 237], [86, 238], [88, 145], [88, 209], [89, 187], [90, 116], [90, 165], [90, 196], [91, 127], [92, 138], [92, 192], [94, 140], [95, 98], [95, 135], [96, 108], [96, 145], [97, 162], [99, 125], [99, 134], [99, 140], [101, 105], [101, 145], [101, 157], [101, 225], [102, 122], [102, 130], [102, 166], [102, 238], [103, 106], [103, 163], [103, 203], [104, 136], [106, 108], [106, 127], [106, 142], [106, 190], [106, 207], [107, 143], [108, 190], [109, 210], [110, 121], [111, 143], [111, 233], [112, 129], [112, 145], [113, 115], [113, 125], [114, 147], [114, 179], [115, 145], [121, 122], [121, 187], [123, 131], [123, 179], [123, 187], [124, 136], [124, 157], [124, 158], [125, 205], [131, 161], [131, 171], [131, 179], [132, 136], [132, 140], [132, 196], [132, 228], [134, 198], [136, 170], [137, 169], [137, 233], [138, 234], [141, 172], [141, 175], [142, 238], [143, 175], [144, 153], [146, 152], [147, 149], [147, 153], [147, 211], [150, 159], [152, 217], [153, 159], [153, 168], [153, 173], [155, 187], [158, 190], [159, 171], [161, 164], [161, 229], [162, 171], [165, 172], [166, 170], [166, 174], [168, 232], [170, 235], [173, 233], [176, 177], [179, 195], [180, 196], [181, 182], [181, 212], [182, 194], [182, 212], [183, 195], [184, 201], [184, 202], [185, 188], [185, 203], [185, 209], [185, 233], [187, 218], [187, 223], [188, 191], [188, 204], [190, 207], [192, 226], [193, 205], [194, 203], [197, 205], [197, 231], [203, 227], [203, 233], [204, 232], [205, 233], [209, 224], [217, 218], [217, 225], [220, 221], [225, 235], [226, 228], [227, 233], [232, 237], [233, 234], [233, 237]], "support_counts": [1, 1, 1, 1, 1, 1, 1, 1, 1, 1, 1, 1, 1, 1, 1, 1, 1, 1, 1, 1, 1, 1, 1, 1, 1, 1, 1, 1, 1, 1, 1, 1, 1, 1, 1, 1, 1, 1, 1, 1, 1, 1, 1, 1, 1, 1, 1, 2, 1, 1, 1, 1, 1, 1, 1, 1, 1, 1, 1, 1, 1, 1, 1, 1, 1, 1, 1, 1, 1, 1, 1, 1, 1, 1, 1, 1, 1, 1, 1, 1, 1, 1, 1, 1, 1, 1, 1, 1, 1, 1, 1, 1, 1, 1, 1, 1, 1, 1, 1, 1, 1, 1, 1, 1, 1, 1, 1, 1, 1, 1, 1, 1, 1, 1, 1, 1, 1, 1, 1, 1, 1, 1, 1, 2, 1, 1, 1, 1, 1, 1, 1, 1, 1, 2, 1, 1, 1, 1, 1, 1, 1, 1, 1, 1, 1, 1, 1, 1, 1, 1, 1, 1, 1, 1, 1, 1, 1, 1, 1, 1, 1, 1, 1, 2, 1, 1, 1, 1, 1, 1, 1, 1, 1, 1, 1, 1, 1, 1, 1, 1, 1, 1, 1, 1, 1, 1, 1, 1, 1, 1, 1, 2, 1, 1, 1, 1, 1, 1, 1, 1, 1, 1, 1, 1, 1, 1, 1, 1, 1, 1, 1, 1, 1, 1, 1, 1, 1, 1, 1, 1, 1, 1, 1, 1, 1, 1, 1, 1, 1, 1, 1, 2, 1, 1, 1, 1, 1, 1, 1, 1, 1, 1, 1, 1, 1, 1, 2, 1, 1, 1, 1, 1, 2, 1, 1, 1, 1, 1, 1, 1, 1, 1, 1, 1, 1, 1, 1, 2, 1, 1, 1, 1, 1, 1, 1, 1, 1, 1, 1, 1, 1, 1, 1, 1, 1, 1, 1, 1, 1, 1, 1, 2, 1, 1, 1, 1, 1, 1, 1, 1, 1, 1, 1, 1, 1, 1, 1, 1, 1, 1, 1, 1, 1, 1, 1, 1, 1, 1, 1, 1, 1, 1, 1, 2, 1, 1, 1, 1, 1, 1, 1, 1, 1, 1, 1, 1, 1], "support_class": ["single", "single", "single", "single", "single", "single", "single", "single", "single", "single", "single", "single", "single", "single", "single", "single", "single", "single", "single", "single", "single", "single", "single", "single", "single", "single", "single", "single", "single", "single", "single", "single", "single", "single", "single", "single", "single", "single", "single", "single", "single", "single", "single", "single", "single", "single", "single", "shared", "single", "single", "single", "single", "single", "single", "single", "single", "single", "single", "single", "single", "single", "single", "single", "single", "single", "single", "single", "single", "single", "single", "single", "single", "single", "single", "single", "single", "single", "single", "single", "single", "single", "single", "single", "single", "single", "single", "single", "single", "single", "single", "single", "single", "single", "single", "single", "single", "single", "single", "single", "single", "single", "single", "single", "single", "single", "single", "single", "single", "single", "single", "single", "single", "single", "single", "single", "single", "single", "single", "single", "single", "single", "single", "single", "shared", "single", "single", "single", "single", "single", "single", "single", "single", "single", "shared", "single", "single", "single", "single", "single", "single", "single", "single", "single", "single", "single", "single", "single", "single", "single", "single", "single", "single", "single", "single", "single", "single", "single", "single", "single", "single", "single", "single", "single", "shared", "single", "single", "single", "single", "single", "single", "single", "single", "single", "single", "single", "single", "single", "single", "single", "single", "single", "single", "single", "single", "single", "single", "single", "single", "single", "single", "single", "shared", "single", "single", "single", "single", "single", "single", "single", "single", "single", "single", "single", "single", "single", "single", "single", "single", "single", "single", "single", "single", "single", "single", "single", "single", "single", "single", "single", "single", "single", "single", "single", "single", "single", "single", "single", "single", "single", "single", "single", "shared", "single", "single", "single", "single", "single", "single", "single", "single", "single", "single", "single", "single", "single", "single", "shared", "single", "single", "single", "single", "single", "shared", "single", "single", "single", "single", "single", "single", "single", "single", "single", "single", "single", "single", "single", "single", "shared", "single", "single", "single", "single", "single", "single", "single", "single", "single", "single", "single", "single", "single", "single", "single", "single", "single", "single", "single", "single", "single", "single", "single", "shared", "single", "single", "single", "single", "single", "single", "single", "single", "single", "single", "single", "single", "single", "single", "single", "single", "single", "single", "single", "single", "single", "single", "single", "single", "single", "single", "single", "single", "single", "single", "single", "shared", "single", "single", "single", "single", "single", "single", "single", "single", "single", "single", "single", "single", "single"]}, "geometry": {"type": "MultiLineString", "coordinates": [[[75.07975739873872, 49.24860620260109], [-17.773819121917168, 32.325036808768644]], [[75.07975739873872, 49.24860620260109], [21.72865760382202, 19.73872888045495]], [[75.07975739873872, 49.24860620260109], [-50.71839746483635, 45.505978509183585]], [[-68.7007423991439, -57.483880793950426], [-17.773819121917168, 32.325036808768644]], [[-68.7007423991439, -57.483880793950426], [-78.60135296180842, 1.4043207304507193]], [[-68.7007423991439, -57.483880793950426], [-33.91266155221211, 31.74618815341999]], [[111.2992576008561, 57.483880793950426], [129.28160253516364, -45.505978509183585]], [[111.2992576008561, 57.483880793950426], [149.98118641471862, -48.996006310491154]], [[111.2992576008561, 57.483880793950426], [60.64334456081849, 84.53028103430827]], [[111.2992576008561, 57.483880793950426], [-123.78470069595521, 43.618591434829185]], [[111.2992576008561, 57.483880793950426], [78.39930969872039, -36.93815696547958]], [[120.67976070637057, -4.36293727612252], [-50.71839746483635, 45.505978509183585]], [[-17.773819121917168, 32.325036808768644], [-17.212501210163378, 11.237045138280445]], [[-17.773819121917168, 32.325036808768644], [165.45620298360348, 51.719583692275194]], [[-17.773819121917168, 32.325036808768644], [83.86285497891909, 6.265432001683964]], [[-17.773819121917168, 32.325036808768644], [135.10223669079062, 58.002931469286075]], [[162.22618087808286, -32.325036808768644], [101.3986470381916, -1.4043207304507193]], [[-59.32023929362942, 4.36293727612252], [-61.89321467931359, -20.63531449271372]], [[-59.32023929362942, 4.36293727612252], [123.96612503938046, -48.95703258414086]], [[-59.32023929362942, 4.36293727612252], [33.08461875143939, 55.15279060368695]], [[-59.32023929362942, 4.36293727612252], [144.55474437847073, 43.653863248122114]], [[-78.60135296180842, 1.4043207304507193], [121.4908717136864, -18.83544797747954]], [[-78.60135296180842, 1.4043207304507193], [-2.872791750826356, 56.54598338720964]], [[-78.60135296180842, 1.4043207304507193], [165.45620298360348, 51.719583692275194]], [[-78.60135296180842, 1.4043207304507193], [175.64099909037577, -11.947288544127007]], [[-78.60135296180842, 1.4043207304507193], [-74.76903119987907, -29.38216906702764]], [[71.43668098060876, 27.427732996528817], [75.5537321000394, 0.9107918162814546]], [[71.43668098060876, 27.427732996528817], [90.32431942398203, 33.515251454393905]], [[71.43668098060876, 27.427732996528817], [108.99295617841975, 13.378076461173409]], [[71.43668098060876, 27.427732996528817], [-100.73343415858973, 23.649630099022005]], [[-108.56331901939124, -27.427732996528817], [11.090369074179513, -68.29538914155064]], [[-108.56331901939124, -27.427732996528817], [-16.383258930720046, -23.87701559705082]], [[-108.56331901939124, -27.427732996528817], [141.05617214458837, 34.083215641965005]], [[-108.56331901939124, -27.427732996528817], [-144.1380160785112, -4.03882698462622]], [[-108.56331901939124, -27.427732996528817], [-140.85688393771622, -10.83937717996951]], [[101.3986470381916, -1.4043207304507193], [129.28160253516364, -45.505978509183585]], [[101.3986470381916, -1.4043207304507193], [33.08461875143939, 55.15279060368695]], [[101.3986470381916, -1.4043207304507193], [27.615117670818336, 57.08407199097843]], [[101.3986470381916, -1.4043207304507193], [-142.77969368316863, 59.39922238738488]], [[101.3986470381916, -1.4043207304507193], [22.14363513145498, 39.87742038135137]], [[101.3986470381916, -1.4043207304507193], [-140.07002417139495, -15.137434193071154]], [[21.72865760382202, 19.73872888045495], [-21.91886409898757, -29.00723103418322]], [[21.72865760382202, 19.73872888045495], [58.982873066129244, -23.258205022941006]], [[21.72865760382202, 19.73872888045495], [-32.68767372073303, 63.46098023143404]], [[21.72865760382202, 19.73872888045495], [62.93451108494027, 49.48884985490553]], [[21.72865760382202, 19.73872888045495], [34.06239051202337, -19.061701005198874]], [[175.97645225598404, 1.506370121426164], [156.5461309896173, 0.7978755935324296]], [[175.97645225598404, 1.506370121426164], [-45.94011916479245, 41.75613207840437]], [[175.97645225598404, 1.506370121426164], [-104.03551231143796, 44.30532167511426]], [[-4.023547744015944, -1.506370121426164], [-92.33644076173948, -35.33963062619757]], [[-4.023547744015944, -1.506370121426164], [-21.58176243924665, 70.67951823607928]], [[-4.023547744015944, -1.506370121426164], [79.26656584141028, -23.649630099022005]], [[-158.271342396178, -19.73872888045495], [-104.4462678999606, -0.9107918162814546]], [[87.66355923826052, 35.33963062619757], [-15.107475117708374, 46.23393430949478]], [[87.66355923826052, 35.33963062619757], [170.73169243211353, 0.5633726205689301]], [[87.66355923826052, 35.33963062619757], [121.4908717136864, -18.83544797747954]], [[87.66355923826052, 35.33963062619757], [75.5537321000394, 0.9107918162814546]], [[87.66355923826052, 35.33963062619757], [22.489578686968766, 27.13987791778141]], [[87.66355923826052, 35.33963062619757], [-110.71636839341258, 19.047459246749053]], [[87.66355923826052, 35.33963062619757], [34.06239051202337, -19.061701005198874]], [[87.66355923826052, 35.33963062619757], [-30.018813585281375, 48.996006310491154]], [[-21.67296634078321, 1.6716472146138175], [90.32431942398203, 33.515251454393905]], [[-21.67296634078321, 1.6716472146138175], [-104.03551231143796, 44.30532167511426]], [[-21.67296634078321, 1.6716472146138175], [164.21340255100796, -14.179346298533492]], [[158.3270336592168, -1.6716472146138175], [11.090369074179513, -68.29538914155064]], [[158.3270336592168, -1.6716472146138175], [27.007259315577606, 73.97632643467983]], [[158.3270336592168, -1.6716472146138175], [177.12720824917363, -56.54598338720964]], [[158.3270336592168, -1.6716472146138175], [22.14363513145498, 39.87742038135137]], [[-92.33644076173948, -35.33963062619757], [-61.07353601555673, 39.128579814027205]], [[37.37413591713704, -33.94912182047279], [83.86285497891909, 6.265432001683964]], [[11.090369074179513, -68.29538914155064], [149.98118641471862, -48.996006310491154]], [[-50.71839746483635, 45.505978509183585], [-85.1489645824464, 7.47166453561735]], [[-50.71839746483635, 45.505978509183585], [39.143116062283795, 10.83937717996951]], [[92.70416895348316, -9.414460553801863], [102.9406109652411, 10.273112295448074]], [[-87.29583104651685, 9.414460553801863], [-150.44568036577266, 74.2442247139548]], [[118.10678532068641, 20.63531449271372], [82.24130998472015, 40.4331635605148]], [[118.10678532068641, 20.63531449271372], [115.5667328613444, -3.614642333035597]], [[118.10678532068641, 20.63531449271372], [166.69149175158023, 38.432614094181226]], [[4.989374079806218, 57.407669527447005], [-77.0593890347589, -10.273112295448074]], [[-175.01062592019377, -57.407669527447005], [-56.03387496061956, 48.95703258414086]], [[-61.89321467931359, -20.63531449271372], [28.34434684213669, -11.669924025938064]], [[-61.89321467931359, -20.63531449271372], [-62.79427514167585, 15.419768811705538]], [[-61.89321467931359, -20.63531449271372], [34.06239051202337, -19.061701005198874]], [[-61.89321467931359, -20.63531449271372], [-38.943827855411634, -34.083215641965005]], [[-176.4528114633078, 83.77902822618996], [158.08113590101243, 29.00723103418322]], [[-176.4528114633078, 83.77902822618996], [-142.6993663549085, -0.3585909940085239]], [[-176.4528114633078, 83.77902822618996], [39.92997582860505, 15.137434193071154]], [[-176.4528114633078, 83.77902822618996], [-17.212501210163378, 11.237045138280445]], [[-176.4528114633078, 83.77902822618996], [37.22030631683139, -59.39922238738488]], [[-176.4528114633078, 83.77902822618996], [79.26656584141028, -23.649630099022005]], [[-176.4528114633078, 83.77902822618996], [-16.383258930720046, -23.87701559705082]], [[82.24130998472015, 40.4331635605148], [51.90419760468401, -29.952146691090597]], [[82.24130998472015, 40.4331635605148], [39.143116062283795, 10.83937717996951]], [[82.24130998472015, 40.4331635605148], [-4.918307057572457, 31.308661032216374]], [[82.24130998472015, 40.4331635605148], [78.39930969872039, -36.93815696547958]], [[-97.75869001527985, -40.4331635605148], [-62.79427514167585, 15.419768811705538]], [[-97.75869001527985, -40.4331635605148], [-144.1380160785112, -4.03882698462622]], [[3.5471885366922082, -83.77902822618996], [-176.3744644045622, 19.97389167058562]], [[37.06304379853891, 37.24172033946581], [95.8004446445896, 45.74695019863807]], [[37.06304379853891, 37.24172033946581], [157.86615487520265, 69.86234986878351]], [[37.06304379853891, 37.24172033946581], [-2.872791750826356, 56.54598338720964]], [[158.08113590101243, 29.00723103418322], [54.13509351947875, -6.723043708492225]], [[158.08113590101243, 29.00723103418322], [-115.8262537274462, 6.438089375917862]], [[-21.91886409898757, -29.00723103418322], [-62.79427514167585, 15.419768811705538]], [[-21.91886409898757, -29.00723103418322], [34.06239051202337, -19.061701005198874]], [[95.8004446445896, 45.74695019863807], [54.13509351947875, -6.723043708492225]], [[95.8004446445896, 45.74695019863807], [39.92997582860505, 15.137434193071154]], [[95.8004446445896, 45.74695019863807], [121.4908717136864, -18.83544797747954]], [[95.8004446445896, 45.74695019863807], [35.48185196354426, 5.006609593006343]], [[95.8004446445896, 45.74695019863807], [163.60308938281207, 10.049373878641314]], [[95.8004446445896, 45.74695019863807], [166.69149175158023, 38.432614094181226]], [[44.20987098559568, 63.361069869043504], [-122.75402472735256, 38.02335346748133]], [[44.20987098559568, 63.361069869043504], [-71.92087803895267, 8.44381111394315]], [[44.20987098559568, 63.361069869043504], [39.143116062283795, 10.83937717996951]], [[-135.79012901440433, -63.361069869043504], [175.64099909037577, -11.947288544127007]], [[157.86615487520265, 69.86234986878351], [163.60308938281207, 10.049373878641314]], [[157.86615487520265, 69.86234986878351], [-123.78470069595521, 43.618591434829185]], [[-22.13384512479735, -69.86234986878351], [158.41823756075337, -70.67951823607928]], [[-125.86490648052124, 6.723043708492225], [-30.018813585281375, 48.996006310491154]], [[-125.86490648052124, 6.723043708492225], [22.14363513145498, 39.87742038135137]], [[-31.17644576556834, 74.90628620802065], [39.92997582860505, 15.137434193071154]], [[-31.17644576556834, 74.90628620802065], [39.143116062283795, 10.83937717996951]], [[-31.17644576556834, 74.90628620802065], [146.08733844778791, -31.74618815341999]], [[-31.17644576556834, 74.90628620802065], [-123.78470069595521, 43.618591434829185]], [[97.4094498018189, 15.574405050573382], [123.96612503938046, -48.95703258414086]], [[-82.59055019818112, -15.574405050573382], [-16.396910617187924, -10.049373878641314]], [[148.82355423443167, -74.90628620802065], [124.18920964244305, -24.789376767429964]], [[-175.1254391665484, -35.344489266748454], [-150.44568036577266, 74.2442247139548]], [[115.5667328613444, -3.614642333035597], [162.78749878983663, -11.237045138280445]], [[-64.43326713865561, 3.614642333035597], [-15.107475117708374, 46.23393430949478]], [[-64.43326713865561, 3.614642333035597], [165.45620298360348, 51.719583692275194]], [[4.874560833451619, 35.344489266748454], [-7.808126206017511, -25.458168494097958]], [[4.874560833451619, 35.344489266748454], [94.85103541755362, -7.47166453561735]], [[64.17374627255381, -6.438089375917862], [106.60533091134795, 37.714891424219246]], [[64.17374627255381, -6.438089375917862], [102.9406109652411, 10.273112295448074]], [[64.17374627255381, -6.438089375917862], [-150.44568036577266, 74.2442247139548]], [[168.94633578201268, -17.374160873165344], [-176.37899824236726, 41.130772583658896]], [[168.94633578201268, -17.374160873165344], [146.08733844778791, -31.74618815341999]], [[168.94633578201268, -17.374160873165344], [-144.51814803645576, -5.006609593006343]], [[-11.053664217987313, 17.374160873165344], [27.007259315577606, 73.97632643467983]], [[-11.053664217987313, 17.374160873165344], [48.0095852448484, 4.072641713508146]], [[-115.8262537274462, 6.438089375917862], [-95.3659522416872, -61.60036200902808]], [[130.84027883376297, -3.780628209573258], [-101.60069030127961, 36.93815696547958]], [[130.84027883376297, -3.780628209573258], [175.64099909037577, -11.947288544127007]], [[164.8925248822916, -46.23393430949478], [-151.65565315786333, 11.669924025938064]], [[164.8925248822916, -46.23393430949478], [-122.75402472735256, 38.02335346748133]], [[164.8925248822916, -46.23393430949478], [56.2152993040448, -43.618591434829185]], [[164.8925248822916, -46.23393430949478], [-56.03387496061956, 48.95703258414086]], [[164.8925248822916, -46.23393430949478], [-16.383258930720046, -23.87701559705082]], [[164.8925248822916, -46.23393430949478], [60.64334456081849, 84.53028103430827]], [[-15.107475117708374, 46.23393430949478], [92.28829248106264, 24.9165990948317]], [[-15.107475117708374, 46.23393430949478], [62.93451108494027, 49.48884985490553]], [[-15.107475117708374, 46.23393430949478], [27.007259315577606, 73.97632643467983]], [[-15.107475117708374, 46.23393430949478], [-121.01712693387077, 23.258205022941006]], [[-49.15972116623701, 3.780628209573258], [-88.94150908720513, 54.419182649028734]], [[-49.15972116623701, 3.780628209573258], [28.34434684213669, -11.669924025938064]], [[-49.15972116623701, 3.780628209573258], [-104.03551231143796, 44.30532167511426]], [[-49.15972116623701, 3.780628209573258], [33.08461875143939, 55.15279060368695]], [[91.05849091279488, -54.419182649028734], [56.2152993040448, -43.618591434829185]], [[172.1918737939825, 25.458168494097958], [-128.09580239531599, 29.952146691090597]], [[-88.94150908720513, 54.419182649028734], [-100.73343415858973, 23.649630099022005]], [[-88.94150908720513, 54.419182649028734], [22.14363513145498, 39.87742038135137]], [[-151.65565315786333, 11.669924025938064], [-25.875723608461254, 59.67844034043507]], [[124.18920964244305, -24.789376767429964], [155.87406690778062, -24.916806131765505]], [[124.18920964244305, -24.789376767429964], [165.20561840506718, 13.478912722810524]], [[-55.810790357556954, 24.789376767429964], [-85.1489645824464, 7.47166453561735]], [[-55.810790357556954, 24.789376767429964], [-15.786597448992058, 14.179346298533492]], [[-55.810790357556954, 24.789376767429964], [-115.4125892812102, 53.480558377290585]], [[28.34434684213669, -11.669924025938064], [35.48185196354426, 5.006609593006343]], [[28.34434684213669, -11.669924025938064], [165.45620298360348, 51.719583692275194]], [[28.34434684213669, -11.669924025938064], [62.93451108494027, 49.48884985490553]], [[28.34434684213669, -11.669924025938064], [144.55474437847073, 43.653863248122114]], [[-23.453869010382718, -0.7978755935324296], [-142.6993663549085, -0.3585909940085239]], [[-23.453869010382718, -0.7978755935324296], [-21.58176243924665, 70.67951823607928]], [[-23.453869010382718, -0.7978755935324296], [-150.44568036577266, 74.2442247139548]], [[-144.33532772316042, -18.081878887110246], [121.4908717136864, -18.83544797747954]], [[35.66467227683958, 18.081878887110246], [-21.58176243924665, 70.67951823607928]], [[156.5461309896173, 0.7978755935324296], [94.85103541755362, -7.47166453561735]], [[156.5461309896173, 0.7978755935324296], [163.61674106927995, 23.87701559705082]], [[92.28829248106264, 24.9165990948317], [34.06239051202337, -19.061701005198874]], [[92.28829248106264, 24.9165990948317], [162.78749878983663, -11.237045138280445]], [[37.3006336450915, 0.3585909940085239], [-25.875723608461254, 59.67844034043507]], [[37.3006336450915, 0.3585909940085239], [-122.75402472735256, 38.02335346748133]], [[37.3006336450915, 0.3585909940085239], [-100.73343415858973, 23.649630099022005]], [[-24.76017472855588, -63.595209425219004], [39.92997582860505, 15.137434193071154]], [[-24.76017472855588, -63.595209425219004], [35.48185196354426, 5.006609593006343]], [[51.90419760468401, -29.952146691090597], [-16.396910617187924, -10.049373878641314]], [[51.90419760468401, -29.952146691090597], [57.54450499524142, 11.578974192096595]], [[51.90419760468401, -29.952146691090597], [147.31232627926695, -63.46098023143404]], [[155.23982527144412, 63.595209425219004], [132.09767914005158, 23.073518436755553]], [[155.23982527144412, 63.595209425219004], [33.08461875143939, 55.15279060368695]], [[155.23982527144412, 63.595209425219004], [22.14363513145498, 39.87742038135137]], [[155.23982527144412, 63.595209425219004], [-58.509128286313604, 18.83544797747954]], [[-85.1489645824464, 7.47166453561735], [-123.78470069595521, 43.618591434829185]], [[154.12427639153873, -59.67844034043507], [165.45620298360348, 51.719583692275194]], [[-25.875723608461254, 59.67844034043507], [-71.92087803895267, 8.44381111394315]], [[-25.875723608461254, 59.67844034043507], [108.99295617841975, 13.378076461173409]], [[-25.875723608461254, 59.67844034043507], [22.489578686968766, 27.13987791778141]], [[-25.875723608461254, 59.67844034043507], [37.41159166291146, -23.046506483993475]], [[-25.875723608461254, 59.67844034043507], [57.54450499524142, 11.578974192096595]], [[-25.875723608461254, 59.67844034043507], [146.08733844778791, -31.74618815341999]], [[-25.875723608461254, 59.67844034043507], [27.615117670818336, 57.08407199097843]], [[-25.875723608461254, 59.67844034043507], [-121.01712693387077, 23.258205022941006]], [[-25.875723608461254, 59.67844034043507], [-73.39466908865205, -37.714891424219246]], [[35.14991435011694, 23.133249494832487], [-101.60069030127961, 36.93815696547958]], [[35.14991435011694, 23.133249494832487], [175.08169294242757, -31.308661032216374]], [[-9.268307567886474, -0.5633726205689301], [60.64334456081849, 84.53028103430827]], [[170.73169243211353, 0.5633726205689301], [121.4908717136864, -18.83544797747954]], [[170.73169243211353, 0.5633726205689301], [-110.71636839341258, 19.047459246749053]], [[170.73169243211353, 0.5633726205689301], [123.96612503938046, -48.95703258414086]], [[-144.85008564988308, -23.133249494832487], [170.3874331904215, 49.0571688463766]], [[18.89422271811102, -22.24668652581078], [35.86198392148878, 4.03882698462622]], [[18.89422271811102, -22.24668652581078], [-15.786597448992058, 14.179346298533492]], [[158.41823756075337, -70.67951823607928], [83.86285497891909, 6.265432001683964]], [[-161.10577728188898, 22.24668652581078], [-128.94152450838448, 8.78259179245781]], [[-161.10577728188898, 22.24668652581078], [-104.03551231143796, 44.30532167511426]], [[-24.125933092219405, 24.916806131765505], [-25.200429169882756, -28.5654955624994]], [[-24.125933092219405, 24.916806131765505], [-101.60069030127961, 36.93815696547958]], [[51.05847549161552, -8.78259179245781], [-13.308508248419757, -38.432614094181226]], [[155.87406690778062, -24.916806131765505], [132.09767914005158, 23.073518436755553]], [[155.87406690778062, -24.916806131765505], [37.22030631683139, -59.39922238738488]], [[155.87406690778062, -24.916806131765505], [83.86285497891909, 6.265432001683964]], [[176.98834864316012, 55.815074638018224], [108.07912196104735, -8.44381111394315]], [[176.98834864316012, 55.815074638018224], [-101.60069030127961, 36.93815696547958]], [[176.98834864316012, 55.815074638018224], [-176.3744644045622, 19.97389167058562]], [[176.98834864316012, 55.815074638018224], [-73.07308523078896, 17.73675249956282]], [[-3.011651356839888, -55.815074638018224], [39.143116062283795, 10.83937717996951]], [[-3.011651356839888, -55.815074638018224], [-17.212501210163378, 11.237045138280445]], [[-3.011651356839888, -55.815074638018224], [-74.76903119987907, -29.38216906702764]], [[-3.011651356839888, -55.815074638018224], [-73.39466908865205, -37.714891424219246]], [[-122.75402472735256, 38.02335346748133], [-71.92087803895267, 8.44381111394315]], [[-122.75402472735256, 38.02335346748133], [-62.79427514167585, 15.419768811705538]], [[-122.75402472735256, 38.02335346748133], [33.08461875143939, 55.15279060368695]], [[-78.28268945637903, 59.863702822340514], [22.489578686968766, 27.13987791778141]], [[-71.92087803895267, 8.44381111394315], [-25.200429169882756, -28.5654955624994]], [[-71.92087803895267, 8.44381111394315], [170.3874331904215, 49.0571688463766]], [[-71.92087803895267, 8.44381111394315], [-4.918307057572457, 31.308661032216374]], [[-71.92087803895267, 8.44381111394315], [146.08733844778791, -31.74618815341999]], [[-71.92087803895267, 8.44381111394315], [-115.4125892812102, 53.480558377290585]], [[101.71731054362098, -59.863702822340514], [135.10223669079062, 58.002931469286075]], [[-25.200429169882756, -28.5654955624994], [146.08733844778791, -31.74618815341999]], [[69.90785056487935, -48.4248933902734], [0.2919312105370132, -78.84635527621764]], [[-110.09214943512065, 48.4248933902734], [84.6340477583128, 61.60036200902808]], [[154.79957083011726, 28.5654955624994], [135.10223669079062, 58.002931469286075]], [[154.79957083011726, 28.5654955624994], [22.14363513145498, 39.87742038135137]], [[39.92997582860505, 15.137434193071154], [-32.68767372073303, 63.46098023143404]], [[39.92997582860505, 15.137434193071154], [-101.60069030127961, 36.93815696547958]], [[106.60533091134795, 37.714891424219246], [-66.92903068745385, 72.97699182950393]], [[106.60533091134795, 37.714891424219246], [132.09767914005158, 23.073518436755553]], [[58.982873066129244, -23.258205022941006], [-152.38488232918166, -57.08407199097843]], [[58.982873066129244, -23.258205022941006], [141.05617214458837, 34.083215641965005]], [[-66.92903068745385, 72.97699182950393], [-101.60069030127961, 36.93815696547958]], [[84.6340477583128, 61.60036200902808], [39.143116062283795, 10.83937717996951]], [[84.6340477583128, 61.60036200902808], [60.64334456081849, 84.53028103430827]], [[90.32431942398203, 33.515251454393905], [-2.872791750826356, 56.54598338720964]], [[90.32431942398203, 33.515251454393905], [141.05617214458837, 34.083215641965005]], [[90.32431942398203, 33.515251454393905], [60.64334456081849, 84.53028103430827]], [[108.99295617841975, 13.378076461173409], [22.489578686968766, 27.13987791778141]], [[108.99295617841975, 13.378076461173409], [-176.3744644045622, 19.97389167058562]], [[108.99295617841975, 13.378076461173409], [-152.99274068442242, -73.97632643467983]], [[132.09767914005158, 23.073518436755553], [144.55474437847073, 43.653863248122114]], [[-2.872791750826356, 56.54598338720964], [-33.91266155221211, 31.74618815341999]], [[-2.872791750826356, 56.54598338720964], [-2.2163672238815946, 22.749709472506588]], [[-2.872791750826356, 56.54598338720964], [141.05617214458837, 34.083215641965005]], [[-45.94011916479245, 41.75613207840437], [22.489578686968766, 27.13987791778141]], [[-45.94011916479245, 41.75613207840437], [83.86285497891909, 6.265432001683964]], [[-45.94011916479245, 41.75613207840437], [123.96612503938046, -48.95703258414086]], [[-45.94011916479245, 41.75613207840437], [-89.67568057601797, -33.515251454393905]], [[37.22030631683139, -59.39922238738488], [-77.0593890347589, -10.273112295448074]], [[22.489578686968766, 27.13987791778141], [-16.396910617187924, -10.049373878641314]], [[62.93451108494027, 49.48884985490553], [-30.018813585281375, 48.996006310491154]], [[62.93451108494027, 49.48884985490553], [22.14363513145498, 39.87742038135137]], [[35.86198392148878, 4.03882698462622], [3.621001757632761, -41.130772583658896]], [[-179.708068789463, 78.84635527621764], [-38.943827855411634, -34.083215641965005]], [[-179.708068789463, 78.84635527621764], [-100.73343415858973, 23.649630099022005]], [[-4.918307057572457, 31.308661032216374], [-73.39466908865205, -37.714891424219246]], [[135.10223669079062, 58.002931469286075], [-100.73343415858973, 23.649630099022005]], [[64.58741071878981, -53.480558377290585], [102.9406109652411, 10.273112295448074]], [[-35.44525562152926, -43.653863248122114], [37.41159166291146, -23.046506483993475]], [[-152.38488232918166, -57.08407199097843], [175.64099909037577, -11.947288544127007]], [[-152.38488232918166, -57.08407199097843], [102.9406109652411, 10.273112295448074]], [[-152.38488232918166, -57.08407199097843], [-96.13714502108091, -6.265432001683964]], [[173.69724608997117, -69.25679944085279], [164.21340255100796, -14.179346298533492]], [[37.41159166291146, -23.046506483993475], [-142.77969368316863, 59.39922238738488]], [[102.9406109652411, 10.273112295448074], [164.21340255100796, -14.179346298533492]], [[102.9406109652411, 10.273112295448074], [34.06239051202337, -19.061701005198874]], [[102.9406109652411, 10.273112295448074], [163.61674106927995, 23.87701559705082]], [[-56.03387496061956, 48.95703258414086], [60.64334456081849, 84.53028103430827]], [[-152.99274068442242, -73.97632643467983], [146.08733844778791, -31.74618815341999]], [[164.21340255100796, -14.179346298533492], [-2.2163672238815946, 22.749709472506588]], [[-33.91266155221211, 31.74618815341999], [-119.35665543918151, -84.53028103430827]], [[-33.91266155221211, 31.74618815341999], [-140.85688393771622, -10.83937717996951]], [[-13.308508248419757, -38.432614094181226], [-2.2163672238815946, 22.749709472506588]], [[-110.71636839341258, 19.047459246749053], [-38.943827855411634, -34.083215641965005]], [[-74.76903119987907, -29.38216906702764], [-16.396910617187924, -10.049373878641314]], [[-74.76903119987907, -29.38216906702764], [29.554319634227348, -74.2442247139548]], [[34.06239051202337, -19.061701005198874], [-14.794381594932837, -13.478912722810524]], [[-16.396910617187924, -10.049373878641314], [-58.509128286313604, 18.83544797747954]], [[163.61674106927995, 23.87701559705082], [22.14363513145498, 39.87742038135137]], [[79.26656584141028, -23.649630099022005], [-150.44568036577266, 74.2442247139548]], [[141.05617214458837, 34.083215641965005], [-61.07353601555673, 39.128579814027205]], [[177.78363277611842, -22.749709472506588], [123.96612503938046, -48.95703258414086]], [[163.60308938281207, 10.049373878641314], [149.98118641471862, -48.996006310491154]], [[163.60308938281207, 10.049373878641314], [167.65481072630254, -58.41148405651218]], [[149.98118641471862, -48.996006310491154], [3.625535595437805, -19.97389167058562]], [[149.98118641471862, -48.996006310491154], [167.65481072630254, -58.41148405651218]], [[-145.93760948797663, 19.061701005198874], [-61.07353601555673, 39.128579814027205]], [[57.54450499524142, 11.578974192096595], [-6.30275391002884, 69.25679944085279]], [[57.54450499524142, 11.578974192096595], [-4.359000909624244, 11.947288544127007]], [[105.23096880012095, 29.38216906702764], [117.20572485832416, -15.419768811705538]], [[105.23096880012095, 29.38216906702764], [33.08461875143939, 55.15279060368695]], [[105.23096880012095, 29.38216906702764], [175.08169294242757, -31.308661032216374]], [[105.23096880012095, 29.38216906702764], [22.14363513145498, 39.87742038135137]], [[60.64334456081849, 84.53028103430827], [-14.543797016396526, -51.719583692275194]], [[60.64334456081849, 84.53028103430827], [-144.51814803645576, -5.006609593006343]], [[117.20572485832416, -15.419768811705538], [152.22603380132603, 11.362104830023807]], [[117.20572485832416, -15.419768811705538], [27.615117670818336, 57.08407199097843]], [[146.08733844778791, -31.74618815341999], [-115.4125892812102, 53.480558377290585]], [[-15.786597448992058, 14.179346298533492], [-47.90232085994843, -23.073518436755553]], [[27.007259315577606, 73.97632643467983], [144.55474437847073, 43.653863248122114]], [[3.625535595437805, -19.97389167058562], [33.08461875143939, 55.15279060368695]], [[-123.78470069595521, 43.618591434829185], [144.55474437847073, 43.653863248122114]], [[-123.78470069595521, 43.618591434829185], [-104.4462678999606, -0.9107918162814546]], [[33.08461875143939, 55.15279060368695], [-71.00704382158027, -13.378076461173409]], [[33.08461875143939, 55.15279060368695], [22.14363513145498, 39.87742038135137]], [[27.615117670818336, 57.08407199097843], [-14.794381594932837, -13.478912722810524]], [[144.55474437847073, 43.653863248122114], [22.14363513145498, 39.87742038135137]], [[175.08169294242757, -31.308661032216374], [-9.61256680957853, -49.0571688463766]], [[-142.77969368316863, 59.39922238738488], [-14.543797016396526, -51.719583692275194]], [[-142.77969368316863, 59.39922238738488], [-73.07308523078896, 17.73675249956282]], [[177.12720824917363, -56.54598338720964], [162.78749878983663, -11.237045138280445]], [[-73.07308523078896, 17.73675249956282], [-58.509128286313604, 18.83544797747954]], [[-47.90232085994843, -23.073518436755553], [-89.67568057601797, -33.515251454393905]], [[-71.00704382158027, -13.378076461173409], [22.14363513145498, 39.87742038135137]], [[-14.794381594932837, -13.478912722810524], [-121.01712693387077, 23.258205022941006]], [[22.14363513145498, 39.87742038135137], [3.621001757632761, -41.130772583658896]], [[22.14363513145498, 39.87742038135137], [-121.01712693387077, 23.258205022941006]]]}}]}