{"type": "FeatureCollection", "name": "E8_proj_seed1383 grid", "properties": {"shape": "E8_proj_seed1383", "lock_lat": 45.0, "lock_lon": -105.0, "bearing": 220.0}, "features": [{"type": "Feature", "properties": {"kind": "grid_vertices", "shape": "E8_proj_seed1383", "count": 240, "ids": ["V1", "V2", "V3", "V4", "V5", "V6", "V7", "V8", "V9", "V10", "V11", "V12", "V13", "V14", "V15", "V16", "V17", "V18", "V19", "V20", "V21", "V22", "V23", "V24", "V25", "V26", "V27", "V28", "V29", "V30", "V31", "V32", "V33", "V34", "V35", "V36", "V37", "V38", "V39", "V40", "V41", "V42", "V43", "V44", "V45", "V46", "V47", "V48", "V49", "V50", "V51", "V52", "V53", "V54", "V55", "V56", "V57", "V58", "V59", "V60", "V61", "V62", "V63", "V64", "V65", "V66", "V67", "V68", "V69", "V70", "V71", "V72", "V73", "V74", "V75", "V76", "V77", "V78", "V79", "V80", "V81", "V82", "V83", "V84", "V85", "V86", "V87", "V88", "V89", "V90", "V91", "V92", "V93", "V94", "V95", "V96", "V97", "V98", "V99", "V100", "V101", "V102", "V103", "V104", "V105", "V106", "V107", "V108", "V109", "V110", "V111", "V112", "V113", "V114", "V115", "V116", "V117", "V118", "V119", "V120", "V121", "V122", "V123", "V124", "V125", "V126", "V127", "V128", "V129", "V130", "V131", "V132", "V133", "V134", "V135", "V136", "V137", "V138", "V139", "V140", "V141", "V142", "V143", "V144", "V145", "V146", "V147", "V148", "V149", "V150", "V151", "V152", "V153", "V154", "V155", "V156", "V157", "V158", "V159", "V160", "V161", "V162", "V163", "V164", "V165", "V166", "V167", "V168", "V169", "V170", "V171", "V172", "V173", "V174", "V175", "V176", "V177", "V178", "V179", "V180", "V181", "V182", "V183", "V184", "V185", "V186", "V187", "V188", "V189", "V190", "V191", "V192", "V193", "V194", "V195", "V196", "V197", "V198", "V199", "V200", "V201", "V202", "V203", "V204", "V205", "V206", "V207", "V208", "V209", "V210", "V211", "V212", "V213", "V214", "V215", "V216", "V217", "V218", "V219", "V220", "V221", "V222", "V223", "V224", "V225", "V226", "V227", "V228", "V229", "V230", "V231", "V232", "V233", "V234", "V235", "V236", "V237", "V238", "V239", "V240"]}, "geometry": {"type": "MultiPoint", "coordinates": [[21.938864266080305, -21.48228168250025], [-121.11825569261227, -65.88992603858365], [58.88174430738775, 65.88992603858365], [-158.0611357339197, 21.48228168250025], [-61.24335399568462, -24.301373545053572], [57.23574092206226, -34.521460934119176], [-122.76425907793775, 34.521460934119176], [118.75664600431539, 24.301373545053572], [-6.0628438576476595, -43.36866168405159], [104.22556395101024, -17.93362643550562], [-75.77443604898977, 17.93362643550562], [173.93715614235234, 43.36866168405159], [-47.22054415310734, -43.36375125744968], [51.76903680485184, -30.029072131923215], [-128.23096319514818, 30.029072131923215], [132.7794558468927, 43.36375125744968], [49.18241873538941, -82.18783939157812], [5.705541486972496, 4.075076167292989], [-174.2944585130275, -4.075076167292989], [-130.8175812646106, 82.18783939157812], [40.290780264716545, 7.68261070209984], [-30.046005317131403, -67.46760933898051], [149.9539946828686, 67.46760933898051], [-139.70921973528345, -7.68261070209984], [-17.372675436303634, -9.488894136139152], [102.17441588003942, -58.48183675051209], [-77.8255841199606, 58.48183675051209], [162.62732456369636, 9.488894136139152], [-40.87605708636289, 21.037507955016608], [57.57679701348675, -4.704279241886019], [-122.42320298651326, 4.704279241886019], [139.1239429136371, -21.037507955016608], [6.211922842495457, -16.948287629344833], [83.38238804330203, 42.892277296644934], [-96.61761195669798, -42.892277296644934], [-173.78807715750455, 16.948287629344833], [-21.476302215671584, 2.3507436416518095], [53.520875576221, 6.590151789228437], [-126.47912442377901, -6.590151789228437], [158.52369778432842, -2.3507436416518095], [55.37686222788479, -50.513276958502836], [17.986949729129236, 33.10580933539128], [-162.01305027087076, -33.10580933539128], [-124.62313777211521, 50.513276958502836], [45.572785555261376, 36.598283402555026], [-0.7356542679085585, -44.585815487625474], [179.26434573209144, 44.585815487625474], [-134.42721444473864, -36.598283402555026], [-4.565431669651145, 19.595834084539433], [87.98530912465858, -19.692974522664258], [-92.01469087534143, 19.692974522664258], [175.43456833034887, -19.595834084539433], [-65.46688664527805, -12.790532136939776], [-138.46999235228222, 35.603946294134765], [41.53000764771778, -35.603946294134765], [114.53311335472195, 12.790532136939776], [-96.18225402620773, 5.672812233769984], [-102.38227355674842, 45.97863345319883], [77.6177264432516, -45.97863345319883], [83.81774597379227, -5.672812233769984], [-121.37163637380291, -24.638727834406694], [-71.18410699113694, 42.82816676542809], [108.81589300886306, -42.82816676542809], [58.62836362619709, 24.638727834406694], [-95.8200901566258, 61.55296231305124], [-97.5740745361054, -21.342747045657703], [82.4259254638946, 21.342747045657703], [84.17990984337422, -61.55296231305124], [-68.06560537710209, 22.31977126666413], [-152.82899103466167, -12.185780189929975], [27.17100896533834, 12.185780189929975], [111.93439462289793, -22.31977126666413], [-56.821323656470156, -27.871557598222807], [30.268178957027576, -28.855581514941395], [-149.73182104297243, 28.855581514941395], [123.17867634352986, 27.871557598222807], [-46.86696542293258, -75.64058983979814], [-13.819933416071747, 9.812531951298746], [166.18006658392827, -9.812531951298746], [133.13303457706743, 75.64058983979814], [12.523305549175344, 17.63821139370532], [-47.99823949175046, -55.023933946015525], [132.00176050824956, 55.023933946015525], [-167.47669445082465, -17.63821139370532], [-29.433724205574308, -3.5804584767886922], [99.26035281726165, -73.98346953851978], [-80.73964718273835, 73.98346953851978], [150.5662757944257, 3.5804584767886922], [-127.6426785435242, -43.49677282534315], [-60.788812806794915, 39.60612412211949], [119.21118719320509, -39.60612412211949], [52.357321456475816, 43.49677282534315], [-88.81871816275908, 69.56763170482596], [-96.35859499599438, -36.908771647055396], [83.64140500400563, 36.908771647055396], [91.18128183724092, -69.56763170482596], [-61.47113574367227, 14.901285390488699], [-168.71170281252216, -31.95542750221075], [11.288297187477852, 31.95542750221075], [118.52886425632774, -14.901285390488699], [131.37987515460875, 3.86526041589124], [-142.2926274191965, -66.4932719874018], [37.707372580803494, 66.4932719874018], [-48.62012484539126, -3.86526041589124], [-62.431921318009046, -27.67173162844751], [154.85844851675932, -41.94019570682886], [-25.141551483240686, 41.94019570682886], [117.56807868199097, 27.67173162844751], [-7.895928324532937, 56.688017192456954], [124.56031101762991, 16.45047695297225], [-55.43968898237008, -16.45047695297225], [172.10407167546705, -56.688017192456954], [-33.980324594528504, -10.039316852949785], [-64.49105155285773, -64.46364094103727], [-15.012001343316483, 4.810271577758607], [-38.52856496115641, -8.190543272790237], [49.380780143962376, -42.9537359391224], [-23.33704774657923, -38.779919813466286], [-2.2557894381907526, 19.562148780568318], [3.260737432331827, -38.267368186671256], [169.3075411817188, -22.071565557794663], [-69.143386894263, -26.28427438515386], [-29.790761516136804, 46.301279256265005], [-79.07155578570809, -23.58197268935622], [24.904782102836087, 35.56650802229742], [134.75596038275023, -61.49354249095416], [74.77273357548214, 41.59451403152717], [-14.910113395030647, 20.2399273426643], [57.88964900980228, -44.64993938105038], [-9.412734698947212, -46.960381581105864], [7.3294983517919725, 9.357168516265999], [20.303943875962727, -45.12554876798703], [36.14822469506863, -14.227936853038479], [65.25497818489559, -54.72704333887299], [55.22148269476317, -3.081871420208681], [16.142603634155652, -14.226242143175803], [43.121639924444835, 5.847813609222035], [113.50898210222397, -59.99213122218939], [75.54915406692048, 19.95304762353789], [3.027170673109115, 2.108698993383666], [94.5998313223304, -9.770788907750001], [55.52268878766254, -34.78795795969822], [48.10298454815054, 29.27892505882337], [78.71624830351512, -14.550531964102033], [-122.81170680146815, -46.185229125365275], [-80.47056733532143, -34.73071896335378], [-56.0882064570035, 16.27936140286027], [-90.20870778235458, -37.120388467450255], [-49.70008114704406, -23.65655563419187], [-139.06847152730154, -70.19801022125866], [24.66324524525573, 17.022208399159005], [-49.16321957838491, -14.24609526306167], [-111.55177543506208, 12.320227404709883], [-145.65087541245606, -36.00941944688391], [-148.7086784328288, 35.266489680175845], [-88.24120355350775, 7.2032076388570605], [161.7644895101849, -8.604401019887172], [-119.78597932986882, -35.1464369179697], [-53.062139715867566, 74.79092774559666], [-169.99389309975248, -17.673183901628658], [-21.897021818479555, -48.99423366983352], [-168.2330247430649, -78.87636141961718], [61.40854198908719, -33.763889069466934], [-36.63934963120571, -29.64706275162038], [101.71592652287801, -41.02470557521376], [10.91956904184662, -70.4331224381526], [26.86421771653089, 12.78990488947136], [73.63793905129025, -57.186493046811755], [147.36049513032825, -21.873086776198196], [-130.53538959441767, -60.33725352668546], [14.277662441186878, 71.98821797689214], [163.4916112416486, -40.14112932217279], [102.58425667905934, 3.1360221065931366], [137.58491644033083, -41.941275916968195], [108.92391736817285, 14.348993244318079], [55.720100315264034, 0.44934217776527446], [-124.27989968473598, -0.44934217776527446], [-71.07608263182715, -14.348993244318079], [-42.415083559669156, 41.941275916968195], [-77.41574332094068, -3.1360221065931366], [-16.50838875835142, 40.14112932217279], [-165.72233755881314, -71.98821797689214], [49.46461040558234, 60.33725352668546], [-32.639504869671775, 21.873086776198196], [-106.36206094870977, 57.186493046811755], [-153.1357822834691, -12.78990488947136], [-169.08043095815339, 70.4331224381526], [-78.28407347712199, 41.02470557521376], [143.3606503687943, 29.64706275162038], [-118.5914580109128, 33.763889069466934], [11.766975256935122, 78.87636141961718], [158.10297818152046, 48.99423366983352], [10.006106900247525, 17.673183901628658], [126.93786028413244, -74.79092774559666], [60.21402067013119, 35.1464369179697], [-18.235510489815127, 8.604401019887172], [91.75879644649224, -7.2032076388570605], [31.29132156717119, -35.266489680175845], [34.34912458754394, 36.00941944688391], [68.44822456493793, -12.320227404709883], [130.8367804216151, 14.24609526306167], [-155.33675475474428, -17.022208399159005], [40.931528472698446, 70.19801022125866], [130.29991885295593, 23.65655563419187], [89.79129221764543, 37.120388467450255], [123.9117935429965, -16.27936140286027], [99.52943266467857, 34.73071896335378], [57.18829319853186, 46.185229125365275], [-101.28375169648488, 14.550531964102033], [-131.89701545184946, -29.27892505882337], [-124.47731121233747, 34.78795795969822], [-85.40016867766961, 9.770788907750001], [-176.9728293268909, -2.108698993383666], [-104.45084593307953, -19.95304762353789], [-66.49101789777605, 59.99213122218939], [-136.87836007555515, -5.847813609222035], [-163.85739636584435, 14.226242143175803], [-124.77851730523685, 3.081871420208681], [-114.74502181510444, 54.72704333887299], [-143.85177530493138, 14.227936853038479], [-159.69605612403728, 45.12554876798703], [-172.67050164820802, -9.357168516265999], [170.5872653010528, 46.960381581105864], [-122.11035099019773, 44.64993938105038], [165.08988660496937, -20.2399273426643], [-105.22726642451788, -41.59451403152717], [-45.24403961724978, 61.49354249095416], [-155.0952178971639, -35.56650802229742], [100.92844421429193, 23.58197268935622], [150.2092384838632, -46.301279256265005], [110.85661310573701, 26.28427438515386], [-10.692458818281226, 22.071565557794663], [-176.7392625676682, 38.267368186671256], [177.74421056180924, -19.562148780568318], [156.66295225342077, 38.779919813466286], [-130.61921985603763, 42.9537359391224], [141.4714350388436, 8.190543272790237], [164.98799865668352, -4.810271577758607], [115.50894844714227, 64.46364094103727], [146.0196754054715, 10.039316852949785]]}}, {"type": "Feature", "properties": {"kind": "grid_edges", "shape": "E8_proj_seed1383", "count": 345, "ids": ["E1", "E2", "E3", "E4", "E5", "E6", "E7", "E8", "E9", "E10", "E11", "E12", "E13", "E14", "E15", "E16", "E17", "E18", "E19", "E20", "E21", "E22", "E23", "E24", "E25", "E26", "E27", "E28", "E29", "E30", "E31", "E32", "E33", "E34", "E35", "E36", "E37", "E38", "E39", "E40", "E41", "E42", "E43", "E44", "E45", "E46", "E47", "E48", "E49", "E50", "E51", "E52", "E53", "E54", "E55", "E56", "E57", "E58", "E59", "E60", "E61", "E62", "E63", "E64", "E65", "E66", "E67", "E68", "E69", "E70", "E71", "E72", "E73", "E74", "E75", "E76", "E77", "E78", "E79", "E80", "E81", "E82", "E83", "E84", "E85", "E86", "E87", "E88", "E89", "E90", "E91", "E92", "E93", "E94", "E95", "E96", "E97", "E98", "E99", "E100", "E101", "E102", "E103", "E104", "E105", "E106", "E107", "E108", "E109", "E110", "E111", "E112", "E113", "E114", "E115", "E116", "E117", "E118", "E119", "E120", "E121", "E122", "E123", "E124", "E125", "E126", "E127", "E128", "E129", "E130", "E131", "E132", "E133", "E134", "E135", "E136", "E137", "E138", "E139", "E140", "E141", "E142", "E143", "E144", "E145", "E146", "E147", "E148", "E149", "E150", "E151", "E152", "E153", "E154", "E155", "E156", "E157", "E158", "E159", "E160", "E161", "E162", "E163", "E164", "E165", "E166", "E167", "E168", "E169", "E170", "E171", "E172", "E173", "E174", "E175", "E176", "E177", "E178", "E179", "E180", "E181", "E182", "E183", "E184", "E185", "E186", "E187", "E188", "E189", "E190", "E191", "E192", "E193", "E194", "E195", "E196", "E197", "E198", "E199", "E200", "E201", "E202", "E203", "E204", "E205", "E206", "E207", "E208", "E209", "E210", "E211", "E212", "E213", "E214", "E215", "E216", "E217", "E218", "E219", "E220", "E221", "E222", "E223", "E224", "E225", "E226", "E227", "E228", "E229", "E230", "E231", "E232", "E233", "E234", "E235", "E236", "E237", "E238", "E239", "E240", "E241", "E242", "E243", "E244", "E245", "E246", "E247", "E248", "E249", "E250", "E251", "E252", "E253", "E254", "E255", "E256", "E257", "E258", "E259", "E260", "E261", "E262", "E263", "E264", "E265", "E266", "E267", "E268", "E269", "E270", "E271", "E272", "E273", "E274", "E275", "E276", "E277", "E278", "E279", "E280", "E281", "E282", "E283", "E284", "E285", "E286", "E287", "E288", "E289", "E290", "E291", "E292", "E293", "E294", "E295", "E296", "E297", "E298", "E299", "E300", "E301", "E302", "E303", "E304", "E305", "E306", "E307", "E308", "E309", "E310", "E311", "E312", "E313", "E314", "E315", "E316", "E317", "E318", "E319", "E320", "E321", "E322", "E323", "E324", "E325", "E326", "E327", "E328", "E329", "E330", "E331", "E332", "E333", "E334", "E335", "E336", "E337", "E338", "E339", "E340", "E341", "E342", "E343", "E344", "E345"], "pairs": [[0, 41], [0, 122], [0, 142], [2, 197], [3, 30], [3, 213], [3, 217], [3, 219], [3, 230], [3, 237], [4, 56], [4, 155], [5, 31], [6, 61], [6, 216], [6, 223], [7, 11], [7, 59], [7, 67], [7, 229], [7, 231], [8, 134], [9, 124], [10, 73], [10, 199], [11, 26], [11, 184], [12, 92], [12, 161], [13, 24], [13, 75], [13, 98], [13, 126], [13, 156], [15, 95], [15, 215], [16, 78], [16, 169], [17, 25], [17, 107], [17, 142], [17, 150], [18, 90], [18, 193], [18, 196], [18, 228], [19, 63], [19, 178], [19, 187], [19, 191], [19, 231], [20, 64], [20, 158], [22, 194], [22, 228], [23, 209], [24, 104], [24, 139], [24, 166], [24, 172], [26, 50], [26, 98], [26, 225], [27, 85], [27, 105], [27, 221], [28, 52], [29, 36], [29, 55], [30, 39], [31, 55], [31, 63], [31, 163], [32, 41], [32, 179], [33, 53], [33, 83], [33, 190], [34, 43], [34, 214], [34, 228], [35, 87], [36, 93], [36, 200], [36, 202], [37, 182], [37, 189], [38, 96], [39, 149], [39, 213], [39, 228], [40, 121], [40, 180], [41, 142], [41, 191], [41, 194], [41, 207], [42, 160], [43, 77], [43, 107], [43, 163], [43, 174], [43, 219], [43, 235], [44, 100], [44, 120], [44, 194], [45, 177], [46, 148], [46, 166], [48, 202], [49, 120], [49, 123], [49, 179], [50, 98], [50, 172], [51, 219], [51, 221], [52, 182], [54, 85], [54, 193], [54, 224], [55, 137], [57, 116], [57, 119], [57, 151], [57, 181], [57, 212], [57, 222], [58, 70], [58, 96], [58, 163], [58, 224], [58, 226], [60, 148], [60, 216], [61, 122], [61, 147], [61, 191], [62, 104], [62, 224], [63, 226], [64, 108], [64, 112], [64, 144], [64, 150], [65, 153], [66, 130], [66, 162], [67, 70], [67, 83], [68, 110], [68, 145], [69, 99], [69, 144], [69, 150], [70, 84], [70, 104], [70, 235], [71, 97], [72, 115], [72, 161], [73, 80], [73, 119], [73, 180], [73, 198], [73, 214], [74, 136], [74, 233], [75, 83], [75, 95], [75, 157], [75, 221], [77, 119], [77, 151], [77, 199], [77, 227], [78, 121], [78, 136], [79, 174], [79, 187], [80, 108], [80, 178], [80, 208], [81, 129], [82, 108], [82, 126], [82, 136], [83, 86], [83, 235], [84, 145], [84, 213], [85, 134], [86, 141], [86, 204], [87, 105], [88, 216], [89, 107], [89, 138], [89, 186], [89, 195], [89, 211], [89, 219], [90, 228], [91, 143], [92, 97], [92, 200], [94, 98], [94, 156], [94, 190], [95, 98], [95, 135], [96, 136], [96, 202], [97, 137], [98, 110], [98, 180], [98, 197], [98, 214], [98, 220], [100, 136], [100, 184], [102, 107], [102, 218], [103, 223], [104, 189], [104, 204], [105, 116], [105, 128], [105, 161], [106, 142], [106, 198], [107, 150], [107, 159], [107, 174], [108, 152], [108, 170], [108, 184], [109, 194], [109, 212], [110, 187], [110, 207], [110, 217], [111, 133], [111, 215], [114, 182], [115, 118], [115, 145], [116, 182], [116, 188], [117, 151], [117, 183], [118, 142], [120, 138], [121, 124], [122, 136], [122, 138], [123, 137], [125, 159], [126, 127], [126, 158], [126, 188], [127, 151], [127, 158], [127, 189], [128, 137], [128, 224], [129, 132], [131, 135], [132, 180], [133, 134], [133, 149], [133, 161], [133, 164], [134, 162], [134, 167], [136, 202], [138, 200], [138, 203], [139, 141], [139, 142], [141, 207], [142, 158], [142, 174], [146, 210], [148, 158], [148, 228], [149, 150], [149, 151], [150, 151], [151, 175], [151, 211], [152, 156], [152, 158], [155, 218], [155, 235], [156, 172], [160, 232], [161, 164], [162, 166], [162, 170], [163, 171], [164, 236], [166, 167], [168, 170], [174, 175], [177, 209], [179, 191], [180, 198], [181, 183], [181, 221], [182, 188], [182, 210], [183, 189], [184, 190], [185, 186], [187, 189], [188, 204], [189, 207], [189, 237], [190, 204], [190, 218], [192, 201], [192, 202], [193, 200], [193, 203], [194, 196], [194, 198], [194, 224], [195, 235], [196, 212], [197, 198], [198, 226], [198, 228], [201, 202], [207, 239], [213, 237], [214, 215], [215, 222], [217, 223], [225, 226], [226, 227], [231, 235], [231, 237], [232, 233]], "support_counts": [1, 1, 1, 1, 1, 1, 1, 1, 1, 1, 1, 1, 2, 1, 1, 1, 1, 1, 1, 1, 2, 1, 1, 1, 1, 1, 1, 1, 1, 1, 1, 1, 1, 3, 1, 1, 1, 1, 1, 1, 1, 1, 1, 1, 1, 1, 1, 1, 1, 1, 1, 1, 1, 1, 1, 1, 1, 1, 1, 1, 1, 1, 1, 2, 1, 1, 1, 1, 1, 1, 1, 1, 1, 1, 1, 1, 1, 1, 1, 1, 1, 1, 1, 2, 1, 1, 1, 1, 1, 1, 1, 1, 1, 1, 1, 1, 1, 1, 1, 1, 1, 1, 1, 1, 1, 1, 1, 1, 1, 1, 1, 1, 1, 1, 1, 1, 1, 1, 1, 1, 1, 1, 1, 1, 1, 1, 1, 1, 1, 1, 1, 1, 1, 1, 1, 1, 1, 1, 1, 1, 1, 1, 1, 1, 1, 1, 1, 1, 1, 1, 1, 1, 1, 1, 1, 1, 1, 1, 1, 1, 1, 1, 1, 1, 1, 1, 1, 1, 1, 1, 1, 1, 1, 1, 1, 1, 1, 1, 1, 1, 1, 1, 2, 1, 1, 1, 1, 2, 1, 1, 1, 1, 1, 1, 1, 1, 1, 1, 1, 1, 1, 1, 1, 1, 1, 1, 1, 1, 1, 1, 1, 1, 1, 1, 1, 1, 1, 1, 1, 1, 1, 1, 1, 1, 1, 1, 2, 1, 1, 1, 1, 1, 1, 1, 1, 1, 1, 1, 1, 1, 2, 1, 1, 1, 1, 1, 1, 1, 1, 1, 1, 1, 1, 1, 1, 1, 2, 1, 1, 1, 1, 1, 1, 1, 1, 1, 1, 1, 1, 1, 1, 1, 1, 1, 1, 1, 1, 1, 1, 1, 1, 1, 1, 1, 1, 1, 1, 1, 1, 1, 1, 1, 1, 1, 1, 1, 1, 1, 1, 1, 1, 1, 1, 1, 1, 1, 1, 1, 1, 1, 1, 1, 1, 1, 1, 1, 1, 1, 1, 1, 1, 1, 2, 1, 1, 1, 2, 1, 1, 1, 1, 1, 1, 1, 1, 1, 1, 1, 2, 1, 1, 1, 1, 1, 1], "support_class": ["single", "single", "single", "single", "single", "single", "single", "single", "single", "single", "single", "single", "shared", "single", "single", "single", "single", "single", "single", "single", "shared", "single", "single", "single", "single", "single", "single", "single", "single", "single", "single", "single", "single", "shared", "single", "single", "single", "single", "single", "single", "single", "single", "single", "single", "single", "single", "single", "single", "single", "single", "single", "single", "single", "single", "single", "single", "single", "single", "single", "single", "single", "single", "single", "shared", "single", "single", "single", "single", "single", "single", "single", "single", "single", "single", "single", "single", "single", "single", "single", "single", "single", "single", "single", "shared", "single", "single", "single", "single", "single", "single", "single", "single", "single", "single", "single", "single", "single", "single", "single", "single", "single", "single", "single", "single", "single", "single", "single", "single", "single", "single", "single", "single", "single", "single", "single", "single", "single", "single", "single", "single", "single", "single", "single", "single", "single", "single", "single", "single", "single", "single", "single", "single", "single", "single", "single", "single", "single", "single", "single", "single", "single", "single", "single", "single", "single", "single", "single", "single", "single", "single", "single", "single", "single", "single", "single", "single", "single", "single", "single", "single", "single", "single", "single", "single", "single", "single", "single", "single", "single", "single", "single", "single", "single", "single", "single", "single", "single", "single", "single", "single", "single", "single", "shared", "single", "single", "single", "single", "shared", "single", "single", "single", "single", "single", "single", "single", "single", "single", "single", "single", "single", "single", "single", "single", "single", "single", "single", "single", "single", "single", "single", "single", "single", "single", "single", "single", "single", "single", "single", "single", "single", "single", "single", "single", "single", "single", "single", "shared", "single", "single", "single", "single", "single", "single", "single", "single", "single", "single", "single", "single", "single", "shared", "single", "single", "single", "single", "single", "single", "single", "single", "single", "single", "single", "single", "single", "single", "single", "shared", "single", "single", "single", "single", "single", "single", "single", "single", "single", "single", "single", "single", "single", "single", "single", "single", "single", "single", "single", "single", "single", "single", "single", "single", "single", "single", "single", "single", "single", "single", "single", "single", "single", "single", "single", "single", "single", "single", "single", "single", "single", "single", "single", "single", "single", "single", "single", "single", "single", "single", "single", "single", "single", "single", "single", "single", "single", "single", "single", "single", "single", "single", "single", "single", "single", "shared", "single", "single", "single", "shared", "single", "single", "single", "single", "single", "single", "single", "single", "single", "single", "single", "shared", "single", "single", "single", "single", "single", "single"]}, "geometry": {"type": "MultiLineString", "coordinates": [[[21.938864266080305, -21.48228168250025], [17.986949729129236, 33.10580933539128]], [[21.938864266080305, -21.48228168250025], [-29.790761516136804, 46.301279256265005]], [[21.938864266080305, -21.48228168250025], [48.10298454815054, 29.27892505882337]], [[58.88174430738775, 65.88992603858365], [31.29132156717119, -35.266489680175845]], [[-158.0611357339197, 21.48228168250025], [-122.42320298651326, 4.704279241886019]], [[-158.0611357339197, 21.48228168250025], [-104.45084593307953, -19.95304762353789]], [[-158.0611357339197, 21.48228168250025], [-124.77851730523685, 3.081871420208681]], [[-158.0611357339197, 21.48228168250025], [-143.85177530493138, 14.227936853038479]], [[-158.0611357339197, 21.48228168250025], [110.85661310573701, 26.28427438515386]], [[-158.0611357339197, 21.48228168250025], [164.98799865668352, -4.810271577758607]], [[-61.24335399568462, -24.301373545053572], [-96.18225402620773, 5.672812233769984]], [[-61.24335399568462, -24.301373545053572], [-88.24120355350775, 7.2032076388570605]], [[57.23574092206226, -34.521460934119176], [139.1239429136371, -21.037507955016608]], [[-122.76425907793775, 34.521460934119176], [-71.18410699113694, 42.82816676542809]], [[-122.76425907793775, 34.521460934119176], [-163.85739636584435, 14.226242143175803]], [[-122.76425907793775, 34.521460934119176], [-122.11035099019773, 44.64993938105038]], [[118.75664600431539, 24.301373545053572], [173.93715614235234, 43.36866168405159]], [[118.75664600431539, 24.301373545053572], [83.81774597379227, -5.672812233769984]], [[118.75664600431539, 24.301373545053572], [84.17990984337422, -61.55296231305124]], [[118.75664600431539, 24.301373545053572], [150.2092384838632, -46.301279256265005]], [[118.75664600431539, 24.301373545053572], [-10.692458818281226, 22.071565557794663]], [[-6.0628438576476595, -43.36866168405159], [55.22148269476317, -3.081871420208681]], [[104.22556395101024, -17.93362643550562], [24.904782102836087, 35.56650802229742]], [[-75.77443604898977, 17.93362643550562], [30.268178957027576, -28.855581514941395]], [[-75.77443604898977, 17.93362643550562], [68.44822456493793, -12.320227404709883]], [[173.93715614235234, 43.36866168405159], [-77.8255841199606, 58.48183675051209]], [[173.93715614235234, 43.36866168405159], [-106.36206094870977, 57.186493046811755]], [[-47.22054415310734, -43.36375125744968], [-88.81871816275908, 69.56763170482596]], [[-47.22054415310734, -43.36375125744968], [-168.2330247430649, -78.87636141961718]], [[51.76903680485184, -30.029072131923215], [-17.372675436303634, -9.488894136139152]], [[51.76903680485184, -30.029072131923215], [123.17867634352986, 27.871557598222807]], [[51.76903680485184, -30.029072131923215], [11.288297187477852, 31.95542750221075]], [[51.76903680485184, -30.029072131923215], [74.77273357548214, 41.59451403152717]], [[51.76903680485184, -30.029072131923215], [161.7644895101849, -8.604401019887172]], [[132.7794558468927, 43.36375125744968], [91.18128183724092, -69.56763170482596]], [[132.7794558468927, 43.36375125744968], [-136.87836007555515, -5.847813609222035]], [[49.18241873538941, -82.18783939157812], [166.18006658392827, -9.812531951298746]], [[49.18241873538941, -82.18783939157812], [-130.53538959441767, -60.33725352668546]], [[5.705541486972496, 4.075076167292989], [102.17441588003942, -58.48183675051209]], [[5.705541486972496, 4.075076167292989], [117.56807868199097, 27.67173162844751]], [[5.705541486972496, 4.075076167292989], [48.10298454815054, 29.27892505882337]], [[5.705541486972496, 4.075076167292989], [24.66324524525573, 17.022208399159005]], [[-174.2944585130275, -4.075076167292989], [119.21118719320509, -39.60612412211949]], [[-174.2944585130275, -4.075076167292989], [126.93786028413244, -74.79092774559666]], [[-174.2944585130275, -4.075076167292989], [91.75879644649224, -7.2032076388570605]], [[-174.2944585130275, -4.075076167292989], [100.92844421429193, 23.58197268935622]], [[-130.8175812646106, 82.18783939157812], [58.62836362619709, 24.638727834406694]], [[-130.8175812646106, 82.18783939157812], [-42.415083559669156, 41.941275916968195]], [[-130.8175812646106, 82.18783939157812], [-78.28407347712199, 41.02470557521376]], [[-130.8175812646106, 82.18783939157812], [158.10297818152046, 48.99423366983352]], [[-130.8175812646106, 82.18783939157812], [-10.692458818281226, 22.071565557794663]], [[40.290780264716545, 7.68261070209984], [-95.8200901566258, 61.55296231305124]], [[40.290780264716545, 7.68261070209984], [-53.062139715867566, 74.79092774559666]], [[149.9539946828686, 67.46760933898051], [60.21402067013119, 35.1464369179697]], [[149.9539946828686, 67.46760933898051], [100.92844421429193, 23.58197268935622]], [[-139.70921973528345, -7.68261070209984], [-131.89701545184946, -29.27892505882337]], [[-17.372675436303634, -9.488894136139152], [-62.431921318009046, -27.67173162844751]], [[-17.372675436303634, -9.488894136139152], [3.027170673109115, 2.108698993383666]], [[-17.372675436303634, -9.488894136139152], [26.86421771653089, 12.78990488947136]], [[-17.372675436303634, -9.488894136139152], [102.58425667905934, 3.1360221065931366]], [[-77.8255841199606, 58.48183675051209], [-92.01469087534143, 19.692974522664258]], [[-77.8255841199606, 58.48183675051209], [11.288297187477852, 31.95542750221075]], [[-77.8255841199606, 58.48183675051209], [-105.22726642451788, -41.59451403152717]], [[162.62732456369636, 9.488894136139152], [99.26035281726165, -73.98346953851978]], [[162.62732456369636, 9.488894136139152], [154.85844851675932, -41.94019570682886]], [[162.62732456369636, 9.488894136139152], [-172.67050164820802, -9.357168516265999]], [[-40.87605708636289, 21.037507955016608], [-65.46688664527805, -12.790532136939776]], [[57.57679701348675, -4.704279241886019], [-21.476302215671584, 2.3507436416518095]], [[57.57679701348675, -4.704279241886019], [114.53311335472195, 12.790532136939776]], [[-122.42320298651326, 4.704279241886019], [158.52369778432842, -2.3507436416518095]], [[139.1239429136371, -21.037507955016608], [114.53311335472195, 12.790532136939776]], [[139.1239429136371, -21.037507955016608], [58.62836362619709, 24.638727834406694]], [[139.1239429136371, -21.037507955016608], [-36.63934963120571, -29.64706275162038]], [[6.211922842495457, -16.948287629344833], [17.986949729129236, 33.10580933539128]], [[6.211922842495457, -16.948287629344833], [-77.41574332094068, -3.1360221065931366]], [[83.38238804330203, 42.892277296644934], [-138.46999235228222, 35.603946294134765]], [[83.38238804330203, 42.892277296644934], [-167.47669445082465, -17.63821139370532]], [[83.38238804330203, 42.892277296644934], [11.766975256935122, 78.87636141961718]], [[-96.61761195669798, -42.892277296644934], [-124.62313777211521, 50.513276958502836]], [[-96.61761195669798, -42.892277296644934], [-66.49101789777605, 59.99213122218939]], [[-96.61761195669798, -42.892277296644934], [100.92844421429193, 23.58197268935622]], [[-173.78807715750455, 16.948287629344833], [150.5662757944257, 3.5804584767886922]], [[-21.476302215671584, 2.3507436416518095], [-96.35859499599438, -36.908771647055396]], [[-21.476302215671584, 2.3507436416518095], [130.8367804216151, 14.24609526306167]], [[-21.476302215671584, 2.3507436416518095], [40.931528472698446, 70.19801022125866]], [[53.520875576221, 6.590151789228437], [49.46461040558234, 60.33725352668546]], [[53.520875576221, 6.590151789228437], [-118.5914580109128, 33.763889069466934]], [[-126.47912442377901, -6.590151789228437], [-61.47113574367227, 14.901285390488699]], [[158.52369778432842, -2.3507436416518095], [-139.06847152730154, -70.19801022125866]], [[158.52369778432842, -2.3507436416518095], [-104.45084593307953, -19.95304762353789]], [[158.52369778432842, -2.3507436416518095], [100.92844421429193, 23.58197268935622]], [[55.37686222788479, -50.513276958502836], [-69.143386894263, -26.28427438515386]], [[55.37686222788479, -50.513276958502836], [-16.50838875835142, 40.14112932217279]], [[17.986949729129236, 33.10580933539128], [48.10298454815054, 29.27892505882337]], [[17.986949729129236, 33.10580933539128], [158.10297818152046, 48.99423366983352]], [[17.986949729129236, 33.10580933539128], [60.21402067013119, 35.1464369179697]], [[17.986949729129236, 33.10580933539128], [57.18829319853186, 46.185229125365275]], [[-162.01305027087076, -33.10580933539128], [-21.897021818479555, -48.99423366983352]], [[-124.62313777211521, 50.513276958502836], [-13.819933416071747, 9.812531951298746]], [[-124.62313777211521, 50.513276958502836], [117.56807868199097, 27.67173162844751]], [[-124.62313777211521, 50.513276958502836], [-36.63934963120571, -29.64706275162038]], [[-124.62313777211521, 50.513276958502836], [108.92391736817285, 14.348993244318079]], [[-124.62313777211521, 50.513276958502836], [-143.85177530493138, 14.227936853038479]], [[-124.62313777211521, 50.513276958502836], [-130.61921985603763, 42.9537359391224]], [[45.572785555261376, 36.598283402555026], [131.37987515460875, 3.86526041589124]], [[45.572785555261376, 36.598283402555026], [169.3075411817188, -22.071565557794663]], [[45.572785555261376, 36.598283402555026], [60.21402067013119, 35.1464369179697]], [[-0.7356542679085585, -44.585815487625474], [-71.07608263182715, -14.348993244318079]], [[179.26434573209144, 44.585815487625474], [-49.70008114704406, -23.65655563419187]], [[179.26434573209144, 44.585815487625474], [26.86421771653089, 12.78990488947136]], [[-4.565431669651145, 19.595834084539433], [40.931528472698446, 70.19801022125866]], [[87.98530912465858, -19.692974522664258], [169.3075411817188, -22.071565557794663]], [[87.98530912465858, -19.692974522664258], [-79.07155578570809, -23.58197268935622]], [[87.98530912465858, -19.692974522664258], [-77.41574332094068, -3.1360221065931366]], [[-92.01469087534143, 19.692974522664258], [11.288297187477852, 31.95542750221075]], [[-92.01469087534143, 19.692974522664258], [102.58425667905934, 3.1360221065931366]], [[175.43456833034887, -19.595834084539433], [-143.85177530493138, 14.227936853038479]], [[175.43456833034887, -19.595834084539433], [-172.67050164820802, -9.357168516265999]], [[-65.46688664527805, -12.790532136939776], [49.46461040558234, 60.33725352668546]], [[41.53000764771778, -35.603946294134765], [99.26035281726165, -73.98346953851978]], [[41.53000764771778, -35.603946294134765], [126.93786028413244, -74.79092774559666]], [[41.53000764771778, -35.603946294134765], [165.08988660496937, -20.2399273426643]], [[114.53311335472195, 12.790532136939776], [113.50898210222397, -59.99213122218939]], [[-102.38227355674842, 45.97863345319883], [49.380780143962376, -42.9537359391224]], [[-102.38227355674842, 45.97863345319883], [3.260737432331827, -38.267368186671256]], [[-102.38227355674842, 45.97863345319883], [-49.16321957838491, -14.24609526306167]], [[-102.38227355674842, 45.97863345319883], [-165.72233755881314, -71.98821797689214]], [[-102.38227355674842, 45.97863345319883], [-176.9728293268909, -2.108698993383666]], [[-102.38227355674842, 45.97863345319883], [170.5872653010528, 46.960381581105864]], [[77.6177264432516, -45.97863345319883], [27.17100896533834, 12.185780189929975]], [[77.6177264432516, -45.97863345319883], [-61.47113574367227, 14.901285390488699]], [[77.6177264432516, -45.97863345319883], [-36.63934963120571, -29.64706275162038]], [[77.6177264432516, -45.97863345319883], [165.08988660496937, -20.2399273426643]], [[77.6177264432516, -45.97863345319883], [-45.24403961724978, 61.49354249095416]], [[-121.37163637380291, -24.638727834406694], [-49.70008114704406, -23.65655563419187]], [[-121.37163637380291, -24.638727834406694], [-163.85739636584435, 14.226242143175803]], [[-71.18410699113694, 42.82816676542809], [-29.790761516136804, 46.301279256265005]], [[-71.18410699113694, 42.82816676542809], [-90.20870778235458, -37.120388467450255]], [[-71.18410699113694, 42.82816676542809], [158.10297818152046, 48.99423366983352]], [[108.81589300886306, -42.82816676542809], [-62.431921318009046, -27.67173162844751]], [[108.81589300886306, -42.82816676542809], [165.08988660496937, -20.2399273426643]], [[58.62836362619709, 24.638727834406694], [-45.24403961724978, 61.49354249095416]], [[-95.8200901566258, 61.55296231305124], [-7.895928324532937, 56.688017192456954]], [[-95.8200901566258, 61.55296231305124], [-33.980324594528504, -10.039316852949785]], [[-95.8200901566258, 61.55296231305124], [-122.81170680146815, -46.185229125365275]], [[-95.8200901566258, 61.55296231305124], [24.66324524525573, 17.022208399159005]], [[-97.5740745361054, -21.342747045657703], [-145.65087541245606, -36.00941944688391]], [[82.4259254638946, 21.342747045657703], [7.3294983517919725, 9.357168516265999]], [[82.4259254638946, 21.342747045657703], [61.40854198908719, -33.763889069466934]], [[84.17990984337422, -61.55296231305124], [27.17100896533834, 12.185780189929975]], [[84.17990984337422, -61.55296231305124], [-167.47669445082465, -17.63821139370532]], [[-68.06560537710209, 22.31977126666413], [-55.43968898237008, -16.45047695297225]], [[-68.06560537710209, 22.31977126666413], [-80.47056733532143, -34.73071896335378]], [[-152.82899103466167, -12.185780189929975], [118.52886425632774, -14.901285390488699]], [[-152.82899103466167, -12.185780189929975], [-122.81170680146815, -46.185229125365275]], [[-152.82899103466167, -12.185780189929975], [24.66324524525573, 17.022208399159005]], [[27.17100896533834, 12.185780189929975], [-29.433724205574308, -3.5804584767886922]], [[27.17100896533834, 12.185780189929975], [-62.431921318009046, -27.67173162844751]], [[27.17100896533834, 12.185780189929975], [-130.61921985603763, 42.9537359391224]], [[111.93439462289793, -22.31977126666413], [-168.71170281252216, -31.95542750221075]], [[-56.821323656470156, -27.871557598222807], [-38.52856496115641, -8.190543272790237]], [[-56.821323656470156, -27.871557598222807], [-168.2330247430649, -78.87636141961718]], [[30.268178957027576, -28.855581514941395], [12.523305549175344, 17.63821139370532]], [[30.268178957027576, -28.855581514941395], [3.260737432331827, -38.267368186671256]], [[30.268178957027576, -28.855581514941395], [-16.50838875835142, 40.14112932217279]], [[30.268178957027576, -28.855581514941395], [34.34912458754394, 36.00941944688391]], [[30.268178957027576, -28.855581514941395], [-66.49101789777605, 59.99213122218939]], [[-149.73182104297243, 28.855581514941395], [43.121639924444835, 5.847813609222035]], [[-149.73182104297243, 28.855581514941395], [177.74421056180924, -19.562148780568318]], [[123.17867634352986, 27.871557598222807], [-167.47669445082465, -17.63821139370532]], [[123.17867634352986, 27.871557598222807], [91.18128183724092, -69.56763170482596]], [[123.17867634352986, 27.871557598222807], [-119.78597932986882, -35.1464369179697]], [[123.17867634352986, 27.871557598222807], [-172.67050164820802, -9.357168516265999]], [[-13.819933416071747, 9.812531951298746], [3.260737432331827, -38.267368186671256]], [[-13.819933416071747, 9.812531951298746], [-49.16321957838491, -14.24609526306167]], [[-13.819933416071747, 9.812531951298746], [68.44822456493793, -12.320227404709883]], [[-13.819933416071747, 9.812531951298746], [-155.0952178971639, -35.56650802229742]], [[166.18006658392827, -9.812531951298746], [-69.143386894263, -26.28427438515386]], [[166.18006658392827, -9.812531951298746], [43.121639924444835, 5.847813609222035]], [[133.13303457706743, 75.64058983979814], [108.92391736817285, 14.348993244318079]], [[133.13303457706743, 75.64058983979814], [-78.28407347712199, 41.02470557521376]], [[12.523305549175344, 17.63821139370532], [-7.895928324532937, 56.688017192456954]], [[12.523305549175344, 17.63821139370532], [-42.415083559669156, 41.941275916968195]], [[12.523305549175344, 17.63821139370532], [-101.28375169648488, 14.550531964102033]], [[-47.99823949175046, -55.023933946015525], [-9.412734698947212, -46.960381581105864]], [[132.00176050824956, 55.023933946015525], [-7.895928324532937, 56.688017192456954]], [[132.00176050824956, 55.023933946015525], [74.77273357548214, 41.59451403152717]], [[132.00176050824956, 55.023933946015525], [43.121639924444835, 5.847813609222035]], [[-167.47669445082465, -17.63821139370532], [-80.73964718273835, 73.98346953851978]], [[-167.47669445082465, -17.63821139370532], [-130.61921985603763, 42.9537359391224]], [[-29.433724205574308, -3.5804584767886922], [-80.47056733532143, -34.73071896335378]], [[-29.433724205574308, -3.5804584767886922], [-104.45084593307953, -19.95304762353789]], [[99.26035281726165, -73.98346953851978], [55.22148269476317, -3.081871420208681]], [[-80.73964718273835, 73.98346953851978], [55.52268878766254, -34.78795795969822]], [[-80.73964718273835, 73.98346953851978], [89.79129221764543, 37.120388467450255]], [[150.5662757944257, 3.5804584767886922], [154.85844851675932, -41.94019570682886]], [[-127.6426785435242, -43.49677282534315], [-163.85739636584435, 14.226242143175803]], [[-60.788812806794915, 39.60612412211949], [117.56807868199097, 27.67173162844751]], [[-60.788812806794915, 39.60612412211949], [75.54915406692048, 19.95304762353789]], [[-60.788812806794915, 39.60612412211949], [-169.08043095815339, 70.4331224381526]], [[-60.788812806794915, 39.60612412211949], [-18.235510489815127, 8.604401019887172]], [[-60.788812806794915, 39.60612412211949], [-85.40016867766961, 9.770788907750001]], [[-60.788812806794915, 39.60612412211949], [-143.85177530493138, 14.227936853038479]], [[119.21118719320509, -39.60612412211949], [100.92844421429193, 23.58197268935622]], [[52.357321456475816, 43.49677282534315], [78.71624830351512, -14.550531964102033]], [[-88.81871816275908, 69.56763170482596], [-168.71170281252216, -31.95542750221075]], [[-88.81871816275908, 69.56763170482596], [130.8367804216151, 14.24609526306167]], [[83.64140500400563, 36.908771647055396], [11.288297187477852, 31.95542750221075]], [[83.64140500400563, 36.908771647055396], [161.7644895101849, -8.604401019887172]], [[83.64140500400563, 36.908771647055396], [11.766975256935122, 78.87636141961718]], [[91.18128183724092, -69.56763170482596], [11.288297187477852, 31.95542750221075]], [[91.18128183724092, -69.56763170482596], [16.142603634155652, -14.226242143175803]], [[-61.47113574367227, 14.901285390488699], [43.121639924444835, 5.847813609222035]], [[-61.47113574367227, 14.901285390488699], [40.931528472698446, 70.19801022125866]], [[-168.71170281252216, -31.95542750221075], [113.50898210222397, -59.99213122218939]], [[11.288297187477852, 31.95542750221075], [-55.43968898237008, -16.45047695297225]], [[11.288297187477852, 31.95542750221075], [-16.50838875835142, 40.14112932217279]], [[11.288297187477852, 31.95542750221075], [31.29132156717119, -35.266489680175845]], [[11.288297187477852, 31.95542750221075], [-66.49101789777605, 59.99213122218939]], [[11.288297187477852, 31.95542750221075], [-159.69605612403728, 45.12554876798703]], [[131.37987515460875, 3.86526041589124], [43.121639924444835, 5.847813609222035]], [[131.37987515460875, 3.86526041589124], [-106.36206094870977, 57.186493046811755]], [[37.707372580803494, 66.4932719874018], [117.56807868199097, 27.67173162844751]], [[37.707372580803494, 66.4932719874018], [-114.74502181510444, 54.72704333887299]], [[-48.62012484539126, -3.86526041589124], [-122.11035099019773, 44.64993938105038]], [[-62.431921318009046, -27.67173162844751], [-118.5914580109128, 33.763889069466934]], [[-62.431921318009046, -27.67173162844751], [89.79129221764543, 37.120388467450255]], [[154.85844851675932, -41.94019570682886], [49.380780143962376, -42.9537359391224]], [[154.85844851675932, -41.94019570682886], [57.88964900980228, -44.64993938105038]], [[154.85844851675932, -41.94019570682886], [-168.2330247430649, -78.87636141961718]], [[-25.141551483240686, 41.94019570682886], [48.10298454815054, 29.27892505882337]], [[-25.141551483240686, 41.94019570682886], [34.34912458754394, 36.00941944688391]], [[117.56807868199097, 27.67173162844751], [24.66324524525573, 17.022208399159005]], [[117.56807868199097, 27.67173162844751], [-169.99389309975248, -17.673183901628658]], [[117.56807868199097, 27.67173162844751], [108.92391736817285, 14.348993244318079]], [[-7.895928324532937, 56.688017192456954], [-111.55177543506208, 12.320227404709883]], [[-7.895928324532937, 56.688017192456954], [14.277662441186878, 71.98821797689214]], [[-7.895928324532937, 56.688017192456954], [-106.36206094870977, 57.186493046811755]], [[124.56031101762991, 16.45047695297225], [60.21402067013119, 35.1464369179697]], [[124.56031101762991, 16.45047695297225], [-176.9728293268909, -2.108698993383666]], [[-55.43968898237008, -16.45047695297225], [-78.28407347712199, 41.02470557521376]], [[-55.43968898237008, -16.45047695297225], [57.18829319853186, 46.185229125365275]], [[-55.43968898237008, -16.45047695297225], [-124.77851730523685, 3.081871420208681]], [[172.10407167546705, -56.688017192456954], [65.25497818489559, -54.72704333887299]], [[172.10407167546705, -56.688017192456954], [-136.87836007555515, -5.847813609222035]], [[-15.012001343316483, 4.810271577758607], [49.46461040558234, 60.33725352668546]], [[-38.52856496115641, -8.190543272790237], [-2.2557894381907526, 19.562148780568318]], [[-38.52856496115641, -8.190543272790237], [-80.47056733532143, -34.73071896335378]], [[49.380780143962376, -42.9537359391224], [49.46461040558234, 60.33725352668546]], [[49.380780143962376, -42.9537359391224], [143.3606503687943, 29.64706275162038]], [[-23.33704774657923, -38.779919813466286], [-49.16321957838491, -14.24609526306167]], [[-23.33704774657923, -38.779919813466286], [-32.639504869671775, 21.873086776198196]], [[-2.2557894381907526, 19.562148780568318], [48.10298454815054, 29.27892505882337]], [[169.3075411817188, -22.071565557794663], [75.54915406692048, 19.95304762353789]], [[-69.143386894263, -26.28427438515386], [24.904782102836087, 35.56650802229742]], [[-29.790761516136804, 46.301279256265005], [43.121639924444835, 5.847813609222035]], [[-29.790761516136804, 46.301279256265005], [75.54915406692048, 19.95304762353789]], [[-79.07155578570809, -23.58197268935622], [113.50898210222397, -59.99213122218939]], [[134.75596038275023, -61.49354249095416], [-169.99389309975248, -17.673183901628658]], [[74.77273357548214, 41.59451403152717], [-14.910113395030647, 20.2399273426643]], [[74.77273357548214, 41.59451403152717], [-53.062139715867566, 74.79092774559666]], [[74.77273357548214, 41.59451403152717], [143.3606503687943, 29.64706275162038]], [[-14.910113395030647, 20.2399273426643], [-49.16321957838491, -14.24609526306167]], [[-14.910113395030647, 20.2399273426643], [-53.062139715867566, 74.79092774559666]], [[-14.910113395030647, 20.2399273426643], [-118.5914580109128, 33.763889069466934]], [[57.88964900980228, -44.64993938105038], [113.50898210222397, -59.99213122218939]], [[57.88964900980228, -44.64993938105038], [165.08988660496937, -20.2399273426643]], [[-9.412734698947212, -46.960381581105864], [36.14822469506863, -14.227936853038479]], [[20.303943875962727, -45.12554876798703], [16.142603634155652, -14.226242143175803]], [[36.14822469506863, -14.227936853038479], [-16.50838875835142, 40.14112932217279]], [[65.25497818489559, -54.72704333887299], [55.22148269476317, -3.081871420208681]], [[65.25497818489559, -54.72704333887299], [-139.06847152730154, -70.19801022125866]], [[65.25497818489559, -54.72704333887299], [-168.2330247430649, -78.87636141961718]], [[65.25497818489559, -54.72704333887299], [101.71592652287801, -41.02470557521376]], [[55.22148269476317, -3.081871420208681], [61.40854198908719, -33.763889069466934]], [[55.22148269476317, -3.081871420208681], [73.63793905129025, -57.186493046811755]], [[43.121639924444835, 5.847813609222035], [40.931528472698446, 70.19801022125866]], [[75.54915406692048, 19.95304762353789], [130.8367804216151, 14.24609526306167]], [[75.54915406692048, 19.95304762353789], [130.29991885295593, 23.65655563419187]], [[3.027170673109115, 2.108698993383666], [55.52268878766254, -34.78795795969822]], [[3.027170673109115, 2.108698993383666], [48.10298454815054, 29.27892505882337]], [[55.52268878766254, -34.78795795969822], [57.18829319853186, 46.185229125365275]], [[48.10298454815054, 29.27892505882337], [-53.062139715867566, 74.79092774559666]], [[48.10298454815054, 29.27892505882337], [108.92391736817285, 14.348993244318079]], [[-56.0882064570035, 16.27936140286027], [-124.47731121233747, 34.78795795969822]], [[-49.70008114704406, -23.65655563419187], [-53.062139715867566, 74.79092774559666]], [[-49.70008114704406, -23.65655563419187], [100.92844421429193, 23.58197268935622]], [[-139.06847152730154, -70.19801022125866], [24.66324524525573, 17.022208399159005]], [[-139.06847152730154, -70.19801022125866], [-49.16321957838491, -14.24609526306167]], [[24.66324524525573, 17.022208399159005], [-49.16321957838491, -14.24609526306167]], [[-49.16321957838491, -14.24609526306167], [55.720100315264034, 0.44934217776527446]], [[-49.16321957838491, -14.24609526306167], [-85.40016867766961, 9.770788907750001]], [[-111.55177543506208, 12.320227404709883], [161.7644895101849, -8.604401019887172]], [[-111.55177543506208, 12.320227404709883], [-53.062139715867566, 74.79092774559666]], [[-88.24120355350775, 7.2032076388570605], [-114.74502181510444, 54.72704333887299]], [[-88.24120355350775, 7.2032076388570605], [-130.61921985603763, 42.9537359391224]], [[161.7644895101849, -8.604401019887172], [102.58425667905934, 3.1360221065931366]], [[-21.897021818479555, -48.99423366983352], [-176.7392625676682, 38.267368186671256]], [[-168.2330247430649, -78.87636141961718], [101.71592652287801, -41.02470557521376]], [[61.40854198908719, -33.763889069466934], [26.86421771653089, 12.78990488947136]], [[61.40854198908719, -33.763889069466934], [14.277662441186878, 71.98821797689214]], [[-36.63934963120571, -29.64706275162038], [163.4916112416486, -40.14112932217279]], [[101.71592652287801, -41.02470557521376], [141.4714350388436, 8.190543272790237]], [[26.86421771653089, 12.78990488947136], [73.63793905129025, -57.186493046811755]], [[147.36049513032825, -21.873086776198196], [14.277662441186878, 71.98821797689214]], [[108.92391736817285, 14.348993244318079], [55.720100315264034, 0.44934217776527446]], [[-71.07608263182715, -14.348993244318079], [-131.89701545184946, -29.27892505882337]], [[-77.41574332094068, -3.1360221065931366], [158.10297818152046, 48.99423366983352]], [[-16.50838875835142, 40.14112932217279], [34.34912458754394, 36.00941944688391]], [[-165.72233755881314, -71.98821797689214], [-32.639504869671775, 21.873086776198196]], [[-165.72233755881314, -71.98821797689214], [-172.67050164820802, -9.357168516265999]], [[49.46461040558234, 60.33725352668546], [143.3606503687943, 29.64706275162038]], [[49.46461040558234, 60.33725352668546], [-124.47731121233747, 34.78795795969822]], [[-32.639504869671775, 21.873086776198196], [-118.5914580109128, 33.763889069466934]], [[-106.36206094870977, 57.186493046811755], [11.766975256935122, 78.87636141961718]], [[-153.1357822834691, -12.78990488947136], [-169.08043095815339, 70.4331224381526]], [[-78.28407347712199, 41.02470557521376], [-118.5914580109128, 33.763889069466934]], [[143.3606503687943, 29.64706275162038], [89.79129221764543, 37.120388467450255]], [[-118.5914580109128, 33.763889069466934], [57.18829319853186, 46.185229125365275]], [[-118.5914580109128, 33.763889069466934], [164.98799865668352, -4.810271577758607]], [[11.766975256935122, 78.87636141961718], [89.79129221764543, 37.120388467450255]], [[11.766975256935122, 78.87636141961718], [-114.74502181510444, 54.72704333887299]], [[10.006106900247525, 17.673183901628658], [-155.33675475474428, -17.022208399159005]], [[10.006106900247525, 17.673183901628658], [40.931528472698446, 70.19801022125866]], [[126.93786028413244, -74.79092774559666], [130.8367804216151, 14.24609526306167]], [[126.93786028413244, -74.79092774559666], [130.29991885295593, 23.65655563419187]], [[60.21402067013119, 35.1464369179697], [91.75879644649224, -7.2032076388570605]], [[60.21402067013119, 35.1464369179697], [34.34912458754394, 36.00941944688391]], [[60.21402067013119, 35.1464369179697], [165.08988660496937, -20.2399273426643]], [[-18.235510489815127, 8.604401019887172], [-130.61921985603763, 42.9537359391224]], [[91.75879644649224, -7.2032076388570605], [-176.9728293268909, -2.108698993383666]], [[31.29132156717119, -35.266489680175845], [34.34912458754394, 36.00941944688391]], [[34.34912458754394, 36.00941944688391], [-45.24403961724978, 61.49354249095416]], [[34.34912458754394, 36.00941944688391], [100.92844421429193, 23.58197268935622]], [[-155.33675475474428, -17.022208399159005], [40.931528472698446, 70.19801022125866]], [[57.18829319853186, 46.185229125365275], [146.0196754054715, 10.039316852949785]], [[-104.45084593307953, -19.95304762353789], [164.98799865668352, -4.810271577758607]], [[-66.49101789777605, 59.99213122218939], [-136.87836007555515, -5.847813609222035]], [[-136.87836007555515, -5.847813609222035], [170.5872653010528, 46.960381581105864]], [[-124.77851730523685, 3.081871420208681], [-122.11035099019773, 44.64993938105038]], [[-105.22726642451788, -41.59451403152717], [-45.24403961724978, 61.49354249095416]], [[-45.24403961724978, 61.49354249095416], [-155.0952178971639, -35.56650802229742]], [[-10.692458818281226, 22.071565557794663], [-130.61921985603763, 42.9537359391224]], [[-10.692458818281226, 22.071565557794663], [164.98799865668352, -4.810271577758607]], [[-176.7392625676682, 38.267368186671256], [177.74421056180924, -19.562148780568318]]]}}]}