{"type": "FeatureCollection", "name": "E8_proj_seed1207 sites", "properties": {"shape": "E8_proj_seed1207", "lock_lat": -25.0, "lock_lon": 55.0, "bearing": 240.0, "thresholds": {"close": 0.09892531138990063, "medium": 0.13489815189531904, "close_km": 11.0, "medium_km": 15.0, "dist_mode": "edge_exact"}}, "features": [{"type": "Feature", "properties": {"kind": "site", "name": "Glastonbury Tor", "dist_deg": 0.066321, "dist_km": 7.375, "class": "close", "dist_source": "ks_full_grid", "edges_supported": 2}, "geometry": {"type": "Point", "coordinates": [-2.7, 51.0]}}, {"type": "Feature", "properties": {"kind": "site", "name": "Shaftesbury", "dist_deg": 0.0108109, "dist_km": 1.202, "class": "close", "dist_source": "ks_full_grid", "edges_supported": 2}, "geometry": {"type": "Point", "coordinates": [-2.195, 51.0]}}, {"type": "Feature", "properties": {"kind": "site", "name": "Brandenburg Gate", "dist_deg": 0.0105366, "dist_km": 1.172, "class": "close", "dist_source": "ks_full_grid", "edges_supported": 6}, "geometry": {"type": "Point", "coordinates": [13.3778, 52.5164]}}, {"type": "Feature", "properties": {"kind": "site", "name": "Placa de Catalunya", "dist_deg": 0.1208301, "dist_km": 13.436, "class": "medium", "dist_source": "ks_full_grid", "edges_supported": 0}, "geometry": {"type": "Point", "coordinates": [2.17, 41.387]}}, {"type": "Feature", "properties": {"kind": "site", "name": "Island of the Sun", "dist_deg": 0.0285215, "dist_km": 3.171, "class": "close", "dist_source": "ks_full_grid", "edges_supported": 1}, "geometry": {"type": "Point", "coordinates": [-69.1717, -16.0167]}}, {"type": "Feature", "properties": {"kind": "site", "name": "Plaza Mayor Lima", "dist_deg": 0.0590404, "dist_km": 6.565, "class": "close", "dist_source": "ks_full_grid", "edges_supported": 3}, "geometry": {"type": "Point", "coordinates": [-77.0306, -12.0458]}}, {"type": "Feature", "properties": {"kind": "site", "name": "Rio Ucayali-Rio Maranon confluence", "dist_deg": 0.0068852, "dist_km": 0.766, "class": "close", "dist_source": "ks_full_grid", "edges_supported": 3}, "geometry": {"type": "Point", "coordinates": [-73.45, -4.45]}}, {"type": "Feature", "properties": {"kind": "site", "name": "Uluru", "dist_deg": 0.0194529, "dist_km": 2.163, "class": "close", "dist_source": "ks_full_grid", "edges_supported": 3}, "geometry": {"type": "Point", "coordinates": [130.9917, -25.3433]}}, {"type": "Feature", "properties": {"kind": "site", "name": "Kata Tjuta", "dist_deg": 0.0242269, "dist_km": 2.694, "class": "close", "dist_source": "ks_full_grid", "edges_supported": 2}, "geometry": {"type": "Point", "coordinates": [130.7528, -25.2981]}}, {"type": "Feature", "properties": {"kind": "site", "name": "Nourlangie Rock", "dist_deg": 0.0147434, "dist_km": 1.639, "class": "close", "dist_source": "ks_full_grid", "edges_supported": 1}, "geometry": {"type": "Point", "coordinates": [132.8111, -12.8669]}}, {"type": "Feature", "properties": {"kind": "site", "name": "Hamelin Pool", "dist_deg": 0.0339223, "dist_km": 3.772, "class": "close", "dist_source": "ks_full_grid", "edges_supported": 1}, "geometry": {"type": "Point", "coordinates": [114.2003, -26.435]}}, {"type": "Feature", "properties": {"kind": "site", "name": "Tirta Empul", "dist_deg": 0.0421367, "dist_km": 4.685, "class": "close", "dist_source": "ks_full_grid", "edges_supported": 2}, "geometry": {"type": "Point", "coordinates": [115.3111, -8.4167]}}, {"type": "Feature", "properties": {"kind": "site", "name": "Borobudur", "dist_deg": 0.0073073, "dist_km": 0.812, "class": "close", "dist_source": "ks_full_grid", "edges_supported": 5}, "geometry": {"type": "Point", "coordinates": [110.2042, -7.6081]}}, {"type": "Feature", "properties": {"kind": "site", "name": "Mount Kinabalu", "dist_deg": 0.0888795, "dist_km": 9.883, "class": "close", "dist_source": "ks_full_grid", "edges_supported": 1}, "geometry": {"type": "Point", "coordinates": [116.5628, 6.0744]}}, {"type": "Feature", "properties": {"kind": "site", "name": "Mount Kailash", "dist_deg": 0.1044185, "dist_km": 11.611, "class": "medium", "dist_source": "ks_full_grid", "edges_supported": 0}, "geometry": {"type": "Point", "coordinates": [81.3125, 31.0675]}}, {"type": "Feature", "properties": {"kind": "site", "name": "Karakul Lake", "dist_deg": 0.0518484, "dist_km": 5.765, "class": "close", "dist_source": "ks_full_grid", "edges_supported": 2}, "geometry": {"type": "Point", "coordinates": [73.4886, 39.0217]}}, {"type": "Feature", "properties": {"kind": "site", "name": "Sundarbans-Sagar Island", "dist_deg": 0.0096358, "dist_km": 1.071, "class": "close", "dist_source": "ks_full_grid", "edges_supported": 3}, "geometry": {"type": "Point", "coordinates": [88.2953, 22.5564]}}, {"type": "Feature", "properties": {"kind": "site", "name": "Mount Shasta", "dist_deg": 0.0367036, "dist_km": 4.081, "class": "close", "dist_source": "ks_full_grid", "edges_supported": 1}, "geometry": {"type": "Point", "coordinates": [-122.31, 41.31]}}, {"type": "Feature", "properties": {"kind": "site", "name": "Kachina Peaks Wilderness", "dist_deg": 0.0544905, "dist_km": 6.059, "class": "close", "dist_source": "ks_full_grid", "edges_supported": 1}, "geometry": {"type": "Point", "coordinates": [-111.6625, 35.3394]}}, {"type": "Feature", "properties": {"kind": "site", "name": "Golden Hinde", "dist_deg": 0.0633708, "dist_km": 7.046, "class": "close", "dist_source": "ks_full_grid", "edges_supported": 1}, "geometry": {"type": "Point", "coordinates": [-125.4494, 49.6506]}}, {"type": "Feature", "properties": {"kind": "site", "name": "El Tule-Palenque", "dist_deg": 0.0466471, "dist_km": 5.187, "class": "close", "dist_source": "ks_full_grid", "edges_supported": 4}, "geometry": {"type": "Point", "coordinates": [-91.9817, 17.51]}}, {"type": "Feature", "properties": {"kind": "site", "name": "Laguna Corcovado", "dist_deg": 0.0354402, "dist_km": 3.941, "class": "close", "dist_source": "ks_full_grid", "edges_supported": 1}, "geometry": {"type": "Point", "coordinates": [-83.6167, 8.55]}}, {"type": "Feature", "properties": {"kind": "site", "name": "Cerro de la Silla", "dist_deg": 0.042792, "dist_km": 4.758, "class": "close", "dist_source": "ks_full_grid", "edges_supported": 2}, "geometry": {"type": "Point", "coordinates": [-100.3092, 25.6733]}}, {"type": "Feature", "properties": {"kind": "site", "name": "Mount Fuji", "dist_deg": 0.0250696, "dist_km": 2.788, "class": "close", "dist_source": "ks_full_grid", "edges_supported": 1}, "geometry": {"type": "Point", "coordinates": [138.7317, 35.3628]}}, {"type": "Feature", "properties": {"kind": "site", "name": "Mani San", "dist_deg": 0.0477853, "dist_km": 5.314, "class": "close", "dist_source": "ks_full_grid", "edges_supported": 1}, "geometry": {"type": "Point", "coordinates": [126.4347, 37.6117]}}, {"type": "Feature", "properties": {"kind": "site", "name": "Sefa Utaki", "dist_deg": 0.0220028, "dist_km": 2.447, "class": "close", "dist_source": "ks_full_grid", "edges_supported": 3}, "geometry": {"type": "Point", "coordinates": [127.7669, 26.1444]}}, {"type": "Feature", "properties": {"kind": "site", "name": "Haleakala Crater", "dist_deg": 0.0759779, "dist_km": 8.448, "class": "close", "dist_source": "ks_full_grid", "edges_supported": 2}, "geometry": {"type": "Point", "coordinates": [-156.1828, 20.7186]}}, {"type": "Feature", "properties": {"kind": "site", "name": "Midway Atoll", "dist_deg": 0.0158882, "dist_km": 1.767, "class": "close", "dist_source": "ks_full_grid", "edges_supported": 3}, "geometry": {"type": "Point", "coordinates": [-177.3833, 28.25]}}, {"type": "Feature", "properties": {"kind": "site", "name": "Mauna Loa", "dist_deg": 0.0159307, "dist_km": 1.771, "class": "close", "dist_source": "ks_full_grid", "edges_supported": 2}, "geometry": {"type": "Point", "coordinates": [-155.5356, 19.7569]}}, {"type": "Feature", "properties": {"kind": "site", "name": "Lake Rotopounamu", "dist_deg": 0.0153312, "dist_km": 1.705, "class": "close", "dist_source": "ks_full_grid", "edges_supported": 1}, "geometry": {"type": "Point", "coordinates": [175.7372, -39.0258]}}, {"type": "Feature", "properties": {"kind": "site", "name": "Mount Panié", "dist_deg": 0.0056203, "dist_km": 0.625, "class": "close", "dist_source": "ks_full_grid", "edges_supported": 2}, "geometry": {"type": "Point", "coordinates": [164.7706, -20.5894]}}, {"type": "Feature", "properties": {"kind": "site", "name": "Macquarie Island", "dist_deg": 0.1055512, "dist_km": 11.737, "class": "medium", "dist_source": "ks_full_grid", "edges_supported": 0}, "geometry": {"type": "Point", "coordinates": [158.8956, -54.5947]}}, {"type": "Feature", "properties": {"kind": "site", "name": "Great Pyramid of Giza", "dist_deg": 0.0062736, "dist_km": 0.698, "class": "close", "dist_source": "ks_full_grid", "edges_supported": 3}, "geometry": {"type": "Point", "coordinates": [31.1342, 29.9792]}}, {"type": "Feature", "properties": {"kind": "site", "name": "Mount Sinai", "dist_deg": 0.0217736, "dist_km": 2.421, "class": "close", "dist_source": "ks_full_grid", "edges_supported": 2}, "geometry": {"type": "Point", "coordinates": [33.973, 28.5394]}}, {"type": "Feature", "properties": {"kind": "site", "name": "Mount of Olives", "dist_deg": 0.0500811, "dist_km": 5.569, "class": "close", "dist_source": "ks_full_grid", "edges_supported": 2}, "geometry": {"type": "Point", "coordinates": [35.2439, 31.778]}}, {"type": "Feature", "properties": {"kind": "site", "name": "Mecca", "dist_deg": 0.0071024, "dist_km": 0.79, "class": "close", "dist_source": "ks_full_grid", "edges_supported": 2}, "geometry": {"type": "Point", "coordinates": [39.8147, 21.4275]}}, {"type": "Feature", "properties": {"kind": "site", "name": "Takht-e Soleiman", "dist_deg": 0.0117893, "dist_km": 1.311, "class": "close", "dist_source": "ks_full_grid", "edges_supported": 1}, "geometry": {"type": "Point", "coordinates": [47.2361, 36.6033]}}, {"type": "Feature", "properties": {"kind": "site", "name": "Table Mountain", "dist_deg": 0.0356366, "dist_km": 3.963, "class": "close", "dist_source": "ks_full_grid", "edges_supported": 1}, "geometry": {"type": "Point", "coordinates": [18.43, -33.9247]}}, {"type": "Feature", "properties": {"kind": "site", "name": "Pilansberg", "dist_deg": 0.0273771, "dist_km": 3.044, "class": "close", "dist_source": "ks_full_grid", "edges_supported": 4}, "geometry": {"type": "Point", "coordinates": [27.0322, -25.2294]}}, {"type": "Feature", "properties": {"kind": "site", "name": "Mont-aux-Sources", "dist_deg": 0.0362812, "dist_km": 4.034, "class": "close", "dist_source": "ks_full_grid", "edges_supported": 3}, "geometry": {"type": "Point", "coordinates": [28.8847, -28.7592]}}, {"type": "Feature", "properties": {"kind": "site", "name": "Sergiev Posad", "dist_deg": 0.0217134, "dist_km": 2.414, "class": "close", "dist_source": "ks_full_grid", "edges_supported": 3}, "geometry": {"type": "Point", "coordinates": [37.6175, 55.7558]}}, {"type": "Feature", "properties": {"kind": "site", "name": "Mount Konzhakovsky Kamen", "dist_deg": 0.0060182, "dist_km": 0.669, "class": "close", "dist_source": "ks_full_grid", "edges_supported": 4}, "geometry": {"type": "Point", "coordinates": [60.0, 59.0]}}, {"type": "Feature", "properties": {"kind": "site", "name": "Mount Elbrus", "dist_deg": 0.0072653, "dist_km": 0.808, "class": "close", "dist_source": "ks_full_grid", "edges_supported": 1}, "geometry": {"type": "Point", "coordinates": [42.4392, 43.355]}}, {"type": "Feature", "properties": {"kind": "site", "name": "Po Lin Monastery", "dist_deg": 0.0312438, "dist_km": 3.474, "class": "close", "dist_source": "ks_full_grid", "edges_supported": 3}, "geometry": {"type": "Point", "coordinates": [113.9078, 22.2556]}}, {"type": "Feature", "properties": {"kind": "site", "name": "Emei Shan", "dist_deg": 0.0119306, "dist_km": 1.327, "class": "close", "dist_source": "ks_full_grid", "edges_supported": 5}, "geometry": {"type": "Point", "coordinates": [104.0756, 30.6511]}}, {"type": "Feature", "properties": {"kind": "site", "name": "Mount Pulag", "dist_deg": 0.0189976, "dist_km": 2.112, "class": "close", "dist_source": "ks_full_grid", "edges_supported": 1}, "geometry": {"type": "Point", "coordinates": [120.8836, 16.5836]}}, {"type": "Feature", "properties": {"kind": "site", "name": "Niagara Falls", "dist_deg": 0.0804376, "dist_km": 8.944, "class": "close", "dist_source": "ks_full_grid", "edges_supported": 1}, "geometry": {"type": "Point", "coordinates": [-79.0853, 43.0903]}}, {"type": "Feature", "properties": {"kind": "site", "name": "Pilot Knob State Park", "dist_deg": 0.0253205, "dist_km": 2.816, "class": "close", "dist_source": "ks_full_grid", "edges_supported": 2}, "geometry": {"type": "Point", "coordinates": [-93.5533, 43.2528]}}, {"type": "Feature", "properties": {"kind": "site", "name": "Akimiski Island", "dist_deg": 0.0300616, "dist_km": 3.343, "class": "close", "dist_source": "ks_full_grid", "edges_supported": 2}, "geometry": {"type": "Point", "coordinates": [-81.3172, 52.9872]}}, {"type": "Feature", "properties": {"kind": "site", "name": "Mount Dimlang", "dist_deg": 0.0191303, "dist_km": 2.127, "class": "close", "dist_source": "ks_full_grid", "edges_supported": 1}, "geometry": {"type": "Point", "coordinates": [11.75, 8.5]}}, {"type": "Feature", "properties": {"kind": "site", "name": "Lake Chad", "dist_deg": 0.0124805, "dist_km": 1.388, "class": "close", "dist_source": "ks_full_grid", "edges_supported": 2}, "geometry": {"type": "Point", "coordinates": [14.1, 13.3303]}}, {"type": "Feature", "properties": {"kind": "site", "name": "Isangila Falls", "dist_deg": 0.0683658, "dist_km": 7.602, "class": "close", "dist_source": "ks_full_grid", "edges_supported": 3}, "geometry": {"type": "Point", "coordinates": [12.0, -6.0]}}, {"type": "Feature", "properties": {"kind": "site", "name": "Marco Zero Recife", "dist_deg": 0.042816, "dist_km": 4.761, "class": "close", "dist_source": "ks_full_grid", "edges_supported": 1}, "geometry": {"type": "Point", "coordinates": [-34.8711, -8.0633]}}, {"type": "Feature", "properties": {"kind": "site", "name": "Peter and Paul Rocks", "dist_deg": 0.0260886, "dist_km": 2.901, "class": "close", "dist_source": "ks_full_grid", "edges_supported": 2}, "geometry": {"type": "Point", "coordinates": [-29.3353, -0.9169]}}, {"type": "Feature", "properties": {"kind": "site", "name": "Parnaiba River Headwaters", "dist_deg": 0.0470144, "dist_km": 5.228, "class": "close", "dist_source": "ks_full_grid", "edges_supported": 2}, "geometry": {"type": "Point", "coordinates": [-43.1747, -8.3231]}}, {"type": "Feature", "properties": {"kind": "site", "name": "Plaza de Mayo", "dist_deg": 0.0095603, "dist_km": 1.063, "class": "close", "dist_source": "ks_full_grid", "edges_supported": 5}, "geometry": {"type": "Point", "coordinates": [-58.3722, -34.6083]}}, {"type": "Feature", "properties": {"kind": "site", "name": "Iguazu Falls", "dist_deg": 0.0096338, "dist_km": 1.071, "class": "close", "dist_source": "ks_full_grid", "edges_supported": 6}, "geometry": {"type": "Point", "coordinates": [-54.4453, -25.6803]}}, {"type": "Feature", "properties": {"kind": "site", "name": "Plaza de Armas Santiago", "dist_deg": 0.0584772, "dist_km": 6.502, "class": "close", "dist_source": "ks_full_grid", "edges_supported": 2}, "geometry": {"type": "Point", "coordinates": [-70.6519, -33.4431]}}, {"type": "Feature", "properties": {"kind": "site", "name": "Jebel Toubkal", "dist_deg": 0.0361135, "dist_km": 4.016, "class": "close", "dist_source": "ks_full_grid", "edges_supported": 1}, "geometry": {"type": "Point", "coordinates": [-7.9161, 31.0619]}}, {"type": "Feature", "properties": {"kind": "site", "name": "Pico de Teide", "dist_deg": 0.0783911, "dist_km": 8.717, "class": "close", "dist_source": "ks_full_grid", "edges_supported": 1}, "geometry": {"type": "Point", "coordinates": [-16.6333, 28.2667]}}, {"type": "Feature", "properties": {"kind": "site", "name": "Chott el Djerid", "dist_deg": 0.0176426, "dist_km": 1.962, "class": "close", "dist_source": "ks_full_grid", "edges_supported": 2}, "geometry": {"type": "Point", "coordinates": [9.5375, 33.8869]}}, {"type": "Feature", "properties": {"kind": "site", "name": "Teatro Amazonas", "dist_deg": 0.0129408, "dist_km": 1.439, "class": "close", "dist_source": "ks_full_grid", "edges_supported": 6}, "geometry": {"type": "Point", "coordinates": [-60.0231, -3.1306]}}, {"type": "Feature", "properties": {"kind": "site", "name": "Angel Falls", "dist_deg": 0.0198082, "dist_km": 2.203, "class": "close", "dist_source": "ks_full_grid", "edges_supported": 2}, "geometry": {"type": "Point", "coordinates": [-62.5356, 5.9675]}}, {"type": "Feature", "properties": {"kind": "site", "name": "Lago Arari", "dist_deg": 0.0610478, "dist_km": 6.788, "class": "close", "dist_source": "ks_full_grid", "edges_supported": 2}, "geometry": {"type": "Point", "coordinates": [-58.75, -3.4167]}}, {"type": "Feature", "properties": {"kind": "site", "name": "Christ the Redeemer", "dist_deg": 0.0080285, "dist_km": 0.893, "class": "close", "dist_source": "ks_full_grid", "edges_supported": 2}, "geometry": {"type": "Point", "coordinates": [-43.2106, -22.9519]}}, {"type": "Feature", "properties": {"kind": "site", "name": "Praca dos Tres Poderes", "dist_deg": 0.050862, "dist_km": 5.656, "class": "close", "dist_source": "ks_full_grid", "edges_supported": 2}, "geometry": {"type": "Point", "coordinates": [-47.8611, -15.7997]}}, {"type": "Feature", "properties": {"kind": "site", "name": "Terreiro de Jesus", "dist_deg": 0.0327076, "dist_km": 3.637, "class": "close", "dist_source": "ks_full_grid", "edges_supported": 1}, "geometry": {"type": "Point", "coordinates": [-38.51, -12.9733]}}, {"type": "Feature", "properties": {"kind": "site", "name": "High Tatra", "dist_deg": 0.0143711, "dist_km": 1.598, "class": "close", "dist_source": "ks_full_grid", "edges_supported": 5}, "geometry": {"type": "Point", "coordinates": [20.0, 49.1667]}}, {"type": "Feature", "properties": {"kind": "site", "name": "Stortorget Stockholm", "dist_deg": 0.0418376, "dist_km": 4.652, "class": "close", "dist_source": "ks_full_grid", "edges_supported": 1}, "geometry": {"type": "Point", "coordinates": [18.0708, 59.325]}}, {"type": "Feature", "properties": {"kind": "site", "name": "Mount Olympus", "dist_deg": 0.0040145, "dist_km": 0.446, "class": "close", "dist_source": "ks_full_grid", "edges_supported": 4}, "geometry": {"type": "Point", "coordinates": [22.35, 40.0833]}}, {"type": "Feature", "properties": {"kind": "site", "name": "Arunachala Hill", "dist_deg": 0.0757754, "dist_km": 8.426, "class": "close", "dist_source": "ks_full_grid", "edges_supported": 2}, "geometry": {"type": "Point", "coordinates": [79.0517, 12.2406]}}, {"type": "Feature", "properties": {"kind": "site", "name": "Piram Island", "dist_deg": 0.0798881, "dist_km": 8.883, "class": "close", "dist_source": "ks_full_grid", "edges_supported": 2}, "geometry": {"type": "Point", "coordinates": [72.35, 21.6]}}, {"type": "Feature", "properties": {"kind": "site", "name": "Adam’s Peak", "dist_deg": 0.0214755, "dist_km": 2.388, "class": "close", "dist_source": "ks_full_grid", "edges_supported": 1}, "geometry": {"type": "Point", "coordinates": [80.4997, 6.8092]}}, {"type": "Feature", "properties": {"kind": "site", "name": "Uhuru Peak Kilimanjaro", "dist_deg": 0.0112708, "dist_km": 1.253, "class": "close", "dist_source": "ks_full_grid", "edges_supported": 5}, "geometry": {"type": "Point", "coordinates": [37.3533, -3.0758]}}, {"type": "Feature", "properties": {"kind": "site", "name": "Lake Victoria (Ukerewe Island)", "dist_deg": 0.0016627, "dist_km": 0.185, "class": "close", "dist_source": "ks_full_grid", "edges_supported": 6}, "geometry": {"type": "Point", "coordinates": [32.9, -0.9833]}}, {"type": "Feature", "properties": {"kind": "site", "name": "Mount Nkungwe", "dist_deg": 0.0436182, "dist_km": 4.85, "class": "close", "dist_source": "ks_full_grid", "edges_supported": 3}, "geometry": {"type": "Point", "coordinates": [29.8, -6.1167]}}, {"type": "Feature", "properties": {"kind": "site", "name": "Mount Belukha", "dist_deg": 0.0014569, "dist_km": 0.162, "class": "close", "dist_source": "ks_full_grid", "edges_supported": 2}, "geometry": {"type": "Point", "coordinates": [88.9, 48.5]}}, {"type": "Feature", "properties": {"kind": "site", "name": "Uzynaral Strait", "dist_deg": 0.0011322, "dist_km": 0.126, "class": "close", "dist_source": "ks_full_grid", "edges_supported": 4}, "geometry": {"type": "Point", "coordinates": [75.5, 46.6]}}, {"type": "Feature", "properties": {"kind": "site", "name": "Lake Baikal (Cape Khoboy)", "dist_deg": 0.0548667, "dist_km": 6.101, "class": "close", "dist_source": "ks_full_grid", "edges_supported": 1}, "geometry": {"type": "Point", "coordinates": [107.6667, 53.1667]}}, {"type": "Feature", "properties": {"kind": "site", "name": "Forbidden City Beijing", "dist_deg": 0.0457495, "dist_km": 5.087, "class": "close", "dist_source": "ks_full_grid", "edges_supported": 1}, "geometry": {"type": "Point", "coordinates": [116.4075, 39.9042]}}, {"type": "Feature", "properties": {"kind": "site", "name": "Tai Shan", "dist_deg": 0.0240616, "dist_km": 2.675, "class": "close", "dist_source": "ks_full_grid", "edges_supported": 3}, "geometry": {"type": "Point", "coordinates": [117.3333, 36.5]}}, {"type": "Feature", "properties": {"kind": "site", "name": "Karakorum", "dist_deg": 0.0024322, "dist_km": 0.271, "class": "close", "dist_source": "ks_full_grid", "edges_supported": 2}, "geometry": {"type": "Point", "coordinates": [102.8239, 47.1972]}}, {"type": "Feature", "properties": {"kind": "site", "name": "Boulder Colorado", "dist_deg": 0.1498801, "dist_km": 16.666, "class": "far", "dist_source": "ks_full_grid", "edges_supported": 0}, "geometry": {"type": "Point", "coordinates": [-105.2706, 40.015]}}, {"type": "Feature", "properties": {"kind": "site", "name": "Mount Whitney", "dist_deg": 0.0391425, "dist_km": 4.353, "class": "close", "dist_source": "ks_full_grid", "edges_supported": 1}, "geometry": {"type": "Point", "coordinates": [-118.292, 36.5786]}}, {"type": "Feature", "properties": {"kind": "site", "name": "Cahokia Mounds", "dist_deg": 0.0317356, "dist_km": 3.529, "class": "close", "dist_source": "ks_full_grid", "edges_supported": 1}, "geometry": {"type": "Point", "coordinates": [-90.0678, 38.6503]}}, {"type": "Feature", "properties": {"kind": "site", "name": "Three Sisters Blue Mountains", "dist_deg": 0.0640247, "dist_km": 7.119, "class": "close", "dist_source": "ks_full_grid", "edges_supported": 2}, "geometry": {"type": "Point", "coordinates": [150.5, -33.75]}}, {"type": "Feature", "properties": {"kind": "site", "name": "Mount Picton Tasmania", "dist_deg": 0.0232026, "dist_km": 2.58, "class": "close", "dist_source": "ks_full_grid", "edges_supported": 5}, "geometry": {"type": "Point", "coordinates": [146.6075, -43.1575]}}, {"type": "Feature", "properties": {"kind": "site", "name": "Fraser Island", "dist_deg": 0.0049422, "dist_km": 0.549, "class": "close", "dist_source": "ks_full_grid", "edges_supported": 2}, "geometry": {"type": "Point", "coordinates": [153.0294, -25.3925]}}, {"type": "Feature", "properties": {"kind": "site", "name": "Cerro de Puntas", "dist_deg": 0.0060399, "dist_km": 0.672, "class": "close", "dist_source": "ks_full_grid", "edges_supported": 1}, "geometry": {"type": "Point", "coordinates": [-67.2639, 18.3561]}}, {"type": "Feature", "properties": {"kind": "site", "name": "Great Exuma Island", "dist_deg": 0.0108105, "dist_km": 1.202, "class": "close", "dist_source": "ks_full_grid", "edges_supported": 4}, "geometry": {"type": "Point", "coordinates": [-75.8167, 23.5167]}}, {"type": "Feature", "properties": {"kind": "site", "name": "Montego Bay", "dist_deg": 0.0215924, "dist_km": 2.401, "class": "close", "dist_source": "ks_full_grid", "edges_supported": 2}, "geometry": {"type": "Point", "coordinates": [-77.9167, 18.4667]}}, {"type": "Feature", "properties": {"kind": "site", "name": "Mount Simpson PNG", "dist_deg": 0.0111451, "dist_km": 1.239, "class": "close", "dist_source": "ks_full_grid", "edges_supported": 2}, "geometry": {"type": "Point", "coordinates": [148.0, -9.5]}}, {"type": "Feature", "properties": {"kind": "site", "name": "Popomanaseu", "dist_deg": 0.0129392, "dist_km": 1.439, "class": "close", "dist_source": "ks_full_grid", "edges_supported": 1}, "geometry": {"type": "Point", "coordinates": [160.0667, -9.7]}}, {"type": "Feature", "properties": {"kind": "site", "name": "Puncak Jaya", "dist_deg": 0.0565946, "dist_km": 6.293, "class": "close", "dist_source": "ks_full_grid", "edges_supported": 1}, "geometry": {"type": "Point", "coordinates": [138.5, -4.5]}}, {"type": "Feature", "properties": {"kind": "site", "name": "Dakar", "dist_deg": 0.1493626, "dist_km": 16.608, "class": "far", "dist_source": "ks_full_grid", "edges_supported": 0}, "geometry": {"type": "Point", "coordinates": [-17.3333, 14.75]}}, {"type": "Feature", "properties": {"kind": "site", "name": "Timbuktu", "dist_deg": 0.0176441, "dist_km": 1.962, "class": "close", "dist_source": "ks_full_grid", "edges_supported": 3}, "geometry": {"type": "Point", "coordinates": [-3.5, 15.0]}}, {"type": "Feature", "properties": {"kind": "site", "name": "Fogo Cape Verde", "dist_deg": 0.030665, "dist_km": 3.41, "class": "close", "dist_source": "ks_full_grid", "edges_supported": 5}, "geometry": {"type": "Point", "coordinates": [-24.3817, 14.9133]}}, {"type": "Feature", "properties": {"kind": "site", "name": "Tsodilo Hill", "dist_deg": 0.028908, "dist_km": 3.214, "class": "close", "dist_source": "ks_full_grid", "edges_supported": 3}, "geometry": {"type": "Point", "coordinates": [21.7667, -18.75]}}, {"type": "Feature", "properties": {"kind": "site", "name": "Kgalagadi Transfrontier Park", "dist_deg": 0.000788, "dist_km": 0.088, "class": "close", "dist_source": "ks_full_grid", "edges_supported": 2}, "geometry": {"type": "Point", "coordinates": [20.7122, -25.2872]}}, {"type": "Feature", "properties": {"kind": "site", "name": "Great Zimbabwe", "dist_deg": 0.0236899, "dist_km": 2.634, "class": "close", "dist_source": "ks_full_grid", "edges_supported": 4}, "geometry": {"type": "Point", "coordinates": [30.9275, -20.2672]}}, {"type": "Feature", "properties": {"kind": "site", "name": "Khao Nan Mia", "dist_deg": 0.017773, "dist_km": 1.976, "class": "close", "dist_source": "ks_full_grid", "edges_supported": 3}, "geometry": {"type": "Point", "coordinates": [99.5941, 8.8594]}}, {"type": "Feature", "properties": {"kind": "site", "name": "Lake Toba", "dist_deg": 0.0004776, "dist_km": 0.053, "class": "close", "dist_source": "ks_full_grid", "edges_supported": 2}, "geometry": {"type": "Point", "coordinates": [98.8756, 2.6845]}}, {"type": "Feature", "properties": {"kind": "site", "name": "Angkor Wat", "dist_deg": 0.0250971, "dist_km": 2.791, "class": "close", "dist_source": "ks_full_grid", "edges_supported": 1}, "geometry": {"type": "Point", "coordinates": [103.86, 13.4256]}}, {"type": "Feature", "properties": {"kind": "site", "name": "Mount Tomaniivi", "dist_deg": 0.0101245, "dist_km": 1.126, "class": "close", "dist_source": "ks_full_grid", "edges_supported": 4}, "geometry": {"type": "Point", "coordinates": [178.0167, -17.6167]}}, {"type": "Feature", "properties": {"kind": "site", "name": "Tarawa Island", "dist_deg": 0.0282908, "dist_km": 3.146, "class": "close", "dist_source": "ks_full_grid", "edges_supported": 1}, "geometry": {"type": "Point", "coordinates": [173.0764, 1.4403]}}, {"type": "Feature", "properties": {"kind": "site", "name": "Mount Silisili", "dist_deg": 0.0821316, "dist_km": 9.133, "class": "close", "dist_source": "ks_full_grid", "edges_supported": 2}, "geometry": {"type": "Point", "coordinates": [-172.4858, -13.6183]}}, {"type": "Feature", "properties": {"kind": "site", "name": "Denali (Mount McKinley)", "dist_deg": 0.0024287, "dist_km": 0.27, "class": "close", "dist_source": "ks_full_grid", "edges_supported": 1}, "geometry": {"type": "Point", "coordinates": [-149.4289, 63.0694]}}, {"type": "Feature", "properties": {"kind": "site", "name": "Great Bear Lake", "dist_deg": 0.0550846, "dist_km": 6.125, "class": "close", "dist_source": "ks_full_grid", "edges_supported": 1}, "geometry": {"type": "Point", "coordinates": [-120.3833, 66.1197]}}, {"type": "Feature", "properties": {"kind": "site", "name": "Fox Islands Aleutian", "dist_deg": 0.0106567, "dist_km": 1.185, "class": "close", "dist_source": "ks_full_grid", "edges_supported": 2}, "geometry": {"type": "Point", "coordinates": [-166.5833, 53.7667]}}, {"type": "Feature", "properties": {"kind": "site", "name": "Mount Maromokotro", "dist_deg": 0.0153272, "dist_km": 1.704, "class": "close", "dist_source": "ks_full_grid", "edges_supported": 2}, "geometry": {"type": "Point", "coordinates": [49.4847, -13.0183]}}, {"type": "Feature", "properties": {"kind": "site", "name": "Piton des Neiges", "dist_deg": 0.0168904, "dist_km": 1.878, "class": "close", "dist_source": "ks_full_grid", "edges_supported": 3}, "geometry": {"type": "Point", "coordinates": [55.7333, -21.3167]}}, {"type": "Feature", "properties": {"kind": "site", "name": "Morne Seychellois", "dist_deg": 0.0220443, "dist_km": 2.451, "class": "close", "dist_source": "ks_full_grid", "edges_supported": 1}, "geometry": {"type": "Point", "coordinates": [55.45, -4.6167]}}, {"type": "Feature", "properties": {"kind": "site", "name": "Mount Damavand", "dist_deg": 0.0002798, "dist_km": 0.031, "class": "close", "dist_source": "ks_full_grid", "edges_supported": 1}, "geometry": {"type": "Point", "coordinates": [52.1097, 35.9547]}}, {"type": "Feature", "properties": {"kind": "site", "name": "Vozrozhdeniya Island", "dist_deg": 0.0400643, "dist_km": 4.455, "class": "close", "dist_source": "ks_full_grid", "edges_supported": 4}, "geometry": {"type": "Point", "coordinates": [59.1419, 45.0917]}}, {"type": "Feature", "properties": {"kind": "site", "name": "Malek Siah Kuh", "dist_deg": 0.0174102, "dist_km": 1.936, "class": "close", "dist_source": "ks_full_grid", "edges_supported": 3}, "geometry": {"type": "Point", "coordinates": [60.8636, 29.4892]}}, {"type": "Feature", "properties": {"kind": "site", "name": "Klyuchevskaya Sopka", "dist_deg": 0.1016949, "dist_km": 11.308, "class": "medium", "dist_source": "ks_full_grid", "edges_supported": 0}, "geometry": {"type": "Point", "coordinates": [160.6428, 56.0581]}}, {"type": "Feature", "properties": {"kind": "site", "name": "Sakhalin Island", "dist_deg": 0.0227299, "dist_km": 2.527, "class": "close", "dist_source": "ks_full_grid", "edges_supported": 2}, "geometry": {"type": "Point", "coordinates": [143.0028, 50.2247]}}, {"type": "Feature", "properties": {"kind": "site", "name": "Cherskiy", "dist_deg": 0.0156193, "dist_km": 1.737, "class": "close", "dist_source": "ks_full_grid", "edges_supported": 2}, "geometry": {"type": "Point", "coordinates": [-115.9872, 34.6272]}}, {"type": "Feature", "properties": {"kind": "site", "name": "Easter Island", "dist_deg": 0.0012725, "dist_km": 0.141, "class": "close", "dist_source": "ks_full_grid", "edges_supported": 1}, "geometry": {"type": "Point", "coordinates": [-109.3664, -27.1211]}}, {"type": "Feature", "properties": {"kind": "site", "name": "Reykjavik-Thingvellir", "dist_deg": 0.0750267, "dist_km": 8.343, "class": "close", "dist_source": "ks_full_grid", "edges_supported": 2}, "geometry": {"type": "Point", "coordinates": [-21.8953, 64.1353]}}, {"type": "Feature", "properties": {"kind": "site", "name": "Callanish", "dist_deg": 0.0285167, "dist_km": 3.171, "class": "close", "dist_source": "ks_full_grid", "edges_supported": 2}, "geometry": {"type": "Point", "coordinates": [-6.7367, 58.1997]}}, {"type": "Feature", "properties": {"kind": "site", "name": "Nuuk Greenland", "dist_deg": 0.0125899, "dist_km": 1.4, "class": "close", "dist_source": "ks_full_grid", "edges_supported": 2}, "geometry": {"type": "Point", "coordinates": [-51.7214, 64.1836]}}, {"type": "Feature", "properties": {"kind": "site", "name": "Port Stanley", "dist_deg": 0.0017633, "dist_km": 0.196, "class": "close", "dist_source": "ks_full_grid", "edges_supported": 2}, "geometry": {"type": "Point", "coordinates": [-57.8492, -51.7011]}}, {"type": "Feature", "properties": {"kind": "site", "name": "South Georgia Island", "dist_deg": 0.0196909, "dist_km": 2.189, "class": "close", "dist_source": "ks_full_grid", "edges_supported": 3}, "geometry": {"type": "Point", "coordinates": [-36.75, -54.25]}}, {"type": "Feature", "properties": {"kind": "site", "name": "Lake Buenos Aires", "dist_deg": 0.0155597, "dist_km": 1.73, "class": "close", "dist_source": "ks_full_grid", "edges_supported": 1}, "geometry": {"type": "Point", "coordinates": [-71.3675, -46.5033]}}, {"type": "Feature", "properties": {"kind": "site", "name": "Wood Buffalo National Park", "dist_deg": 0.0001581, "dist_km": 0.018, "class": "close", "dist_source": "ks_full_grid", "edges_supported": 2}, "geometry": {"type": "Point", "coordinates": [-112.8542, 58.9239]}}, {"type": "Feature", "properties": {"kind": "site", "name": "Adelaide Peninsula", "dist_deg": 0.1087883, "dist_km": 12.097, "class": "medium", "dist_source": "ks_full_grid", "edges_supported": 0}, "geometry": {"type": "Point", "coordinates": [-97.8, 68.0833]}}, {"type": "Feature", "properties": {"kind": "site", "name": "Bay of God’s Mercy", "dist_deg": 0.0564039, "dist_km": 6.272, "class": "close", "dist_source": "ks_full_grid", "edges_supported": 3}, "geometry": {"type": "Point", "coordinates": [-84.1333, 64.6]}}, {"type": "Feature", "properties": {"kind": "site", "name": "Ascension Island", "dist_deg": 0.0121193, "dist_km": 1.348, "class": "close", "dist_source": "ks_full_grid", "edges_supported": 1}, "geometry": {"type": "Point", "coordinates": [-14.3558, -7.9467]}}, {"type": "Feature", "properties": {"kind": "site", "name": "St. Helena Island", "dist_deg": 0.0094335, "dist_km": 1.049, "class": "close", "dist_source": "ks_full_grid", "edges_supported": 4}, "geometry": {"type": "Point", "coordinates": [-5.7167, -15.9333]}}, {"type": "Feature", "properties": {"kind": "site", "name": "Mount Loma", "dist_deg": 0.0106848, "dist_km": 1.188, "class": "close", "dist_source": "ks_full_grid", "edges_supported": 3}, "geometry": {"type": "Point", "coordinates": [-11.117, 9.217]}}, {"type": "Feature", "properties": {"kind": "site", "name": "Lena-Muna juncture", "dist_deg": 0.0995443, "dist_km": 11.069, "class": "medium", "dist_source": "ks_full_grid", "edges_supported": 1}, "geometry": {"type": "Point", "coordinates": [123.2833, 68.0167]}}, {"type": "Feature", "properties": {"kind": "site", "name": "Lake Ozero Taymyr", "dist_deg": 0.0326434, "dist_km": 3.63, "class": "close", "dist_source": "ks_full_grid", "edges_supported": 1}, "geometry": {"type": "Point", "coordinates": [101.7167, 74.5167]}}, {"type": "Feature", "properties": {"kind": "site", "name": "Tunguska", "dist_deg": 0.0461674, "dist_km": 5.134, "class": "close", "dist_source": "ks_full_grid", "edges_supported": 1}, "geometry": {"type": "Point", "coordinates": [102.7861, 52.6528]}}, {"type": "Feature", "properties": {"kind": "site", "name": "Mount Ross Kerguelen", "dist_deg": 0.0610144, "dist_km": 6.785, "class": "close", "dist_source": "ks_full_grid", "edges_supported": 2}, "geometry": {"type": "Point", "coordinates": [69.5, -49.5833]}}, {"type": "Feature", "properties": {"kind": "site", "name": "Big Ben Heard Island", "dist_deg": 0.0202509, "dist_km": 2.252, "class": "close", "dist_source": "ks_full_grid", "edges_supported": 2}, "geometry": {"type": "Point", "coordinates": [73.525, -53.1083]}}, {"type": "Feature", "properties": {"kind": "site", "name": "Prydz Bay", "dist_deg": 0.0107231, "dist_km": 1.192, "class": "close", "dist_source": "ks_full_grid", "edges_supported": 4}, "geometry": {"type": "Point", "coordinates": [75.0, -69.0]}}, {"type": "Feature", "properties": {"kind": "site", "name": "Mount Lamlam Guam", "dist_deg": 0.0987534, "dist_km": 10.981, "class": "close", "dist_source": "ks_full_grid", "edges_supported": 1}, "geometry": {"type": "Point", "coordinates": [144.6628, 13.3386]}}, {"type": "Feature", "properties": {"kind": "site", "name": "Yap Island", "dist_deg": 0.0348981, "dist_km": 3.881, "class": "close", "dist_source": "ks_full_grid", "edges_supported": 1}, "geometry": {"type": "Point", "coordinates": [134.3833, -2.55]}}, {"type": "Feature", "properties": {"kind": "site", "name": "Nan Madol", "dist_deg": 0.1020043, "dist_km": 11.342, "class": "medium", "dist_source": "ks_full_grid", "edges_supported": 0}, "geometry": {"type": "Point", "coordinates": [158.3358, 6.8444]}}, {"type": "Feature", "properties": {"kind": "site", "name": "Mount Orohena", "dist_deg": 0.0164986, "dist_km": 1.835, "class": "close", "dist_source": "ks_full_grid", "edges_supported": 2}, "geometry": {"type": "Point", "coordinates": [-149.4842, -17.6197]}}, {"type": "Feature", "properties": {"kind": "site", "name": "Hivaoa Island", "dist_deg": 0.0793933, "dist_km": 8.828, "class": "close", "dist_source": "ks_full_grid", "edges_supported": 2}, "geometry": {"type": "Point", "coordinates": [-139.0211, -9.7547]}}, {"type": "Feature", "properties": {"kind": "site", "name": "Kiritimati (Christmas Island)", "dist_deg": 0.0709675, "dist_km": 7.891, "class": "close", "dist_source": "ks_full_grid", "edges_supported": 2}, "geometry": {"type": "Point", "coordinates": [-157.4278, 1.8722]}}, {"type": "Feature", "properties": {"kind": "site", "name": "Graciosa Azores", "dist_deg": 0.05446, "dist_km": 6.056, "class": "close", "dist_source": "ks_full_grid", "edges_supported": 4}, "geometry": {"type": "Point", "coordinates": [-28.0069, 39.0525]}}, {"type": "Feature", "properties": {"kind": "site", "name": "St. George’s Island Bermuda", "dist_deg": 0.011488, "dist_km": 1.277, "class": "close", "dist_source": "ks_full_grid", "edges_supported": 1}, "geometry": {"type": "Point", "coordinates": [-64.7786, 32.2811]}}, {"type": "Feature", "properties": {"kind": "site", "name": "Lisbon Portugal", "dist_deg": 0.0020053, "dist_km": 0.223, "class": "close", "dist_source": "ks_full_grid", "edges_supported": 4}, "geometry": {"type": "Point", "coordinates": [-9.1356, 38.7069]}}, {"type": "Feature", "properties": {"kind": "site", "name": "Longyearbyen Spitsbergen", "dist_deg": 0.0196603, "dist_km": 2.186, "class": "close", "dist_source": "ks_full_grid", "edges_supported": 1}, "geometry": {"type": "Point", "coordinates": [18.1642, 78.6481]}}, {"type": "Feature", "properties": {"kind": "site", "name": "Independence Fjord", "dist_deg": 0.0160143, "dist_km": 1.781, "class": "close", "dist_source": "ks_full_grid", "edges_supported": 1}, "geometry": {"type": "Point", "coordinates": [-28.2725, 81.9247]}}, {"type": "Feature", "properties": {"kind": "site", "name": "Yuzhny Novaya Zemlya", "dist_deg": 0.0242278, "dist_km": 2.694, "class": "close", "dist_source": "ks_full_grid", "edges_supported": 4}, "geometry": {"type": "Point", "coordinates": [80.3667, 73.4833]}}, {"type": "Feature", "properties": {"kind": "site", "name": "Mount Hope Antarctica", "dist_deg": 0.0348913, "dist_km": 3.88, "class": "close", "dist_source": "ks_full_grid", "edges_supported": 4}, "geometry": {"type": "Point", "coordinates": [171.0, -83.75]}}, {"type": "Feature", "properties": {"kind": "site", "name": "Bear Island Antarctica", "dist_deg": 0.0308156, "dist_km": 3.426, "class": "close", "dist_source": "ks_full_grid", "edges_supported": 4}, "geometry": {"type": "Point", "coordinates": [-67.06, -68.18]}}, {"type": "Feature", "properties": {"kind": "site", "name": "Elephant Island", "dist_deg": 0.0238129, "dist_km": 2.648, "class": "close", "dist_source": "ks_full_grid", "edges_supported": 2}, "geometry": {"type": "Point", "coordinates": [-55.1167, -61.1333]}}, {"type": "Feature", "properties": {"kind": "site", "name": "South Pole", "dist_deg": 0.0416896, "dist_km": 4.636, "class": "close", "dist_source": "ks_full_grid", "edges_supported": 2}, "geometry": {"type": "Point", "coordinates": [0.0, -90.0]}}, {"type": "Feature", "properties": {"kind": "site", "name": "South Magnetic Pole", "dist_deg": 0.1229717, "dist_km": 13.674, "class": "medium", "dist_source": "ks_full_grid", "edges_supported": 0}, "geometry": {"type": "Point", "coordinates": [138.0, -67.0]}}, {"type": "Feature", "properties": {"kind": "site", "name": "Sanae Antarctica", "dist_deg": 0.0604067, "dist_km": 6.717, "class": "close", "dist_source": "ks_full_grid", "edges_supported": 3}, "geometry": {"type": "Point", "coordinates": [127.5233, -71.6728]}}, {"type": "Feature", "properties": {"kind": "site", "name": "Halifax Nova Scotia", "dist_deg": 0.0218517, "dist_km": 2.43, "class": "close", "dist_source": "ks_full_grid", "edges_supported": 3}, "geometry": {"type": "Point", "coordinates": [-63.5753, 44.6489]}}, {"type": "Feature", "properties": {"kind": "site", "name": "Washington DC", "dist_deg": 0.08854, "dist_km": 9.845, "class": "close", "dist_source": "ks_full_grid", "edges_supported": 1}, "geometry": {"type": "Point", "coordinates": [-77.0364, 38.895]}}]}