{"type": "FeatureCollection", "name": "E8_proj_seed788 grid", "properties": {"shape": "E8_proj_seed788", "lock_lat": 19.0, "lock_lon": -141.0, "bearing": 128.0}, "features": [{"type": "Feature", "properties": {"kind": "grid_vertices", "shape": "E8_proj_seed788", "count": 240, "ids": ["V1", "V2", "V3", "V4", "V5", "V6", "V7", "V8", "V9", "V10", "V11", "V12", "V13", "V14", "V15", "V16", "V17", "V18", "V19", "V20", "V21", "V22", "V23", "V24", "V25", "V26", "V27", "V28", "V29", "V30", "V31", "V32", "V33", "V34", "V35", "V36", "V37", "V38", "V39", "V40", "V41", "V42", "V43", "V44", "V45", "V46", "V47", "V48", "V49", "V50", "V51", "V52", "V53", "V54", "V55", "V56", "V57", "V58", "V59", "V60", "V61", "V62", "V63", "V64", "V65", "V66", "V67", "V68", "V69", "V70", "V71", "V72", "V73", "V74", "V75", "V76", "V77", "V78", "V79", "V80", "V81", "V82", "V83", "V84", "V85", "V86", "V87", "V88", "V89", "V90", "V91", "V92", "V93", "V94", "V95", "V96", "V97", "V98", "V99", "V100", "V101", "V102", "V103", "V104", "V105", "V106", "V107", "V108", "V109", "V110", "V111", "V112", "V113", "V114", "V115", "V116", "V117", "V118", "V119", "V120", "V121", "V122", "V123", "V124", "V125", "V126", "V127", "V128", "V129", "V130", "V131", "V132", "V133", "V134", "V135", "V136", "V137", "V138", "V139", "V140", "V141", "V142", "V143", "V144", "V145", "V146", "V147", "V148", "V149", "V150", "V151", "V152", "V153", "V154", "V155", "V156", "V157", "V158", "V159", "V160", "V161", "V162", "V163", "V164", "V165", "V166", "V167", "V168", "V169", "V170", "V171", "V172", "V173", "V174", "V175", "V176", "V177", "V178", "V179", "V180", "V181", "V182", "V183", "V184", "V185", "V186", "V187", "V188", "V189", "V190", "V191", "V192", "V193", "V194", "V195", "V196", "V197", "V198", "V199", "V200", "V201", "V202", "V203", "V204", "V205", "V206", "V207", "V208", "V209", "V210", "V211", "V212", "V213", "V214", "V215", "V216", "V217", "V218", "V219", "V220", "V221", "V222", "V223", "V224", "V225", "V226", "V227", "V228", "V229", "V230", "V231", "V232", "V233", "V234", "V235", "V236", "V237", "V238", "V239", "V240"]}, "geometry": {"type": "MultiPoint", "coordinates": [[-132.32193331783262, -36.06600994256981], [74.02332012441069, -37.28003303709119], [-105.97667987558931, 37.28003303709119], [47.67806668216738, 36.06600994256981], [35.90207171955679, -81.90487553054952], [-149.67017032465398, 7.421671999034127], [30.32982967534603, -7.421671999034127], [-144.09792828044323, 81.90487553054952], [-71.59723728998121, -58.548829345549336], [176.15480654247617, -35.72182613907211], [-3.845193457523828, 35.72182613907211], [108.4027627100188, 58.548829345549336], [167.75957465884707, -29.824072749921218], [-64.45682788160764, -50.08678367610254], [115.54317211839236, 50.08678367610254], [-12.240425341152916, 29.824072749921218], [-96.44047515265115, -29.036367415190465], [134.32761299378757, -44.2710103618146], [-45.67238700621244, 44.2710103618146], [83.55952484734887, 29.036367415190465], [-168.87582062322193, -59.651162952574076], [-88.15741373006921, -29.7253441114768], [91.84258626993079, 29.7253441114768], [11.124179376778084, 59.651162952574076], [-170.80539783854545, -37.000822848392126], [-103.11274976642629, -71.90786883682078], [76.88725023357372, 71.90786883682078], [9.194602161454576, 37.000822848392126], [-88.23947587406842, -67.78856696264067], [-134.00460479654953, 21.114836731080562], [45.995395203450464, -21.114836731080562], [91.76052412593158, 67.78856696264067], [-90.73520281123893, -17.703349405672576], [-153.50643664386126, -8.490744484350188], [26.49356335613875, 8.490744484350188], [89.26479718876108, 17.703349405672576], [-163.25430981825372, -6.4827299852489375], [-83.77072363469959, -16.79080462282261], [96.22927636530041, 16.79080462282261], [16.745690181746287, 6.4827299852489375], [-99.95686299629595, -3.9806303519770796], [176.67630523840475, -26.778696341841897], [-3.3236947615952417, 26.778696341841897], [80.04313700370405, 3.9806303519770796], [-141.18692222535367, -35.33165111764316], [-100.6976394961941, 20.22640937558281], [79.30236050380591, -20.22640937558281], [38.813077774646345, 35.33165111764316], [-140.20166781159156, -2.2966147476649734], [-105.02286246017577, -27.111087987697797], [74.97713753982424, 27.111087987697797], [39.79833218840843, 2.2966147476649734], [3.8434765119568843, -41.157519649125284], [87.36117748744293, -52.557624359105404], [-92.63882251255707, 52.557624359105404], [-176.15652348804312, 41.157519649125284], [98.86881234640337, -44.07684225170903], [-4.363885239045205, -38.52386052242029], [175.6361147609548, 38.52386052242029], [-81.13118765359664, 44.07684225170903], [-32.0485988559278, -37.25949850207494], [75.64799369566923, -39.6605592586334], [-104.35200630433079, 39.6605592586334], [147.9514011440722, 37.25949850207494], [66.00998773634335, -73.38949036310902], [16.718189618523198, -16.49524595902173], [-163.2818103814768, 16.49524595902173], [-113.99001226365665, 73.38949036310902], [59.63294788721463, -52.46125291407771], [15.777211679728525, -50.57589884955916], [-164.22278832027146, 50.57589884955916], [-120.36705211278539, 52.46125291407771], [131.56773243659944, 8.655506477244082], [-30.07140199314907, -7.979211062244266], [149.92859800685093, 7.979211062244266], [-48.43226756340055, -8.655506477244082], [-54.85109644833285, 2.6309088996402115], [64.62743945806677, -19.211379774108927], [-115.37256054193323, 19.211379774108927], [125.14890355166717, -2.6309088996402115], [-54.62359086699464, -68.84439206068313], [-19.52320005447589, 27.383285627130583], [160.4767999455241, -27.383285627130583], [125.37640913300537, 68.84439206068313], [-36.832507071387674, 25.426272748986744], [-23.50200828793102, -18.08464583302392], [156.497991712069, 18.08464583302392], [143.16749292861235, -25.426272748986744], [-135.69687670039147, 23.545357486303146], [126.05348965963485, -1.0311794843591555], [-53.94651034036516, 1.0311794843591555], [44.30312329960854, -23.545357486303146], [155.16239921087725, -21.787220780446106], [128.2615113720149, 55.46107715107373], [-51.73848862798509, -55.46107715107373], [-24.837600789122742, 21.787220780446106], [151.64537469539772, 16.515325789695236], [138.05527113700109, -11.291992214534453], [-41.94472886299893, 11.291992214534453], [-28.35462530460229, -16.515325789695236], [-99.1487543331536, -28.697412199889904], [-54.903855419587, 33.25939183366322], [125.09614458041301, -33.25939183366322], [80.8512456668464, 28.697412199889904], [-93.7034799593315, 25.494583566159804], [-59.445441449701114, -3.775307193728338], [120.55455855029889, 3.775307193728338], [86.29652004066851, -25.494583566159804], [167.3913208723274, -27.562403523101136], [-153.64996137071844, -83.71816079672219], [26.350038629281567, 83.71816079672219], [-12.608679127672584, 27.562403523101136], [-128.12494185484846, -53.50264810251137], [-73.9688527156054, -40.2165818934141], [159.83387887028124, -72.09658685198886], [150.49057193342225, -56.28051371038883], [-65.5424487139611, -47.622796397767424], [-61.47891898803557, -24.310568958995518], [-103.65353753977071, -81.6483138097077], [-27.727876452295842, -51.79656892455477], [-148.4547505787843, -54.88329979320272], [-147.83010519890132, -26.50382799064752], [157.59910098843034, -38.77910430658641], [147.41787051946673, -46.96719422768059], [-112.72468232552252, -51.97603960582233], [-68.36196399072328, -35.11100044445508], [-177.23055146061162, -79.15408093353155], [172.3770356097518, -72.61808511595576], [-125.02933558479002, -16.341365696502177], [-122.99505449757831, 19.85509730078192], [-176.02956553000715, -13.042015859289014], [-157.91762785445673, 6.085918174042088], [-104.25883378696832, -10.769518897563547], [-77.55319166217461, 3.564056421014012], [-115.84073420891932, -42.42436367144264], [-110.86251916469091, 15.282717550140365], [-156.69989579713118, -2.4715117375362254], [-136.64720747484594, 13.72114414803255], [176.91749002807387, -15.97475966479518], [175.1939879752063, 14.284478553795386], [-115.61432411952248, -16.879092614323213], [-113.15927588177468, 17.3169176373493], [-167.2449670434343, -15.93436377613029], [-137.5755025107162, 3.2596258432819596], [15.948571379155398, -68.19488077815697], [17.84285837718619, -21.04802564558073], [99.6759784803302, -40.45660567789112], [60.6585223900324, -27.809859343979916], [-16.948374115710436, -48.21109483877939], [-14.90432926031914, -19.098508750765486], [33.059070932098116, -52.34968392372532], [32.49628359053674, -22.982294206300622], [134.06833355343645, -46.332830712553424], [54.12141093402632, -39.22730374253709], [108.40045810194522, -39.053434028099126], [104.5731887806224, -10.741868304309895], [-6.448221652093519, -62.471114041439314], [-1.9419713436542063, -19.8570019208553], [91.99613282866483, -46.850520843364386], [48.20446296524457, -30.50476524226288], [-164.3570223181586, 11.926379025711737], [-55.06355882947132, 53.307294992466765], [125.17063763282525, -18.56380283304753], [118.48919028581943, 36.12877157331416], [-53.145333461303366, -15.132915422989527], [-47.32553310205255, 33.93623033074493], [101.89210545655249, -28.138926383428753], [11.36274917723218, 18.509866744116987], [177.18862324889457, -2.333080800864453], [173.33031599850221, 50.40301054807843], [142.32400213790527, 1.5507793440360615], [125.22285651788829, 22.055816133684917], [-137.85869689314111, 9.05207237798261], [-52.485686764593304, 37.312488102346485], [122.48530363569277, -28.360721499653884], [113.00694638022223, 43.90752628467854], [-66.99305361977777, -43.90752628467854], [-57.51469636430724, 28.360721499653884], [127.5143132354067, -37.312488102346485], [42.1413031068589, -9.05207237798261], [-54.77714348211171, -22.055816133684917], [-37.67599786209474, -1.5507793440360615], [-6.669684001497775, -50.40301054807843], [-2.811376751105426, 2.333080800864453], [-168.63725082276784, -18.509866744116987], [-78.10789454344751, 28.138926383428753], [132.67446689794744, -33.93623033074493], [126.85466653869663, 15.132915422989527], [-61.51080971418056, -36.12877157331416], [-54.82936236717477, 18.56380283304753], [124.93644117052868, -53.307294992466765], [15.642977681841403, -11.926379025711737], [-131.79553703475543, 30.50476524226288], [-88.00386717133519, 46.850520843364386], [178.0580286563458, 19.8570019208553], [173.55177834790646, 62.471114041439314], [-75.4268112193776, 10.741868304309895], [-71.59954189805478, 39.053434028099126], [-125.87858906597369, 39.22730374253709], [-45.931666446563575, 46.332830712553424], [-147.50371640946327, 22.982294206300622], [-146.9409290679019, 52.34968392372532], [165.09567073968088, 19.098508750765486], [163.05162588428956, 48.21109483877939], [-119.34147760996761, 27.809859343979916], [-80.3240215196698, 40.45660567789112], [-162.1571416228138, 21.04802564558073], [-164.0514286208446, 68.19488077815697], [42.42449748928378, -3.2596258432819596], [12.755032956565708, 15.93436377613029], [66.84072411822531, -17.3169176373493], [64.38567588047752, 16.879092614323213], [-4.8060120247937, -14.284478553795386], [-3.082509971926133, 15.97475966479518], [43.352792525154065, -13.72114414803255], [23.300104202868805, 2.4715117375362254], [69.13748083530909, -15.282717550140365], [64.1592657910807, 42.42436367144264], [102.4468083378254, -3.564056421014012], [75.74116621303168, 10.769518897563547], [22.082372145543275, -6.085918174042088], [3.970434469992846, 13.042015859289014], [57.00494550242169, -19.85509730078192], [54.97066441520999, 16.341365696502177], [-7.622964390248219, 72.61808511595576], [2.7694485393883848, 79.15408093353155], [111.63803600927672, 35.11100044445508], [67.27531767447748, 51.97603960582233], [-32.58212948053327, 46.96719422768059], [-22.40089901156966, 38.77910430658641], [32.16989480109868, 26.50382799064752], [31.54524942121568, 54.88329979320272], [152.27212354770415, 51.79656892455477], [76.34646246022929, 81.6483138097077], [118.52108101196444, 24.310568958995518], [114.4575512860389, 47.622796397767424], [-29.50942806657776, 56.28051371038883], [-20.16612112971877, 72.09658685198886], [106.0311472843946, 40.2165818934141], [51.87505814515155, 53.50264810251137]]}}, {"type": "Feature", "properties": {"kind": "grid_edges", "shape": "E8_proj_seed788", "count": 309, "ids": ["E1", "E2", "E3", "E4", "E5", "E6", "E7", "E8", "E9", "E10", "E11", "E12", "E13", "E14", "E15", "E16", "E17", "E18", "E19", "E20", "E21", "E22", "E23", "E24", "E25", "E26", "E27", "E28", "E29", "E30", "E31", "E32", "E33", "E34", "E35", "E36", "E37", "E38", "E39", "E40", "E41", "E42", "E43", "E44", "E45", "E46", "E47", "E48", "E49", "E50", "E51", "E52", "E53", "E54", "E55", "E56", "E57", "E58", "E59", "E60", "E61", "E62", "E63", "E64", "E65", "E66", "E67", "E68", "E69", "E70", "E71", "E72", "E73", "E74", "E75", "E76", "E77", "E78", "E79", "E80", "E81", "E82", "E83", "E84", "E85", "E86", "E87", "E88", "E89", "E90", "E91", "E92", "E93", "E94", "E95", "E96", "E97", "E98", "E99", "E100", "E101", "E102", "E103", "E104", "E105", "E106", "E107", "E108", "E109", "E110", "E111", "E112", "E113", "E114", "E115", "E116", "E117", "E118", "E119", "E120", "E121", "E122", "E123", "E124", "E125", "E126", "E127", "E128", "E129", "E130", "E131", "E132", "E133", "E134", "E135", "E136", "E137", "E138", "E139", "E140", "E141", "E142", "E143", "E144", "E145", "E146", "E147", "E148", "E149", "E150", "E151", "E152", "E153", "E154", "E155", "E156", "E157", "E158", "E159", "E160", "E161", "E162", "E163", "E164", "E165", "E166", "E167", "E168", "E169", "E170", "E171", "E172", "E173", "E174", "E175", "E176", "E177", "E178", "E179", "E180", "E181", "E182", "E183", "E184", "E185", "E186", "E187", "E188", "E189", "E190", "E191", "E192", "E193", "E194", "E195", "E196", "E197", "E198", "E199", "E200", "E201", "E202", "E203", "E204", "E205", "E206", "E207", "E208", "E209", "E210", "E211", "E212", "E213", "E214", "E215", "E216", "E217", "E218", "E219", "E220", "E221", "E222", "E223", "E224", "E225", "E226", "E227", "E228", "E229", "E230", "E231", "E232", "E233", "E234", "E235", "E236", "E237", "E238", "E239", "E240", "E241", "E242", "E243", "E244", "E245", "E246", "E247", "E248", "E249", "E250", "E251", "E252", "E253", "E254", "E255", "E256", "E257", "E258", "E259", "E260", "E261", "E262", "E263", "E264", "E265", "E266", "E267", "E268", "E269", "E270", "E271", "E272", "E273", "E274", "E275", "E276", "E277", "E278", "E279", "E280", "E281", "E282", "E283", "E284", "E285", "E286", "E287", "E288", "E289", "E290", "E291", "E292", "E293", "E294", "E295", "E296", "E297", "E298", "E299", "E300", "E301", "E302", "E303", "E304", "E305", "E306", "E307", "E308", "E309"], "pairs": [[1, 25], [1, 161], [2, 10], [2, 178], [2, 179], [2, 186], [2, 188], [2, 203], [3, 11], [3, 23], [3, 221], [3, 231], [3, 234], [3, 235], [3, 236], [4, 9], [4, 123], [4, 126], [5, 59], [5, 138], [6, 18], [6, 27], [7, 19], [8, 34], [8, 151], [9, 55], [10, 176], [10, 180], [10, 228], [11, 79], [11, 83], [11, 87], [11, 188], [11, 238], [12, 93], [12, 139], [12, 145], [13, 132], [13, 158], [14, 27], [14, 186], [14, 192], [14, 227], [14, 234], [15, 191], [15, 198], [15, 238], [16, 173], [17, 171], [19, 43], [19, 178], [19, 182], [19, 186], [20, 162], [21, 81], [22, 27], [22, 108], [22, 186], [23, 81], [23, 83], [23, 101], [23, 103], [23, 110], [23, 217], [24, 50], [25, 111], [26, 50], [26, 108], [26, 201], [26, 232], [27, 69], [27, 200], [29, 59], [29, 197], [29, 199], [30, 57], [31, 166], [31, 230], [32, 44], [32, 84], [33, 55], [33, 79], [33, 83], [33, 190], [33, 207], [34, 76], [35, 83], [36, 115], [37, 197], [39, 47], [39, 151], [40, 112], [40, 125], [40, 205], [42, 60], [42, 62], [42, 88], [42, 105], [42, 153], [44, 66], [44, 182], [45, 65], [45, 179], [46, 232], [47, 110], [47, 149], [47, 157], [47, 163], [47, 229], [48, 112], [48, 115], [50, 104], [50, 110], [50, 172], [51, 69], [52, 179], [52, 209], [52, 211], [52, 214], [54, 84], [54, 225], [55, 62], [57, 223], [58, 62], [59, 73], [59, 98], [59, 166], [59, 197], [59, 207], [60, 213], [61, 118], [62, 101], [62, 105], [62, 169], [62, 200], [63, 77], [63, 91], [63, 143], [63, 227], [64, 92], [64, 158], [64, 218], [65, 151], [65, 221], [66, 170], [68, 178], [69, 176], [69, 222], [70, 226], [72, 80], [72, 85], [72, 177], [72, 179], [72, 224], [72, 225], [73, 117], [73, 213], [75, 87], [75, 126], [75, 142], [75, 190], [76, 88], [76, 144], [76, 145], [76, 208], [77, 81], [78, 101], [78, 125], [78, 233], [79, 127], [79, 159], [79, 239], [80, 102], [80, 162], [80, 192], [80, 196], [80, 224], [82, 204], [83, 123], [83, 173], [83, 187], [83, 223], [83, 239], [84, 112], [84, 115], [86, 155], [86, 157], [86, 223], [87, 126], [87, 171], [87, 239], [89, 114], [89, 186], [90, 204], [91, 98], [91, 127], [91, 143], [91, 215], [92, 210], [94, 212], [95, 237], [96, 155], [97, 111], [97, 219], [98, 106], [98, 127], [98, 166], [99, 133], [99, 206], [101, 209], [102, 198], [103, 167], [104, 160], [104, 189], [105, 196], [106, 158], [106, 214], [107, 203], [108, 218], [109, 162], [109, 164], [109, 168], [109, 216], [110, 141], [110, 197], [111, 125], [111, 137], [111, 149], [113, 128], [113, 161], [113, 209], [114, 119], [114, 154], [115, 117], [115, 177], [116, 196], [119, 134], [120, 176], [121, 177], [122, 139], [122, 152], [124, 189], [127, 187], [128, 130], [130, 146], [132, 134], [132, 165], [134, 194], [135, 165], [137, 171], [137, 185], [137, 193], [138, 174], [145, 163], [145, 225], [149, 213], [150, 174], [150, 215], [151, 167], [153, 173], [153, 185], [157, 159], [157, 217], [158, 238], [159, 175], [163, 167], [163, 211], [163, 231], [166, 230], [166, 231], [167, 175], [169, 217], [172, 237], [173, 229], [176, 196], [177, 193], [177, 211], [178, 202], [179, 187], [179, 193], [179, 194], [179, 209], [181, 182], [181, 215], [183, 187], [183, 197], [185, 186], [185, 219], [187, 217], [188, 190], [189, 201], [190, 191], [191, 206], [192, 208], [193, 197], [194, 230], [197, 204], [202, 218], [204, 207], [208, 224], [211, 226], [215, 239], [216, 224], [219, 234], [220, 228], [224, 226], [224, 230], [227, 230], [231, 238]], "support_counts": [1, 2, 1, 1, 1, 1, 1, 1, 1, 1, 2, 1, 1, 2, 1, 1, 1, 1, 1, 1, 1, 1, 1, 1, 1, 1, 1, 1, 1, 2, 1, 1, 1, 1, 1, 1, 1, 1, 1, 1, 1, 1, 1, 1, 1, 1, 2, 1, 1, 1, 1, 1, 1, 1, 1, 1, 1, 1, 1, 1, 1, 1, 1, 1, 1, 1, 1, 1, 1, 1, 2, 1, 1, 1, 2, 1, 1, 1, 1, 1, 1, 1, 1, 1, 1, 1, 1, 1, 1, 1, 1, 1, 1, 1, 1, 1, 1, 1, 1, 1, 1, 1, 1, 1, 1, 1, 1, 1, 1, 1, 1, 1, 1, 1, 1, 1, 1, 1, 1, 1, 1, 1, 1, 1, 1, 1, 1, 1, 1, 1, 1, 1, 1, 1, 1, 1, 1, 1, 1, 1, 1, 1, 1, 1, 1, 1, 1, 1, 1, 1, 2, 1, 1, 1, 1, 1, 1, 2, 1, 1, 1, 1, 1, 1, 1, 1, 1, 1, 1, 1, 1, 1, 1, 1, 1, 1, 1, 1, 1, 1, 1, 1, 1, 1, 1, 1, 1, 1, 1, 1, 2, 1, 1, 1, 1, 1, 1, 1, 1, 1, 1, 1, 1, 1, 1, 1, 1, 1, 1, 1, 1, 1, 1, 1, 1, 1, 1, 1, 1, 1, 2, 1, 1, 1, 1, 1, 1, 1, 1, 1, 1, 1, 1, 1, 1, 1, 1, 1, 1, 1, 1, 1, 1, 1, 1, 1, 1, 1, 1, 1, 1, 1, 1, 1, 1, 1, 1, 1, 2, 1, 1, 1, 1, 1, 1, 1, 1, 1, 1, 1, 1, 1, 1, 1, 1, 1, 1, 1, 1, 1, 1, 1, 1, 1, 1, 1, 1, 1, 1, 1, 1, 1, 1, 1, 1, 1, 1, 1, 1, 1, 1, 1, 1, 1, 1, 1, 1, 1, 1], "support_class": ["single", "shared", "single", "single", "single", "single", "single", "single", "single", "single", "shared", "single", "single", "shared", "single", "single", "single", "single", "single", "single", "single", "single", "single", "single", "single", "single", "single", "single", "single", "shared", "single", "single", "single", "single", "single", "single", "single", "single", "single", "single", "single", "single", "single", "single", "single", "single", "shared", "single", "single", "single", "single", "single", "single", "single", "single", "single", "single", "single", "single", "single", "single", "single", "single", "single", "single", "single", "single", "single", "single", "single", "shared", "single", "single", "single", "shared", "single", "single", "single", "single", "single", "single", "single", "single", "single", "single", "single", "single", "single", "single", "single", "single", "single", "single", "single", "single", "single", "single", "single", "single", "single", "single", "single", "single", "single", "single", "single", "single", "single", "single", "single", "single", "single", "single", "single", "single", "single", "single", "single", "single", "single", "single", "single", "single", "single", "single", "single", "single", "single", "single", "single", "single", "single", "single", "single", "single", "single", "single", "single", "single", "single", "single", "single", "single", "single", "single", "single", "single", "single", "single", "single", "shared", "single", "single", "single", "single", "single", "single", "shared", "single", "single", "single", "single", "single", "single", "single", "single", "single", "single", "single", "single", "single", "single", "single", "single", "single", "single", "single", "single", "single", "single", "single", "single", "single", "single", "single", "single", "single", "single", "single", "single", "shared", "single", "single", "single", "single", "single", "single", "single", "single", "single", "single", "single", "single", "single", "single", "single", "single", "single", "single", "single", "single", "single", "single", "single", "single", "single", "single", "single", "single", "single", "shared", "single", "single", "single", "single", "single", "single", "single", "single", "single", "single", "single", "single", "single", "single", "single", "single", "single", "single", "single", "single", "single", "single", "single", "single", "single", "single", "single", "single", "single", "single", "single", "single", "single", "single", "single", "single", "single", "shared", "single", "single", "single", "single", "single", "single", "single", "single", "single", "single", "single", "single", "single", "single", "single", "single", "single", "single", "single", "single", "single", "single", "single", "single", "single", "single", "single", "single", "single", "single", "single", "single", "single", "single", "single", "single", "single", "single", "single", "single", "single", "single", "single", "single", "single", "single", "single", "single", "single", "single"]}, "geometry": {"type": "MultiLineString", "coordinates": [[[74.02332012441069, -37.28003303709119], [-103.11274976642629, -71.90786883682078]], [[74.02332012441069, -37.28003303709119], [-55.06355882947132, 53.307294992466765]], [[-105.97667987558931, 37.28003303709119], [-3.845193457523828, 35.72182613907211]], [[-105.97667987558931, 37.28003303709119], [127.5143132354067, -37.312488102346485]], [[-105.97667987558931, 37.28003303709119], [42.1413031068589, -9.05207237798261]], [[-105.97667987558931, 37.28003303709119], [132.67446689794744, -33.93623033074493]], [[-105.97667987558931, 37.28003303709119], [-61.51080971418056, -36.12877157331416]], [[-105.97667987558931, 37.28003303709119], [163.05162588428956, 48.21109483877939]], [[47.67806668216738, 36.06600994256981], [108.4027627100188, 58.548829345549336]], [[47.67806668216738, 36.06600994256981], [11.124179376778084, 59.651162952574076]], [[47.67806668216738, 36.06600994256981], [3.970434469992846, 13.042015859289014]], [[47.67806668216738, 36.06600994256981], [31.54524942121568, 54.88329979320272]], [[47.67806668216738, 36.06600994256981], [118.52108101196444, 24.310568958995518]], [[47.67806668216738, 36.06600994256981], [114.4575512860389, 47.622796397767424]], [[47.67806668216738, 36.06600994256981], [-29.50942806657776, 56.28051371038883]], [[35.90207171955679, -81.90487553054952], [176.15480654247617, -35.72182613907211]], [[35.90207171955679, -81.90487553054952], [147.41787051946673, -46.96719422768059]], [[35.90207171955679, -81.90487553054952], [-177.23055146061162, -79.15408093353155]], [[-149.67017032465398, 7.421671999034127], [-81.13118765359664, 44.07684225170903]], [[-149.67017032465398, 7.421671999034127], [176.91749002807387, -15.97475966479518]], [[30.32982967534603, -7.421671999034127], [-45.67238700621244, 44.2710103618146]], [[30.32982967534603, -7.421671999034127], [9.194602161454576, 37.000822848392126]], [[-144.09792828044323, 81.90487553054952], [83.55952484734887, 29.036367415190465]], [[-71.59723728998121, -58.548829345549336], [26.49356335613875, 8.490744484350188]], [[-71.59723728998121, -58.548829345549336], [32.49628359053674, -22.982294206300622]], [[176.15480654247617, -35.72182613907211], [-176.15652348804312, 41.157519649125284]], [[-3.845193457523828, 35.72182613907211], [-66.99305361977777, -43.90752628467854]], [[-3.845193457523828, 35.72182613907211], [-54.77714348211171, -22.055816133684917]], [[-3.845193457523828, 35.72182613907211], [-32.58212948053327, 46.96719422768059]], [[108.4027627100188, 58.548829345549336], [125.14890355166717, -2.6309088996402115]], [[108.4027627100188, 58.548829345549336], [125.37640913300537, 68.84439206068313]], [[108.4027627100188, 58.548829345549336], [143.16749292861235, -25.426272748986744]], [[108.4027627100188, 58.548829345549336], [-61.51080971418056, -36.12877157331416]], [[108.4027627100188, 58.548829345549336], [106.0311472843946, 40.2165818934141]], [[167.75957465884707, -29.824072749921218], [128.2615113720149, 55.46107715107373]], [[167.75957465884707, -29.824072749921218], [175.1939879752063, 14.284478553795386]], [[167.75957465884707, -29.824072749921218], [17.84285837718619, -21.04802564558073]], [[-64.45682788160764, -50.08678367610254], [-104.25883378696832, -10.769518897563547]], [[-64.45682788160764, -50.08678367610254], [91.99613282866483, -46.850520843364386]], [[115.54317211839236, 50.08678367610254], [9.194602161454576, 37.000822848392126]], [[115.54317211839236, 50.08678367610254], [132.67446689794744, -33.93623033074493]], [[115.54317211839236, 50.08678367610254], [-131.79553703475543, 30.50476524226288]], [[115.54317211839236, 50.08678367610254], [67.27531767447748, 51.97603960582233]], [[115.54317211839236, 50.08678367610254], [118.52108101196444, 24.310568958995518]], [[-12.240425341152916, 29.824072749921218], [15.642977681841403, -11.926379025711737]], [[-12.240425341152916, 29.824072749921218], [-125.87858906597369, 39.22730374253709]], [[-12.240425341152916, 29.824072749921218], [106.0311472843946, 40.2165818934141]], [[-96.44047515265115, -29.036367415190465], [-52.485686764593304, 37.312488102346485]], [[134.32761299378757, -44.2710103618146], [125.22285651788829, 22.055816133684917]], [[83.55952484734887, 29.036367415190465], [80.04313700370405, 3.9806303519770796]], [[83.55952484734887, 29.036367415190465], [127.5143132354067, -37.312488102346485]], [[83.55952484734887, 29.036367415190465], [-6.669684001497775, -50.40301054807843]], [[83.55952484734887, 29.036367415190465], [132.67446689794744, -33.93623033074493]], [[-168.87582062322193, -59.651162952574076], [125.17063763282525, -18.56380283304753]], [[-88.15741373006921, -29.7253441114768], [-19.52320005447589, 27.383285627130583]], [[91.84258626993079, 29.7253441114768], [9.194602161454576, 37.000822848392126]], [[91.84258626993079, 29.7253441114768], [167.3913208723274, -27.562403523101136]], [[91.84258626993079, 29.7253441114768], [132.67446689794744, -33.93623033074493]], [[11.124179376778084, 59.651162952574076], [-19.52320005447589, 27.383285627130583]], [[11.124179376778084, 59.651162952574076], [125.37640913300537, 68.84439206068313]], [[11.124179376778084, 59.651162952574076], [-54.903855419587, 33.25939183366322]], [[11.124179376778084, 59.651162952574076], [80.8512456668464, 28.697412199889904]], [[11.124179376778084, 59.651162952574076], [26.350038629281567, 83.71816079672219]], [[11.124179376778084, 59.651162952574076], [64.1592657910807, 42.42436367144264]], [[-170.80539783854545, -37.000822848392126], [74.97713753982424, 27.111087987697797]], [[-103.11274976642629, -71.90786883682078], [-12.608679127672584, 27.562403523101136]], [[76.88725023357372, 71.90786883682078], [74.97713753982424, 27.111087987697797]], [[76.88725023357372, 71.90786883682078], [167.3913208723274, -27.562403523101136]], [[76.88725023357372, 71.90786883682078], [-146.9409290679019, 52.34968392372532]], [[76.88725023357372, 71.90786883682078], [152.27212354770415, 51.79656892455477]], [[9.194602161454576, 37.000822848392126], [15.777211679728525, -50.57589884955916]], [[9.194602161454576, 37.000822848392126], [-147.50371640946327, 22.982294206300622]], [[-134.00460479654953, 21.114836731080562], [-81.13118765359664, 44.07684225170903]], [[-134.00460479654953, 21.114836731080562], [-71.59954189805478, 39.053434028099126]], [[-134.00460479654953, 21.114836731080562], [-45.931666446563575, 46.332830712553424]], [[45.995395203450464, -21.114836731080562], [-4.363885239045205, -38.52386052242029]], [[91.76052412593158, 67.78856696264067], [101.89210545655249, -28.138926383428753]], [[91.76052412593158, 67.78856696264067], [32.16989480109868, 26.50382799064752]], [[-90.73520281123893, -17.703349405672576], [-141.18692222535367, -35.33165111764316]], [[-90.73520281123893, -17.703349405672576], [-36.832507071387674, 25.426272748986744]], [[-153.50643664386126, -8.490744484350188], [-176.15652348804312, 41.157519649125284]], [[-153.50643664386126, -8.490744484350188], [125.14890355166717, -2.6309088996402115]], [[-153.50643664386126, -8.490744484350188], [125.37640913300537, 68.84439206068313]], [[-153.50643664386126, -8.490744484350188], [124.93644117052868, -53.307294992466765]], [[-153.50643664386126, -8.490744484350188], [-164.0514286208446, 68.19488077815697]], [[26.49356335613875, 8.490744484350188], [-54.85109644833285, 2.6309088996402115]], [[89.26479718876108, 17.703349405672576], [125.37640913300537, 68.84439206068313]], [[-163.25430981825372, -6.4827299852489375], [150.49057193342225, -56.28051371038883]], [[-83.77072363469959, -16.79080462282261], [-71.59954189805478, 39.053434028099126]], [[16.745690181746287, 6.4827299852489375], [38.813077774646345, 35.33165111764316]], [[16.745690181746287, 6.4827299852489375], [32.49628359053674, -22.982294206300622]], [[-99.95686299629595, -3.9806303519770796], [-128.12494185484846, -53.50264810251137]], [[-99.95686299629595, -3.9806303519770796], [-68.36196399072328, -35.11100044445508]], [[-99.95686299629595, -3.9806303519770796], [-80.3240215196698, 40.45660567789112]], [[-3.3236947615952417, 26.778696341841897], [-32.0485988559278, -37.25949850207494]], [[-3.3236947615952417, 26.778696341841897], [-104.35200630433079, 39.6605592586334]], [[-3.3236947615952417, 26.778696341841897], [-135.69687670039147, 23.545357486303146]], [[-3.3236947615952417, 26.778696341841897], [-59.445441449701114, -3.775307193728338]], [[-3.3236947615952417, 26.778696341841897], [54.12141093402632, -39.22730374253709]], [[-141.18692222535367, -35.33165111764316], [-163.2818103814768, 16.49524595902173]], [[-141.18692222535367, -35.33165111764316], [-6.669684001497775, -50.40301054807843]], [[-100.6976394961941, 20.22640937558281], [16.718189618523198, -16.49524595902173]], [[-100.6976394961941, 20.22640937558281], [42.1413031068589, -9.05207237798261]], [[79.30236050380591, -20.22640937558281], [152.27212354770415, 51.79656892455477]], [[38.813077774646345, 35.33165111764316], [26.350038629281567, 83.71816079672219]], [[38.813077774646345, 35.33165111764316], [-14.90432926031914, -19.098508750765486]], [[38.813077774646345, 35.33165111764316], [-1.9419713436542063, -19.8570019208553]], [[38.813077774646345, 35.33165111764316], [118.48919028581943, 36.12877157331416]], [[38.813077774646345, 35.33165111764316], [-22.40089901156966, 38.77910430658641]], [[-140.20166781159156, -2.2966147476649734], [-128.12494185484846, -53.50264810251137]], [[-140.20166781159156, -2.2966147476649734], [150.49057193342225, -56.28051371038883]], [[74.97713753982424, 27.111087987697797], [-93.7034799593315, 25.494583566159804]], [[74.97713753982424, 27.111087987697797], [26.350038629281567, 83.71816079672219]], [[74.97713753982424, 27.111087987697797], [-137.85869689314111, 9.05207237798261]], [[39.79833218840843, 2.2966147476649734], [15.777211679728525, -50.57589884955916]], [[3.8434765119568843, -41.157519649125284], [42.1413031068589, -9.05207237798261]], [[3.8434765119568843, -41.157519649125284], [12.755032956565708, 15.93436377613029]], [[3.8434765119568843, -41.157519649125284], [64.38567588047752, 16.879092614323213]], [[3.8434765119568843, -41.157519649125284], [43.352792525154065, -13.72114414803255]], [[-92.63882251255707, 52.557624359105404], [-36.832507071387674, 25.426272748986744]], [[-92.63882251255707, 52.557624359105404], [2.7694485393883848, 79.15408093353155]], [[-176.15652348804312, 41.157519649125284], [-104.35200630433079, 39.6605592586334]], [[-4.363885239045205, -38.52386052242029], [54.97066441520999, 16.341365696502177]], [[175.6361147609548, 38.52386052242029], [-104.35200630433079, 39.6605592586334]], [[-81.13118765359664, 44.07684225170903], [-30.07140199314907, -7.979211062244266]], [[-81.13118765359664, 44.07684225170903], [-41.94472886299893, 11.291992214534453]], [[-81.13118765359664, 44.07684225170903], [101.89210545655249, -28.138926383428753]], [[-81.13118765359664, 44.07684225170903], [-71.59954189805478, 39.053434028099126]], [[-81.13118765359664, 44.07684225170903], [-164.0514286208446, 68.19488077815697]], [[-32.0485988559278, -37.25949850207494], [-3.082509971926133, 15.97475966479518]], [[75.64799369566923, -39.6605592586334], [-103.65353753977071, -81.6483138097077]], [[-104.35200630433079, 39.6605592586334], [-54.903855419587, 33.25939183366322]], [[-104.35200630433079, 39.6605592586334], [-59.445441449701114, -3.775307193728338]], [[-104.35200630433079, 39.6605592586334], [173.33031599850221, 50.40301054807843]], [[-104.35200630433079, 39.6605592586334], [-147.50371640946327, 22.982294206300622]], [[147.9514011440722, 37.25949850207494], [64.62743945806677, -19.211379774108927]], [[147.9514011440722, 37.25949850207494], [44.30312329960854, -23.545357486303146]], [[147.9514011440722, 37.25949850207494], [-137.5755025107162, 3.2596258432819596]], [[147.9514011440722, 37.25949850207494], [67.27531767447748, 51.97603960582233]], [[66.00998773634335, -73.38949036310902], [155.16239921087725, -21.787220780446106]], [[66.00998773634335, -73.38949036310902], [91.99613282866483, -46.850520843364386]], [[66.00998773634335, -73.38949036310902], [102.4468083378254, -3.564056421014012]], [[16.718189618523198, -16.49524595902173], [32.49628359053674, -22.982294206300622]], [[16.718189618523198, -16.49524595902173], [3.970434469992846, 13.042015859289014]], [[-163.2818103814768, 16.49524595902173], [142.32400213790527, 1.5507793440360615]], [[59.63294788721463, -52.46125291407771], [127.5143132354067, -37.312488102346485]], [[15.777211679728525, -50.57589884955916], [-66.99305361977777, -43.90752628467854]], [[15.777211679728525, -50.57589884955916], [57.00494550242169, -19.85509730078192]], [[-164.22278832027146, 50.57589884955916], [111.63803600927672, 35.11100044445508]], [[131.56773243659944, 8.655506477244082], [-54.62359086699464, -68.84439206068313]], [[131.56773243659944, 8.655506477244082], [-23.50200828793102, -18.08464583302392]], [[131.56773243659944, 8.655506477244082], [-57.51469636430724, 28.360721499653884]], [[131.56773243659944, 8.655506477244082], [42.1413031068589, -9.05207237798261]], [[131.56773243659944, 8.655506477244082], [-7.622964390248219, 72.61808511595576]], [[131.56773243659944, 8.655506477244082], [2.7694485393883848, 79.15408093353155]], [[-30.07140199314907, -7.979211062244266], [-61.47891898803557, -24.310568958995518]], [[-30.07140199314907, -7.979211062244266], [-3.082509971926133, 15.97475966479518]], [[-48.43226756340055, -8.655506477244082], [143.16749292861235, -25.426272748986744]], [[-48.43226756340055, -8.655506477244082], [-177.23055146061162, -79.15408093353155]], [[-48.43226756340055, -8.655506477244082], [-167.2449670434343, -15.93436377613029]], [[-48.43226756340055, -8.655506477244082], [124.93644117052868, -53.307294992466765]], [[-54.85109644833285, 2.6309088996402115], [-135.69687670039147, 23.545357486303146]], [[-54.85109644833285, 2.6309088996402115], [15.948571379155398, -68.19488077815697]], [[-54.85109644833285, 2.6309088996402115], [17.84285837718619, -21.04802564558073]], [[-54.85109644833285, 2.6309088996402115], [42.42449748928378, -3.2596258432819596]], [[64.62743945806677, -19.211379774108927], [-19.52320005447589, 27.383285627130583]], [[-115.37256054193323, 19.211379774108927], [-54.903855419587, 33.25939183366322]], [[-115.37256054193323, 19.211379774108927], [-68.36196399072328, -35.11100044445508]], [[-115.37256054193323, 19.211379774108927], [76.34646246022929, 81.6483138097077]], [[125.14890355166717, -2.6309088996402115], [172.3770356097518, -72.61808511595576]], [[125.14890355166717, -2.6309088996402115], [48.20446296524457, -30.50476524226288]], [[125.14890355166717, -2.6309088996402115], [51.87505814515155, 53.50264810251137]], [[-54.62359086699464, -68.84439206068313], [125.09614458041301, -33.25939183366322]], [[-54.62359086699464, -68.84439206068313], [125.17063763282525, -18.56380283304753]], [[-54.62359086699464, -68.84439206068313], [-131.79553703475543, 30.50476524226288]], [[-54.62359086699464, -68.84439206068313], [-75.4268112193776, 10.741868304309895]], [[-54.62359086699464, -68.84439206068313], [-7.622964390248219, 72.61808511595576]], [[160.4767999455241, -27.383285627130583], [-119.34147760996761, 27.809859343979916]], [[125.37640913300537, 68.84439206068313], [147.41787051946673, -46.96719422768059]], [[125.37640913300537, 68.84439206068313], [-52.485686764593304, 37.312488102346485]], [[125.37640913300537, 68.84439206068313], [126.85466653869663, 15.132915422989527]], [[125.37640913300537, 68.84439206068313], [54.97066441520999, 16.341365696502177]], [[125.37640913300537, 68.84439206068313], [51.87505814515155, 53.50264810251137]], [[-36.832507071387674, 25.426272748986744], [-128.12494185484846, -53.50264810251137]], [[-36.832507071387674, 25.426272748986744], [150.49057193342225, -56.28051371038883]], [[156.497991712069, 18.08464583302392], [104.5731887806224, -10.741868304309895]], [[156.497991712069, 18.08464583302392], [-1.9419713436542063, -19.8570019208553]], [[156.497991712069, 18.08464583302392], [54.97066441520999, 16.341365696502177]], [[143.16749292861235, -25.426272748986744], [-177.23055146061162, -79.15408093353155]], [[143.16749292861235, -25.426272748986744], [125.22285651788829, 22.055816133684917]], [[143.16749292861235, -25.426272748986744], [51.87505814515155, 53.50264810251137]], [[126.05348965963485, -1.0311794843591555], [159.83387887028124, -72.09658685198886]], [[126.05348965963485, -1.0311794843591555], [132.67446689794744, -33.93623033074493]], [[-53.94651034036516, 1.0311794843591555], [-119.34147760996761, 27.809859343979916]], [[44.30312329960854, -23.545357486303146], [-41.94472886299893, 11.291992214534453]], [[44.30312329960854, -23.545357486303146], [172.3770356097518, -72.61808511595576]], [[44.30312329960854, -23.545357486303146], [-137.5755025107162, 3.2596258432819596]], [[44.30312329960854, -23.545357486303146], [23.300104202868805, 2.4715117375362254]], [[155.16239921087725, -21.787220780446106], [66.84072411822531, -17.3169176373493]], [[-51.73848862798509, -55.46107715107373], [-4.8060120247937, -14.284478553795386]], [[-24.837600789122742, 21.787220780446106], [-20.16612112971877, 72.09658685198886]], [[151.64537469539772, 16.515325789695236], [104.5731887806224, -10.741868304309895]], [[138.05527113700109, -11.291992214534453], [-12.608679127672584, 27.562403523101136]], [[138.05527113700109, -11.291992214534453], [75.74116621303168, 10.769518897563547]], [[-41.94472886299893, 11.291992214534453], [120.55455855029889, 3.775307193728338]], [[-41.94472886299893, 11.291992214534453], [172.3770356097518, -72.61808511595576]], [[-41.94472886299893, 11.291992214534453], [101.89210545655249, -28.138926383428753]], [[-28.35462530460229, -16.515325789695236], [-77.55319166217461, 3.564056421014012]], [[-28.35462530460229, -16.515325789695236], [-162.1571416228138, 21.04802564558073]], [[-54.903855419587, 33.25939183366322], [12.755032956565708, 15.93436377613029]], [[125.09614458041301, -33.25939183366322], [-125.87858906597369, 39.22730374253709]], [[80.8512456668464, 28.697412199889904], [11.36274917723218, 18.509866744116987]], [[-93.7034799593315, 25.494583566159804], [-164.3570223181586, 11.926379025711737]], [[-93.7034799593315, 25.494583566159804], [-54.82936236717477, 18.56380283304753]], [[-59.445441449701114, -3.775307193728338], [-75.4268112193776, 10.741868304309895]], [[120.55455855029889, 3.775307193728338], [91.99613282866483, -46.850520843364386]], [[120.55455855029889, 3.775307193728338], [43.352792525154065, -13.72114414803255]], [[86.29652004066851, -25.494583566159804], [163.05162588428956, 48.21109483877939]], [[167.3913208723274, -27.562403523101136], [102.4468083378254, -3.564056421014012]], [[-153.64996137071844, -83.71816079672219], [125.17063763282525, -18.56380283304753]], [[-153.64996137071844, -83.71816079672219], [-53.145333461303366, -15.132915422989527]], [[-153.64996137071844, -83.71816079672219], [177.18862324889457, -2.333080800864453]], [[-153.64996137071844, -83.71816079672219], [69.13748083530909, -15.282717550140365]], [[26.350038629281567, 83.71816079672219], [-113.15927588177468, 17.3169176373493]], [[26.350038629281567, 83.71816079672219], [-71.59954189805478, 39.053434028099126]], [[-12.608679127672584, 27.562403523101136], [-68.36196399072328, -35.11100044445508]], [[-12.608679127672584, 27.562403523101136], [-136.64720747484594, 13.72114414803255]], [[-12.608679127672584, 27.562403523101136], [-14.90432926031914, -19.098508750765486]], [[-73.9688527156054, -40.2165818934141], [-125.02933558479002, -16.341365696502177]], [[-73.9688527156054, -40.2165818934141], [-55.06355882947132, 53.307294992466765]], [[-73.9688527156054, -40.2165818934141], [12.755032956565708, 15.93436377613029]], [[159.83387887028124, -72.09658685198886], [-27.727876452295842, -51.79656892455477]], [[159.83387887028124, -72.09658685198886], [108.40045810194522, -39.053434028099126]], [[150.49057193342225, -56.28051371038883], [-61.47891898803557, -24.310568958995518]], [[150.49057193342225, -56.28051371038883], [-57.51469636430724, 28.360721499653884]], [[-65.5424487139611, -47.622796397767424], [-75.4268112193776, 10.741868304309895]], [[-27.727876452295842, -51.79656892455477], [-115.84073420891932, -42.42436367144264]], [[-148.4547505787843, -54.88329979320272], [-66.99305361977777, -43.90752628467854]], [[-147.83010519890132, -26.50382799064752], [-57.51469636430724, 28.360721499653884]], [[157.59910098843034, -38.77910430658641], [175.1939879752063, 14.284478553795386]], [[157.59910098843034, -38.77910430658641], [134.06833355343645, -46.332830712553424]], [[-112.72468232552252, -51.97603960582233], [-54.82936236717477, 18.56380283304753]], [[172.3770356097518, -72.61808511595576], [126.85466653869663, 15.132915422989527]], [[-125.02933558479002, -16.341365696502177], [-176.02956553000715, -13.042015859289014]], [[-176.02956553000715, -13.042015859289014], [99.6759784803302, -40.45660567789112]], [[-104.25883378696832, -10.769518897563547], [-115.84073420891932, -42.42436367144264]], [[-104.25883378696832, -10.769518897563547], [-47.32553310205255, 33.93623033074493]], [[-115.84073420891932, -42.42436367144264], [178.0580286563458, 19.8570019208553]], [[-110.86251916469091, 15.282717550140365], [-47.32553310205255, 33.93623033074493]], [[-136.64720747484594, 13.72114414803255], [125.22285651788829, 22.055816133684917]], [[-136.64720747484594, 13.72114414803255], [-78.10789454344751, 28.138926383428753]], [[-136.64720747484594, 13.72114414803255], [-88.00386717133519, 46.850520843364386]], [[176.91749002807387, -15.97475966479518], [122.48530363569277, -28.360721499653884]], [[17.84285837718619, -21.04802564558073], [118.48919028581943, 36.12877157331416]], [[17.84285837718619, -21.04802564558073], [2.7694485393883848, 79.15408093353155]], [[-14.90432926031914, -19.098508750765486], [-3.082509971926133, 15.97475966479518]], [[33.059070932098116, -52.34968392372532], [122.48530363569277, -28.360721499653884]], [[33.059070932098116, -52.34968392372532], [23.300104202868805, 2.4715117375362254]], [[32.49628359053674, -22.982294206300622], [11.36274917723218, 18.509866744116987]], [[54.12141093402632, -39.22730374253709], [-52.485686764593304, 37.312488102346485]], [[54.12141093402632, -39.22730374253709], [-78.10789454344751, 28.138926383428753]], [[-1.9419713436542063, -19.8570019208553], [48.20446296524457, -30.50476524226288]], [[-1.9419713436542063, -19.8570019208553], [64.1592657910807, 42.42436367144264]], [[91.99613282866483, -46.850520843364386], [106.0311472843946, 40.2165818934141]], [[48.20446296524457, -30.50476524226288], [113.00694638022223, 43.90752628467854]], [[118.48919028581943, 36.12877157331416], [11.36274917723218, 18.509866744116987]], [[118.48919028581943, 36.12877157331416], [64.38567588047752, 16.879092614323213]], [[118.48919028581943, 36.12877157331416], [31.54524942121568, 54.88329979320272]], [[101.89210545655249, -28.138926383428753], [32.16989480109868, 26.50382799064752]], [[101.89210545655249, -28.138926383428753], [31.54524942121568, 54.88329979320272]], [[11.36274917723218, 18.509866744116987], [113.00694638022223, 43.90752628467854]], [[173.33031599850221, 50.40301054807843], [64.1592657910807, 42.42436367144264]], [[-137.85869689314111, 9.05207237798261], [-20.16612112971877, 72.09658685198886]], [[-52.485686764593304, 37.312488102346485], [-22.40089901156966, 38.77910430658641]], [[-66.99305361977777, -43.90752628467854], [-75.4268112193776, 10.741868304309895]], [[-57.51469636430724, 28.360721499653884], [-88.00386717133519, 46.850520843364386]], [[-57.51469636430724, 28.360721499653884], [64.38567588047752, 16.879092614323213]], [[127.5143132354067, -37.312488102346485], [165.09567073968088, 19.098508750765486]], [[42.1413031068589, -9.05207237798261], [126.85466653869663, 15.132915422989527]], [[42.1413031068589, -9.05207237798261], [-88.00386717133519, 46.850520843364386]], [[42.1413031068589, -9.05207237798261], [178.0580286563458, 19.8570019208553]], [[42.1413031068589, -9.05207237798261], [12.755032956565708, 15.93436377613029]], [[-37.67599786209474, -1.5507793440360615], [-6.669684001497775, -50.40301054807843]], [[-37.67599786209474, -1.5507793440360615], [23.300104202868805, 2.4715117375362254]], [[-2.811376751105426, 2.333080800864453], [126.85466653869663, 15.132915422989527]], [[-2.811376751105426, 2.333080800864453], [-71.59954189805478, 39.053434028099126]], [[-78.10789454344751, 28.138926383428753], [132.67446689794744, -33.93623033074493]], [[-78.10789454344751, 28.138926383428753], [75.74116621303168, 10.769518897563547]], [[126.85466653869663, 15.132915422989527], [64.1592657910807, 42.42436367144264]], [[-61.51080971418056, -36.12877157331416], [124.93644117052868, -53.307294992466765]], [[-54.82936236717477, 18.56380283304753], [-146.9409290679019, 52.34968392372532]], [[124.93644117052868, -53.307294992466765], [15.642977681841403, -11.926379025711737]], [[15.642977681841403, -11.926379025711737], [-162.1571416228138, 21.04802564558073]], [[-131.79553703475543, 30.50476524226288], [42.42449748928378, -3.2596258432819596]], [[-88.00386717133519, 46.850520843364386], [-71.59954189805478, 39.053434028099126]], [[178.0580286563458, 19.8570019208553], [32.16989480109868, 26.50382799064752]], [[-71.59954189805478, 39.053434028099126], [-119.34147760996761, 27.809859343979916]], [[165.09567073968088, 19.098508750765486], [102.4468083378254, -3.564056421014012]], [[-119.34147760996761, 27.809859343979916], [-164.0514286208446, 68.19488077815697]], [[42.42449748928378, -3.2596258432819596], [-7.622964390248219, 72.61808511595576]], [[64.38567588047752, 16.879092614323213], [111.63803600927672, 35.11100044445508]], [[23.300104202868805, 2.4715117375362254], [51.87505814515155, 53.50264810251137]], [[69.13748083530909, -15.282717550140365], [-7.622964390248219, 72.61808511595576]], [[75.74116621303168, 10.769518897563547], [118.52108101196444, 24.310568958995518]], [[22.082372145543275, -6.085918174042088], [-32.58212948053327, 46.96719422768059]], [[-7.622964390248219, 72.61808511595576], [111.63803600927672, 35.11100044445508]], [[-7.622964390248219, 72.61808511595576], [32.16989480109868, 26.50382799064752]], [[67.27531767447748, 51.97603960582233], [32.16989480109868, 26.50382799064752]], [[31.54524942121568, 54.88329979320272], [106.0311472843946, 40.2165818934141]]]}}]}