{"type": "FeatureCollection", "name": "E8_proj_seed1175 grid", "properties": {"shape": "E8_proj_seed1175", "lock_lat": -15.0, "lock_lon": 145.0, "bearing": 350.0}, "features": [{"type": "Feature", "properties": {"kind": "grid_vertices", "shape": "E8_proj_seed1175", "count": 240, "ids": ["V1", "V2", "V3", "V4", "V5", "V6", "V7", "V8", "V9", "V10", "V11", "V12", "V13", "V14", "V15", "V16", "V17", "V18", "V19", "V20", "V21", "V22", "V23", "V24", "V25", "V26", "V27", "V28", "V29", "V30", "V31", "V32", "V33", "V34", "V35", "V36", "V37", "V38", "V39", "V40", "V41", "V42", "V43", "V44", "V45", "V46", "V47", "V48", "V49", "V50", "V51", "V52", "V53", "V54", "V55", "V56", "V57", "V58", "V59", "V60", "V61", "V62", "V63", "V64", "V65", "V66", "V67", "V68", "V69", "V70", "V71", "V72", "V73", "V74", "V75", "V76", "V77", "V78", "V79", "V80", "V81", "V82", "V83", "V84", "V85", "V86", "V87", "V88", "V89", "V90", "V91", "V92", "V93", "V94", "V95", "V96", "V97", "V98", "V99", "V100", "V101", "V102", "V103", "V104", "V105", "V106", "V107", "V108", "V109", "V110", "V111", "V112", "V113", "V114", "V115", "V116", "V117", "V118", "V119", "V120", "V121", "V122", "V123", "V124", "V125", "V126", "V127", "V128", "V129", "V130", "V131", "V132", "V133", "V134", "V135", "V136", "V137", "V138", "V139", "V140", "V141", "V142", "V143", "V144", "V145", "V146", "V147", "V148", "V149", "V150", "V151", "V152", "V153", "V154", "V155", "V156", "V157", "V158", "V159", "V160", "V161", "V162", "V163", "V164", "V165", "V166", "V167", "V168", "V169", "V170", "V171", "V172", "V173", "V174", "V175", "V176", "V177", "V178", "V179", "V180", "V181", "V182", "V183", "V184", "V185", "V186", "V187", "V188", "V189", "V190", "V191", "V192", "V193", "V194", "V195", "V196", "V197", "V198", "V199", "V200", "V201", "V202", "V203", "V204", "V205", "V206", "V207", "V208", "V209", "V210", "V211", "V212", "V213", "V214", "V215", "V216", "V217", "V218", "V219", "V220", "V221", "V222", "V223", "V224", "V225", "V226", "V227", "V228", "V229", "V230", "V231", "V232", "V233", "V234", "V235", "V236", "V237", "V238", "V239", "V240"]}, "geometry": {"type": "MultiPoint", "coordinates": [[175.37679933083956, 41.53196076556041], [-86.1223257580955, -28.06533445596246], [93.87767424190451, 28.06533445596246], [-4.623200669160445, -41.53196076556041], [-91.8544304882332, 21.185241556932862], [-140.66242311075013, -40.4775837214708], [39.33757688924986, 40.4775837214708], [88.1455695117668, -21.185241556932862], [-121.3664220212649, 15.018609940405993], [0.18460302438586512, -64.71032619878504], [-179.81539697561414, 64.71032619878504], [58.63357797873511, -15.018609940405993], [-148.03114251793278, -33.29951491219148], [-49.02551966466444, 37.296158453590124], [130.97448033533558, -37.296158453590124], [31.968857482067225, 33.29951491219148], [-99.69475253374898, 9.506826056677587], [-150.82988012951267, -45.423862847061194], [29.17011987048735, 45.423862847061194], [80.30524746625103, -9.506826056677587], [-64.0321244888159, -28.270310298625095], [-155.89445530071603, 18.354992947663064], [24.10554469928396, -18.354992947663064], [115.9678755111841, 28.270310298625095], [-92.1612577901399, 8.848514480059002], [-135.4666533688174, -24.788838457344852], [44.533346631182624, 24.788838457344852], [87.83874220986011, -8.848514480059002], [105.15745378838402, 66.68996794552456], [121.13805225239138, 9.536223274706154], [-58.86194774760863, -9.536223274706154], [-74.842546211616, -66.68996794552456], [176.8943797296027, 51.898993287012416], [82.05193011772954, 5.384746303486934], [-97.94806988227046, -5.384746303486934], [-3.105620270397331, -51.898993287012416], [149.38683086554335, -4.415201103060397], [57.16991113860444, 58.05430522389687], [-122.83008886139557, -58.05430522389687], [-30.613169134456648, 4.415201103060397], [141.06833017408903, 68.2463282990156], [109.46058644665067, 15.626955044002674], [-70.53941355334933, -15.626955044002674], [-38.93166982591099, -68.2463282990156], [54.390348948320494, 18.65052004503894], [138.0616834391527, 37.44165469251681], [-41.93831656084731, -37.44165469251681], [-125.6096510516795, -18.65052004503894], [103.19041790847223, 57.688964156059], [123.2468905911966, 21.338274577006672], [-56.753109408803404, -21.338274577006672], [-76.80958209152777, -57.688964156059], [-108.87272986824749, 44.60809354338823], [27.493949668004802, -3.88308763086263], [-152.50605033199523, 3.88308763086263], [71.12727013175251, -44.60809354338823], [-155.23484795941897, -24.428252047608545], [-12.981453511027699, 47.86650286020083], [167.0185464889723, -47.86650286020083], [24.765152040581036, 24.428252047608545], [-67.99694061715695, 42.85397304504616], [53.230248449387, 30.5636405888036], [-126.76975155061301, -30.5636405888036], [112.00305938284306, -42.85397304504616], [-27.872236529434158, 0.4564801143361174], [-176.92939837501018, 62.40145505510648], [3.0706016249898376, -62.40145505510648], [152.12776347056584, -0.4564801143361174], [-43.47275873971287, 46.724580005399694], [-88.58604608751662, 70.70177199684905], [91.4139539124834, -70.70177199684905], [136.52724126028716, -46.724580005399694], [-153.66940858096658, -8.797009485838595], [-66.85909141670916, 60.707191048341684], [113.14090858329085, -60.707191048341684], [26.330591419033453, 8.797009485838595], [-112.79727625596885, 32.761878625242176], [-163.30007878488516, 19.174660239944597], [16.699921215114855, -19.174660239944597], [67.20272374403115, -32.761878625242176], [-80.44053315719808, 4.273184276346621], [-160.933893150406, 35.87869943507836], [19.066106849593996, -35.87869943507836], [99.55946684280192, -4.273184276346621], [-110.61873418123353, 39.224650586827856], [-148.05257192063002, 17.327126231905357], [31.947428079369992, -17.327126231905357], [69.38126581876648, -39.224650586827856], [-146.86956213851605, -26.919434500517394], [152.4472493366378, -45.84925961503331], [-27.55275066336218, 45.84925961503331], [33.13043786148396, 26.919434500517394], [-116.93948186968836, -76.82222860653869], [171.83451433543425, -11.208216302366914], [-8.165485664565752, 11.208216302366914], [63.06051813031165, 76.82222860653869], [-161.9076148404309, -39.874497381913365], [171.13934888272175, -42.336080633981204], [-8.860651117278257, 42.336080633981204], [18.092385159569115, 39.874497381913365], [-43.00415112117418, -8.41964257657806], [-158.6986278470931, 47.12266711954597], [21.30137215290691, -47.12266711954597], [136.99584887882583, 8.41964257657806], [-65.78905430987248, 35.35025141739854], [-118.5434642252299, 10.424426995398562], [61.45653577477011, -10.424426995398562], [114.21094569012752, -35.35025141739854], [-23.97449794754763, -12.096825948986606], [-6.591928441356072, -54.76117178728222], [173.40807155864394, 54.76117178728222], [156.02550205245237, 12.096825948986606], [-113.17001088571747, 23.257236503360108], [-159.97043299552112, 24.45868357674279], [-161.17576308031823, -7.68649141524657], [-171.22932055002394, 26.218007687412562], [-72.92503494904395, 52.209526472358164], [-111.64950282596806, 66.74111368953238], [-46.34318749385333, 58.04095814129404], [178.18057709002142, 63.241707666746514], [-143.68012006127367, -76.1068689013941], [179.2095397183244, 33.191974874242256], [68.52643611825226, -54.50616809799716], [141.18271831213752, -8.798648527894619], [-12.031326863511383, 32.802439651507164], [72.75383998074285, 76.3711675430342], [32.82571451129693, 9.634063771103186], [65.76369263171837, 55.71759021313585], [-151.7799118806291, -15.195040437115507], [-163.1094934327298, 16.57013304839413], [-167.40721926857375, -24.873951170345734], [170.77630144132218, -3.687676521914984], [-71.04642681854777, 47.542346141564614], [-164.1187973521175, 51.3146572740088], [153.31847181030966, 64.64857936956696], [170.08615426557188, 57.08637119381739], [153.74209622137386, -82.36206070364875], [155.87215843345095, -16.75038812910867], [117.63077875476372, -53.586131698840845], [138.077984815007, -19.29347414688362], [23.189731552454766, -2.278366651740719], [77.81356116986879, 65.9809606009213], [37.27879346709627, -5.63251296100289], [104.0806387180368, 7.751014975668338], [-100.18941391545901, -17.296383071506625], [-117.87324281383228, 7.975704692148736], [-94.70439479904108, -24.490854576884633], [-145.16456379222433, -13.372391222538646], [-63.30199191560882, 16.363495235079554], [-96.29495873582769, 32.02928492511511], [-61.59999858431458, 0.5016170734156302], [-87.78622117073115, 37.70640207443781], [-60.96524018895204, -34.4280338476587], [-127.72054436843091, -37.928167196226994], [-51.218299495853486, -73.96193395151109], [-137.17688905951783, -60.264945916552186], [-33.71870736413921, -9.044327954079328], [-46.84579117331582, 25.617580011093], [-19.148778548024826, -11.538705335470318], [-5.117668288541424, -9.462846601453862], [-100.85595213141542, -26.298088879903844], [-141.85022950591465, -16.919306195379875], [-128.96329609547027, -53.45640843903609], [-148.31688686173587, -23.468043546568236], [-73.67813995865478, -7.3190774577868085], [-96.8462003268193, 24.947244816430445], [-59.51182711879002, -12.40435409540415], [-134.40933584240832, 0.08065495800273872], [-83.2356491732559, -70.33092523017162], [-132.4513761630267, -50.86095564508826], [-41.99897283380207, -78.50519399592247], [163.26421894024637, -59.63541142016559], [-30.85845258391535, -18.717399481061214], [-53.70131876277954, -35.28175621786824], [-0.4499895439525769, -49.354230958348126], [7.781137542052354, -38.95216290303106], [-172.21886245794764, 38.95216290303106], [179.55001045604743, 49.354230958348126], [126.29868123722045, 35.28175621786824], [149.14154741608465, 18.717399481061214], [-16.735781059753645, 59.63541142016559], [138.00102716619793, 78.50519399592247], [47.548623836973285, 50.86095564508826], [96.76435082674412, 70.33092523017162], [45.59066415759169, -0.08065495800273872], [120.48817288120999, 12.40435409540415], [83.1537996731807, -24.947244816430445], [106.32186004134522, 7.3190774577868085], [31.68311313826415, 23.468043546568236], [51.03670390452974, 53.45640843903609], [38.149770494085374, 16.919306195379875], [79.14404786858456, 26.298088879903844], [174.88233171145856, 9.462846601453862], [160.8512214519752, 11.538705335470318], [133.1542088266842, -25.617580011093], [146.2812926358608, 9.044327954079328], [42.82311094048219, 60.264945916552186], [128.78170050414653, 73.96193395151109], [52.27945563156909, 37.928167196226994], [119.03475981104798, 34.4280338476587], [92.21377882926886, -37.70640207443781], [118.40000141568544, -0.5016170734156302], [83.70504126417231, -32.02928492511511], [116.69800808439119, -16.363495235079554], [34.83543620777569, 13.372391222538646], [85.29560520095892, 24.490854576884633], [62.126757186167715, -7.975704692148736], [79.81058608454099, 17.296383071506625], [-75.91936128196319, -7.751014975668338], [-142.72120653290372, 5.63251296100289], [-102.18643883013122, -65.9809606009213], [-156.81026844754524, 2.278366651740719], [-41.92201518499302, 19.29347414688362], [-62.36922124523629, 53.586131698840845], [-24.12784156654906, 16.75038812910867], [-26.257903778626158, 82.36206070364875], [-9.913845734428142, -57.08637119381739], [-26.681528189690365, -64.64857936956696], [15.881202647882496, -51.3146572740088], [108.95357318145224, -47.542346141564614], [-9.223698558677825, 3.687676521914984], [12.592780731426254, 24.873951170345734], [16.890506567270176, -16.57013304839413], [28.220088119370896, 15.195040437115507], [-114.23630736828163, -55.71759021313585], [-147.17428548870308, -9.634063771103186], [-107.24616001925715, -76.3711675430342], [167.96867313648863, -32.802439651507164], [-38.81728168786246, 8.798648527894619], [-111.47356388174774, 54.50616809799716], [-0.7904602816756041, -33.191974874242256], [36.31987993872632, 76.1068689013941], [-1.8194229099785686, -63.241707666746514], [133.65681250614668, -58.04095814129404], [68.35049717403196, -66.74111368953238], [107.07496505095605, -52.209526472358164], [8.770679449976058, -26.218007687412562], [18.824236919681777, 7.68649141524657], [20.029567004478892, -24.45868357674279], [66.82998911428253, -23.257236503360108]]}}, {"type": "Feature", "properties": {"kind": "grid_edges", "shape": "E8_proj_seed1175", "count": 340, "ids": ["E1", "E2", "E3", "E4", "E5", "E6", "E7", "E8", "E9", "E10", "E11", "E12", "E13", "E14", "E15", "E16", "E17", "E18", "E19", "E20", "E21", "E22", "E23", "E24", "E25", "E26", "E27", "E28", "E29", "E30", "E31", "E32", "E33", "E34", "E35", "E36", "E37", "E38", "E39", "E40", "E41", "E42", "E43", "E44", "E45", "E46", "E47", "E48", "E49", "E50", "E51", "E52", "E53", "E54", "E55", "E56", "E57", "E58", "E59", "E60", "E61", "E62", "E63", "E64", "E65", "E66", "E67", "E68", "E69", "E70", "E71", "E72", "E73", "E74", "E75", "E76", "E77", "E78", "E79", "E80", "E81", "E82", "E83", "E84", "E85", "E86", "E87", "E88", "E89", "E90", "E91", "E92", "E93", "E94", "E95", "E96", "E97", "E98", "E99", "E100", "E101", "E102", "E103", "E104", "E105", "E106", "E107", "E108", "E109", "E110", "E111", "E112", "E113", "E114", "E115", "E116", "E117", "E118", "E119", "E120", "E121", "E122", "E123", "E124", "E125", "E126", "E127", "E128", "E129", "E130", "E131", "E132", "E133", "E134", "E135", "E136", "E137", "E138", "E139", "E140", "E141", "E142", "E143", "E144", "E145", "E146", "E147", "E148", "E149", "E150", "E151", "E152", "E153", "E154", "E155", "E156", "E157", "E158", "E159", "E160", "E161", "E162", "E163", "E164", "E165", "E166", "E167", "E168", "E169", "E170", "E171", "E172", "E173", "E174", "E175", "E176", "E177", "E178", "E179", "E180", "E181", "E182", "E183", "E184", "E185", "E186", "E187", "E188", "E189", "E190", "E191", "E192", "E193", "E194", "E195", "E196", "E197", "E198", "E199", "E200", "E201", "E202", "E203", "E204", "E205", "E206", "E207", "E208", "E209", "E210", "E211", "E212", "E213", "E214", "E215", "E216", "E217", "E218", "E219", "E220", "E221", "E222", "E223", "E224", "E225", "E226", "E227", "E228", "E229", "E230", "E231", "E232", "E233", "E234", "E235", "E236", "E237", "E238", "E239", "E240", "E241", "E242", "E243", "E244", "E245", "E246", "E247", "E248", "E249", "E250", "E251", "E252", "E253", "E254", "E255", "E256", "E257", "E258", "E259", "E260", "E261", "E262", "E263", "E264", "E265", "E266", "E267", "E268", "E269", "E270", "E271", "E272", "E273", "E274", "E275", "E276", "E277", "E278", "E279", "E280", "E281", "E282", "E283", "E284", "E285", "E286", "E287", "E288", "E289", "E290", "E291", "E292", "E293", "E294", "E295", "E296", "E297", "E298", "E299", "E300", "E301", "E302", "E303", "E304", "E305", "E306", "E307", "E308", "E309", "E310", "E311", "E312", "E313", "E314", "E315", "E316", "E317", "E318", "E319", "E320", "E321", "E322", "E323", "E324", "E325", "E326", "E327", "E328", "E329", "E330", "E331", "E332", "E333", "E334", "E335", "E336", "E337", "E338", "E339", "E340"], "pairs": [[0, 117], [0, 142], [1, 13], [1, 46], [1, 148], [2, 177], [2, 192], [3, 30], [4, 24], [4, 61], [4, 64], [4, 119], [4, 121], [6, 11], [6, 14], [6, 178], [7, 54], [7, 195], [7, 196], [7, 197], [9, 86], [9, 127], [9, 137], [10, 208], [10, 230], [11, 15], [13, 143], [13, 151], [14, 18], [14, 193], [14, 209], [14, 211], [15, 27], [15, 75], [15, 190], [15, 197], [15, 212], [15, 223], [15, 238], [16, 100], [16, 128], [17, 41], [17, 126], [17, 134], [18, 40], [18, 185], [18, 188], [18, 196], [18, 201], [18, 208], [18, 209], [19, 194], [19, 227], [20, 64], [20, 108], [20, 118], [20, 120], [20, 134], [21, 95], [21, 163], [21, 173], [22, 26], [22, 186], [22, 198], [22, 208], [23, 110], [23, 215], [24, 141], [25, 99], [26, 70], [26, 110], [26, 180], [26, 211], [26, 218], [28, 53], [28, 120], [30, 69], [30, 148], [30, 154], [30, 215], [31, 66], [31, 232], [32, 49], [32, 72], [32, 80], [33, 140], [34, 231], [36, 45], [36, 184], [36, 201], [37, 75], [37, 91], [37, 188], [38, 219], [39, 51], [39, 164], [39, 223], [40, 49], [40, 78], [40, 112], [40, 140], [40, 188], [42, 78], [43, 211], [43, 214], [44, 114], [45, 195], [46, 92], [46, 150], [46, 214], [47, 159], [48, 112], [48, 136], [49, 85], [49, 200], [50, 148], [50, 169], [50, 220], [50, 232], [51, 99], [51, 109], [51, 215], [51, 230], [52, 151], [52, 212], [53, 74], [53, 79], [53, 156], [54, 67], [55, 141], [56, 60], [56, 61], [57, 64], [57, 182], [59, 67], [59, 70], [59, 73], [59, 167], [59, 230], [60, 88], [60, 188], [61, 123], [61, 127], [61, 146], [61, 151], [61, 182], [61, 215], [62, 172], [62, 228], [63, 142], [63, 199], [64, 112], [65, 83], [65, 93], [65, 185], [66, 198], [67, 207], [69, 126], [69, 147], [69, 150], [69, 154], [69, 219], [69, 221], [70, 84], [70, 207], [70, 238], [71, 85], [71, 167], [72, 177], [73, 91], [73, 133], [73, 164], [73, 166], [73, 199], [74, 78], [75, 90], [75, 124], [75, 189], [76, 100], [76, 101], [76, 133], [77, 91], [77, 210], [78, 86], [78, 136], [78, 189], [78, 200], [79, 159], [80, 100], [80, 198], [81, 163], [82, 86], [82, 124], [83, 125], [83, 127], [84, 145], [86, 121], [86, 157], [86, 187], [86, 218], [86, 232], [87, 99], [88, 113], [88, 121], [88, 184], [88, 201], [89, 147], [89, 195], [90, 172], [90, 220], [91, 103], [91, 134], [91, 135], [91, 182], [91, 183], [91, 199], [92, 100], [93, 123], [93, 177], [93, 179], [93, 235], [94, 118], [94, 196], [95, 111], [95, 159], [97, 147], [98, 204], [99, 116], [99, 143], [99, 173], [99, 174], [99, 191], [99, 205], [100, 105], [100, 112], [100, 140], [100, 148], [100, 164], [100, 176], [100, 192], [101, 137], [101, 189], [101, 205], [101, 221], [102, 126], [102, 214], [103, 171], [104, 121], [104, 129], [104, 177], [104, 217], [105, 156], [106, 183], [108, 124], [108, 178], [108, 198], [109, 194], [110, 223], [113, 209], [116, 144], [116, 150], [117, 124], [117, 133], [117, 141], [117, 183], [118, 142], [118, 178], [119, 133], [120, 122], [120, 123], [123, 127], [123, 171], [123, 219], [124, 136], [124, 141], [126, 138], [127, 151], [128, 176], [131, 143], [134, 138], [134, 143], [135, 143], [135, 151], [137, 233], [139, 170], [141, 201], [142, 190], [144, 156], [145, 217], [146, 218], [147, 159], [148, 156], [149, 156], [150, 151], [150, 154], [150, 174], [150, 215], [151, 231], [156, 173], [157, 189], [159, 239], [163, 166], [163, 195], [165, 175], [176, 188], [178, 214], [178, 226], [181, 229], [182, 188], [182, 199], [183, 187], [183, 190], [183, 223], [184, 208], [185, 188], [185, 189], [185, 219], [187, 223], [188, 189], [189, 223], [192, 204], [196, 205], [196, 229], [197, 225], [197, 237], [201, 205], [201, 207], [201, 235], [208, 232], [210, 211], [210, 214], [210, 219], [211, 213], [213, 215], [214, 231], [215, 222], [223, 235], [227, 231], [235, 238], [238, 239]], "support_counts": [1, 1, 1, 1, 1, 1, 1, 1, 1, 2, 1, 1, 1, 1, 1, 1, 1, 1, 1, 1, 1, 1, 1, 1, 1, 1, 1, 1, 1, 1, 1, 1, 1, 1, 1, 1, 1, 1, 1, 2, 1, 1, 1, 1, 1, 1, 1, 1, 1, 1, 1, 2, 1, 1, 1, 1, 1, 2, 1, 1, 1, 1, 1, 1, 1, 1, 1, 1, 1, 1, 1, 1, 1, 1, 1, 1, 1, 1, 1, 1, 1, 1, 1, 1, 1, 1, 1, 1, 1, 1, 1, 1, 1, 1, 1, 1, 1, 1, 1, 1, 1, 2, 1, 1, 1, 3, 1, 1, 1, 1, 1, 1, 1, 1, 1, 1, 1, 1, 1, 1, 1, 2, 1, 1, 1, 1, 1, 1, 1, 1, 1, 1, 1, 1, 1, 1, 1, 1, 1, 1, 1, 2, 1, 1, 1, 1, 1, 1, 2, 1, 2, 1, 1, 1, 1, 1, 1, 1, 1, 1, 1, 1, 1, 1, 1, 1, 1, 1, 1, 2, 1, 1, 1, 1, 1, 1, 1, 2, 1, 1, 1, 1, 1, 1, 1, 1, 1, 1, 1, 1, 1, 1, 1, 1, 1, 1, 1, 1, 1, 1, 1, 1, 1, 1, 1, 1, 1, 2, 1, 1, 1, 2, 1, 1, 2, 1, 1, 1, 1, 1, 1, 1, 1, 1, 1, 1, 1, 1, 1, 1, 1, 1, 1, 1, 1, 1, 1, 1, 2, 1, 1, 1, 1, 1, 1, 1, 1, 1, 1, 1, 1, 2, 1, 1, 1, 2, 1, 1, 1, 1, 1, 1, 1, 1, 1, 1, 1, 1, 1, 1, 1, 1, 1, 1, 1, 1, 1, 1, 1, 1, 1, 1, 1, 1, 2, 1, 1, 1, 1, 1, 1, 1, 1, 1, 1, 1, 1, 1, 1, 1, 1, 1, 1, 1, 1, 1, 1, 1, 1, 1, 1, 1, 1, 1, 1, 1, 1, 1, 1, 1, 1, 1, 1, 1, 1, 1, 1, 1, 1, 1, 1, 1, 1, 1, 1, 1, 1, 1, 1, 1], "support_class": ["single", "single", "single", "single", "single", "single", "single", "single", "single", "shared", "single", "single", "single", "single", "single", "single", "single", "single", "single", "single", "single", "single", "single", "single", "single", "single", "single", "single", "single", "single", "single", "single", "single", "single", "single", "single", "single", "single", "single", "shared", "single", "single", "single", "single", "single", "single", "single", "single", "single", "single", "single", "shared", "single", "single", "single", "single", "single", "shared", "single", "single", "single", "single", "single", "single", "single", "single", "single", "single", "single", "single", "single", "single", "single", "single", "single", "single", "single", "single", "single", "single", "single", "single", "single", "single", "single", "single", "single", "single", "single", "single", "single", "single", "single", "single", "single", "single", "single", "single", "single", "single", "single", "shared", "single", "single", "single", "shared", "single", "single", "single", "single", "single", "single", "single", "single", "single", "single", "single", "single", "single", "single", "single", "shared", "single", "single", "single", "single", "single", "single", "single", "single", "single", "single", "single", "single", "single", "single", "single", "single", "single", "single", "single", "shared", "single", "single", "single", "single", "single", "single", "shared", "single", "shared", "single", "single", "single", "single", "single", "single", "single", "single", "single", "single", "single", "single", "single", "single", "single", "single", "single", "single", "shared", "single", "single", "single", "single", "single", "single", "single", "shared", "single", "single", "single", "single", "single", "single", "single", "single", "single", "single", "single", "single", "single", "single", "single", "single", "single", "single", "single", "single", "single", "single", "single", "single", "single", "single", "single", "single", "single", "shared", "single", "single", "single", "shared", "single", "single", "shared", "single", "single", "single", "single", "single", "single", "single", "single", "single", "single", "single", "single", "single", "single", "single", "single", "single", "single", "single", "single", "single", "single", "single", "shared", "single", "single", "single", "single", "single", "single", "single", "single", "single", "single", "single", "single", "shared", "single", "single", "single", "shared", "single", "single", "single", "single", "single", "single", "single", "single", "single", "single", "single", "single", "single", "single", "single", "single", "single", "single", "single", "single", "single", "single", "single", "single", "single", "single", "single", "single", "shared", "single", "single", "single", "single", "single", "single", "single", "single", "single", "single", "single", "single", "single", "single", "single", "single", "single", "single", "single", "single", "single", "single", "single", "single", "single", "single", "single", "single", "single", "single", "single", "single", "single", "single", "single", "single", "single", "single", "single", "single", "single", "single", "single", "single", "single", "single", "single", "single", "single", "single", "single", "single", "single", "single", "single"]}, "geometry": {"type": "MultiLineString", "coordinates": [[[175.37679933083956, 41.53196076556041], [-111.64950282596806, 66.74111368953238]], [[175.37679933083956, 41.53196076556041], [37.27879346709627, -5.63251296100289]], [[-86.1223257580955, -28.06533445596246], [-49.02551966466444, 37.296158453590124]], [[-86.1223257580955, -28.06533445596246], [-41.93831656084731, -37.44165469251681]], [[-86.1223257580955, -28.06533445596246], [-63.30199191560882, 16.363495235079554]], [[93.87767424190451, 28.06533445596246], [179.55001045604743, 49.354230958348126]], [[93.87767424190451, 28.06533445596246], [174.88233171145856, 9.462846601453862]], [[-4.623200669160445, -41.53196076556041], [-58.86194774760863, -9.536223274706154]], [[-91.8544304882332, 21.185241556932862], [-92.1612577901399, 8.848514480059002]], [[-91.8544304882332, 21.185241556932862], [53.230248449387, 30.5636405888036]], [[-91.8544304882332, 21.185241556932862], [-27.872236529434158, 0.4564801143361174]], [[-91.8544304882332, 21.185241556932862], [178.18057709002142, 63.241707666746514]], [[-91.8544304882332, 21.185241556932862], [179.2095397183244, 33.191974874242256]], [[39.33757688924986, 40.4775837214708], [58.63357797873511, -15.018609940405993]], [[39.33757688924986, 40.4775837214708], [130.97448033533558, -37.296158453590124]], [[39.33757688924986, 40.4775837214708], [126.29868123722045, 35.28175621786824]], [[88.1455695117668, -21.185241556932862], [-152.50605033199523, 3.88308763086263]], [[88.1455695117668, -21.185241556932862], [146.2812926358608, 9.044327954079328]], [[88.1455695117668, -21.185241556932862], [42.82311094048219, 60.264945916552186]], [[88.1455695117668, -21.185241556932862], [128.78170050414653, 73.96193395151109]], [[0.18460302438586512, -64.71032619878504], [31.947428079369992, -17.327126231905357]], [[0.18460302438586512, -64.71032619878504], [65.76369263171837, 55.71759021313585]], [[0.18460302438586512, -64.71032619878504], [155.87215843345095, -16.75038812910867]], [[-179.81539697561414, 64.71032619878504], [-75.91936128196319, -7.751014975668338]], [[-179.81539697561414, 64.71032619878504], [-0.7904602816756041, -33.191974874242256]], [[58.63357797873511, -15.018609940405993], [31.968857482067225, 33.29951491219148]], [[-49.02551966466444, 37.296158453590124], [104.0806387180368, 7.751014975668338]], [[-49.02551966466444, 37.296158453590124], [-87.78622117073115, 37.70640207443781]], [[130.97448033533558, -37.296158453590124], [29.17011987048735, 45.423862847061194]], [[130.97448033533558, -37.296158453590124], [160.8512214519752, 11.538705335470318]], [[130.97448033533558, -37.296158453590124], [-142.72120653290372, 5.63251296100289]], [[130.97448033533558, -37.296158453590124], [-156.81026844754524, 2.278366651740719]], [[31.968857482067225, 33.29951491219148], [87.83874220986011, -8.848514480059002]], [[31.968857482067225, 33.29951491219148], [26.330591419033453, 8.797009485838595]], [[31.968857482067225, 33.29951491219148], [38.149770494085374, 16.919306195379875]], [[31.968857482067225, 33.29951491219148], [128.78170050414653, 73.96193395151109]], [[31.968857482067225, 33.29951491219148], [-41.92201518499302, 19.29347414688362]], [[31.968857482067225, 33.29951491219148], [28.220088119370896, 15.195040437115507]], [[31.968857482067225, 33.29951491219148], [20.029567004478892, -24.45868357674279]], [[-99.69475253374898, 9.506826056677587], [-43.00415112117418, -8.41964257657806]], [[-99.69475253374898, 9.506826056677587], [-151.7799118806291, -15.195040437115507]], [[-150.82988012951267, -45.423862847061194], [109.46058644665067, 15.626955044002674]], [[-150.82988012951267, -45.423862847061194], [32.82571451129693, 9.634063771103186]], [[-150.82988012951267, -45.423862847061194], [153.31847181030966, 64.64857936956696]], [[29.17011987048735, 45.423862847061194], [141.06833017408903, 68.2463282990156]], [[29.17011987048735, 45.423862847061194], [120.48817288120999, 12.40435409540415]], [[29.17011987048735, 45.423862847061194], [31.68311313826415, 23.468043546568236]], [[29.17011987048735, 45.423862847061194], [42.82311094048219, 60.264945916552186]], [[29.17011987048735, 45.423862847061194], [118.40000141568544, -0.5016170734156302]], [[29.17011987048735, 45.423862847061194], [-75.91936128196319, -7.751014975668338]], [[29.17011987048735, 45.423862847061194], [-142.72120653290372, 5.63251296100289]], [[80.30524746625103, -9.506826056677587], [133.1542088266842, -25.617580011093]], [[80.30524746625103, -9.506826056677587], [167.96867313648863, -32.802439651507164]], [[-64.0321244888159, -28.270310298625095], [-27.872236529434158, 0.4564801143361174]], [[-64.0321244888159, -28.270310298625095], [-23.97449794754763, -12.096825948986606]], [[-64.0321244888159, -28.270310298625095], [-46.34318749385333, 58.04095814129404]], [[-64.0321244888159, -28.270310298625095], [-143.68012006127367, -76.1068689013941]], [[-64.0321244888159, -28.270310298625095], [153.31847181030966, 64.64857936956696]], [[-155.89445530071603, 18.354992947663064], [63.06051813031165, 76.82222860653869]], [[-155.89445530071603, 18.354992947663064], [-148.31688686173587, -23.468043546568236]], [[-155.89445530071603, 18.354992947663064], [-53.70131876277954, -35.28175621786824]], [[24.10554469928396, -18.354992947663064], [44.533346631182624, 24.788838457344852]], [[24.10554469928396, -18.354992947663064], [83.1537996731807, -24.947244816430445]], [[24.10554469928396, -18.354992947663064], [52.27945563156909, 37.928167196226994]], [[24.10554469928396, -18.354992947663064], [-75.91936128196319, -7.751014975668338]], [[115.9678755111841, 28.270310298625095], [173.40807155864394, 54.76117178728222]], [[115.9678755111841, 28.270310298625095], [-26.257903778626158, 82.36206070364875]], [[-92.1612577901399, 8.848514480059002], [77.81356116986879, 65.9809606009213]], [[-135.4666533688174, -24.788838457344852], [18.092385159569115, 39.874497381913365]], [[44.533346631182624, 24.788838457344852], [91.4139539124834, -70.70177199684905]], [[44.533346631182624, 24.788838457344852], [173.40807155864394, 54.76117178728222]], [[44.533346631182624, 24.788838457344852], [-16.735781059753645, 59.63541142016559]], [[44.533346631182624, 24.788838457344852], [-156.81026844754524, 2.278366651740719]], [[44.533346631182624, 24.788838457344852], [15.881202647882496, -51.3146572740088]], [[105.15745378838402, 66.68996794552456], [27.493949668004802, -3.88308763086263]], [[105.15745378838402, 66.68996794552456], [-143.68012006127367, -76.1068689013941]], [[-58.86194774760863, -9.536223274706154], [-88.58604608751662, 70.70177199684905]], [[-58.86194774760863, -9.536223274706154], [-63.30199191560882, 16.363495235079554]], [[-58.86194774760863, -9.536223274706154], [-51.218299495853486, -73.96193395151109]], [[-58.86194774760863, -9.536223274706154], [-26.257903778626158, 82.36206070364875]], [[-74.842546211616, -66.68996794552456], [3.0706016249898376, -62.40145505510648]], [[-74.842546211616, -66.68996794552456], [-1.8194229099785686, -63.241707666746514]], [[176.8943797296027, 51.898993287012416], [123.2468905911966, 21.338274577006672]], [[176.8943797296027, 51.898993287012416], [-153.66940858096658, -8.797009485838595]], [[176.8943797296027, 51.898993287012416], [-80.44053315719808, 4.273184276346621]], [[82.05193011772954, 5.384746303486934], [23.189731552454766, -2.278366651740719]], [[-97.94806988227046, -5.384746303486934], [36.31987993872632, 76.1068689013941]], [[149.38683086554335, -4.415201103060397], [138.0616834391527, 37.44165469251681]], [[149.38683086554335, -4.415201103060397], [45.59066415759169, -0.08065495800273872]], [[149.38683086554335, -4.415201103060397], [118.40000141568544, -0.5016170734156302]], [[57.16991113860444, 58.05430522389687], [26.330591419033453, 8.797009485838595]], [[57.16991113860444, 58.05430522389687], [33.13043786148396, 26.919434500517394]], [[57.16991113860444, 58.05430522389687], [31.68311313826415, 23.468043546568236]], [[-122.83008886139557, -58.05430522389687], [108.95357318145224, -47.542346141564614]], [[-30.613169134456648, 4.415201103060397], [-76.80958209152777, -57.688964156059]], [[-30.613169134456648, 4.415201103060397], [-73.67813995865478, -7.3190774577868085]], [[-30.613169134456648, 4.415201103060397], [28.220088119370896, 15.195040437115507]], [[141.06833017408903, 68.2463282990156], [123.2468905911966, 21.338274577006672]], [[141.06833017408903, 68.2463282990156], [16.699921215114855, -19.174660239944597]], [[141.06833017408903, 68.2463282990156], [-113.17001088571747, 23.257236503360108]], [[141.06833017408903, 68.2463282990156], [23.189731552454766, -2.278366651740719]], [[141.06833017408903, 68.2463282990156], [31.68311313826415, 23.468043546568236]], [[-70.53941355334933, -15.626955044002674], [16.699921215114855, -19.174660239944597]], [[-38.93166982591099, -68.2463282990156], [-156.81026844754524, 2.278366651740719]], [[-38.93166982591099, -68.2463282990156], [-24.12784156654906, 16.75038812910867]], [[54.390348948320494, 18.65052004503894], [-161.17576308031823, -7.68649141524657]], [[138.0616834391527, 37.44165469251681], [146.2812926358608, 9.044327954079328]], [[-41.93831656084731, -37.44165469251681], [-116.93948186968836, -76.82222860653869]], [[-41.93831656084731, -37.44165469251681], [-61.59999858431458, 0.5016170734156302]], [[-41.93831656084731, -37.44165469251681], [-24.12784156654906, 16.75038812910867]], [[-125.6096510516795, -18.65052004503894], [-5.117668288541424, -9.462846601453862]], [[103.19041790847223, 57.688964156059], [-113.17001088571747, 23.257236503360108]], [[103.19041790847223, 57.688964156059], [153.74209622137386, -82.36206070364875]], [[123.2468905911966, 21.338274577006672], [-148.05257192063002, 17.327126231905357]], [[123.2468905911966, 21.338274577006672], [92.21377882926886, -37.70640207443781]], [[-56.753109408803404, -21.338274577006672], [-63.30199191560882, 16.363495235079554]], [[-56.753109408803404, -21.338274577006672], [-132.4513761630267, -50.86095564508826]], [[-56.753109408803404, -21.338274577006672], [-9.223698558677825, 3.687676521914984]], [[-56.753109408803404, -21.338274577006672], [-1.8194229099785686, -63.241707666746514]], [[-76.80958209152777, -57.688964156059], [18.092385159569115, 39.874497381913365]], [[-76.80958209152777, -57.688964156059], [-6.591928441356072, -54.76117178728222]], [[-76.80958209152777, -57.688964156059], [-26.257903778626158, 82.36206070364875]], [[-76.80958209152777, -57.688964156059], [-0.7904602816756041, -33.191974874242256]], [[-108.87272986824749, 44.60809354338823], [-87.78622117073115, 37.70640207443781]], [[-108.87272986824749, 44.60809354338823], [-41.92201518499302, 19.29347414688362]], [[27.493949668004802, -3.88308763086263], [113.14090858329085, -60.707191048341684]], [[27.493949668004802, -3.88308763086263], [67.20272374403115, -32.761878625242176]], [[27.493949668004802, -3.88308763086263], [-33.71870736413921, -9.044327954079328]], [[-152.50605033199523, 3.88308763086263], [152.12776347056584, -0.4564801143361174]], [[71.12727013175251, -44.60809354338823], [77.81356116986879, 65.9809606009213]], [[-155.23484795941897, -24.428252047608545], [-67.99694061715695, 42.85397304504616]], [[-155.23484795941897, -24.428252047608545], [53.230248449387, 30.5636405888036]], [[-12.981453511027699, 47.86650286020083], [-27.872236529434158, 0.4564801143361174]], [[-12.981453511027699, 47.86650286020083], [47.548623836973285, 50.86095564508826]], [[24.765152040581036, 24.428252047608545], [152.12776347056584, -0.4564801143361174]], [[24.765152040581036, 24.428252047608545], [91.4139539124834, -70.70177199684905]], [[24.765152040581036, 24.428252047608545], [-66.85909141670916, 60.707191048341684]], [[24.765152040581036, 24.428252047608545], [-134.40933584240832, 0.08065495800273872]], [[24.765152040581036, 24.428252047608545], [-0.7904602816756041, -33.191974874242256]], [[-67.99694061715695, 42.85397304504616], [-146.86956213851605, -26.919434500517394]], [[-67.99694061715695, 42.85397304504616], [31.68311313826415, 23.468043546568236]], [[53.230248449387, 30.5636405888036], [141.18271831213752, -8.798648527894619]], [[53.230248449387, 30.5636405888036], [65.76369263171837, 55.71759021313585]], [[53.230248449387, 30.5636405888036], [-94.70439479904108, -24.490854576884633]], [[53.230248449387, 30.5636405888036], [-87.78622117073115, 37.70640207443781]], [[53.230248449387, 30.5636405888036], [47.548623836973285, 50.86095564508826]], [[53.230248449387, 30.5636405888036], [-26.257903778626158, 82.36206070364875]], [[-126.76975155061301, -30.5636405888036], [-30.85845258391535, -18.717399481061214]], [[-126.76975155061301, -30.5636405888036], [-38.81728168786246, 8.798648527894619]], [[112.00305938284306, -42.85397304504616], [37.27879346709627, -5.63251296100289]], [[112.00305938284306, -42.85397304504616], [119.03475981104798, 34.4280338476587]], [[-27.872236529434158, 0.4564801143361174], [-113.17001088571747, 23.257236503360108]], [[-176.92939837501018, 62.40145505510648], [99.55946684280192, -4.273184276346621]], [[-176.92939837501018, 62.40145505510648], [171.83451433543425, -11.208216302366914]], [[-176.92939837501018, 62.40145505510648], [120.48817288120999, 12.40435409540415]], [[3.0706016249898376, -62.40145505510648], [52.27945563156909, 37.928167196226994]], [[152.12776347056584, -0.4564801143361174], [79.81058608454099, 17.296383071506625]], [[-88.58604608751662, 70.70177199684905], [32.82571451129693, 9.634063771103186]], [[-88.58604608751662, 70.70177199684905], [-145.16456379222433, -13.372391222538646]], [[-88.58604608751662, 70.70177199684905], [-61.59999858431458, 0.5016170734156302]], [[-88.58604608751662, 70.70177199684905], [-51.218299495853486, -73.96193395151109]], [[-88.58604608751662, 70.70177199684905], [108.95357318145224, -47.542346141564614]], [[-88.58604608751662, 70.70177199684905], [12.592780731426254, 24.873951170345734]], [[91.4139539124834, -70.70177199684905], [-110.61873418123353, 39.224650586827856]], [[91.4139539124834, -70.70177199684905], [79.81058608454099, 17.296383071506625]], [[91.4139539124834, -70.70177199684905], [20.029567004478892, -24.45868357674279]], [[136.52724126028716, -46.724580005399694], [-148.05257192063002, 17.327126231905357]], [[136.52724126028716, -46.724580005399694], [-134.40933584240832, 0.08065495800273872]], [[-153.66940858096658, -8.797009485838595], [179.55001045604743, 49.354230958348126]], [[-66.85909141670916, 60.707191048341684], [33.13043786148396, 26.919434500517394]], [[-66.85909141670916, 60.707191048341684], [-164.1187973521175, 51.3146572740088]], [[-66.85909141670916, 60.707191048341684], [-73.67813995865478, -7.3190774577868085]], [[-66.85909141670916, 60.707191048341684], [-59.51182711879002, -12.40435409540415]], [[-66.85909141670916, 60.707191048341684], [119.03475981104798, 34.4280338476587]], [[113.14090858329085, -60.707191048341684], [16.699921215114855, -19.174660239944597]], [[26.330591419033453, 8.797009485838595], [-27.55275066336218, 45.84925961503331]], [[26.330591419033453, 8.797009485838595], [-12.031326863511383, 32.802439651507164]], [[26.330591419033453, 8.797009485838595], [51.03670390452974, 53.45640843903609]], [[-112.79727625596885, 32.761878625242176], [-43.00415112117418, -8.41964257657806]], [[-112.79727625596885, 32.761878625242176], [-158.6986278470931, 47.12266711954597]], [[-112.79727625596885, 32.761878625242176], [-164.1187973521175, 51.3146572740088]], [[-163.30007878488516, 19.174660239944597], [33.13043786148396, 26.919434500517394]], [[-163.30007878488516, 19.174660239944597], [-102.18643883013122, -65.9809606009213]], [[16.699921215114855, -19.174660239944597], [31.947428079369992, -17.327126231905357]], [[16.699921215114855, -19.174660239944597], [153.74209622137386, -82.36206070364875]], [[16.699921215114855, -19.174660239944597], [51.03670390452974, 53.45640843903609]], [[16.699921215114855, -19.174660239944597], [92.21377882926886, -37.70640207443781]], [[67.20272374403115, -32.761878625242176], [-5.117668288541424, -9.462846601453862]], [[-80.44053315719808, 4.273184276346621], [-43.00415112117418, -8.41964257657806]], [[-80.44053315719808, 4.273184276346621], [52.27945563156909, 37.928167196226994]], [[-160.933893150406, 35.87869943507836], [-148.31688686173587, -23.468043546568236]], [[19.066106849593996, -35.87869943507836], [31.947428079369992, -17.327126231905357]], [[19.066106849593996, -35.87869943507836], [-12.031326863511383, 32.802439651507164]], [[99.55946684280192, -4.273184276346621], [72.75383998074285, 76.3711675430342]], [[99.55946684280192, -4.273184276346621], [65.76369263171837, 55.71759021313585]], [[-110.61873418123353, 39.224650586827856], [-117.87324281383228, 7.975704692148736]], [[31.947428079369992, -17.327126231905357], [179.2095397183244, 33.191974874242256]], [[31.947428079369992, -17.327126231905357], [-46.84579117331582, 25.617580011093]], [[31.947428079369992, -17.327126231905357], [106.32186004134522, 7.3190774577868085]], [[31.947428079369992, -17.327126231905357], [15.881202647882496, -51.3146572740088]], [[31.947428079369992, -17.327126231905357], [-1.8194229099785686, -63.241707666746514]], [[69.38126581876648, -39.224650586827856], [18.092385159569115, 39.874497381913365]], [[-146.86956213851605, -26.919434500517394], [-159.97043299552112, 24.45868357674279]], [[-146.86956213851605, -26.919434500517394], [179.2095397183244, 33.191974874242256]], [[-146.86956213851605, -26.919434500517394], [45.59066415759169, -0.08065495800273872]], [[-146.86956213851605, -26.919434500517394], [118.40000141568544, -0.5016170734156302]], [[152.4472493366378, -45.84925961503331], [-145.16456379222433, -13.372391222538646]], [[152.4472493366378, -45.84925961503331], [146.2812926358608, 9.044327954079328]], [[-27.55275066336218, 45.84925961503331], [-30.85845258391535, -18.717399481061214]], [[-27.55275066336218, 45.84925961503331], [-9.223698558677825, 3.687676521914984]], [[33.13043786148396, 26.919434500517394], [136.99584887882583, 8.41964257657806]], [[33.13043786148396, 26.919434500517394], [153.31847181030966, 64.64857936956696]], [[33.13043786148396, 26.919434500517394], [170.08615426557188, 57.08637119381739]], [[33.13043786148396, 26.919434500517394], [47.548623836973285, 50.86095564508826]], [[33.13043786148396, 26.919434500517394], [96.76435082674412, 70.33092523017162]], [[33.13043786148396, 26.919434500517394], [119.03475981104798, 34.4280338476587]], [[-116.93948186968836, -76.82222860653869], [-43.00415112117418, -8.41964257657806]], [[171.83451433543425, -11.208216302366914], [141.18271831213752, -8.798648527894619]], [[171.83451433543425, -11.208216302366914], [179.55001045604743, 49.354230958348126]], [[171.83451433543425, -11.208216302366914], [149.14154741608465, 18.717399481061214]], [[171.83451433543425, -11.208216302366914], [107.07496505095605, -52.209526472358164]], [[-8.165485664565752, 11.208216302366914], [-46.34318749385333, 58.04095814129404]], [[-8.165485664565752, 11.208216302366914], [42.82311094048219, 60.264945916552186]], [[63.06051813031165, 76.82222860653869], [156.02550205245237, 12.096825948986606]], [[63.06051813031165, 76.82222860653869], [-5.117668288541424, -9.462846601453862]], [[171.13934888272175, -42.336080633981204], [-145.16456379222433, -13.372391222538646]], [[-8.860651117278257, 42.336080633981204], [34.83543620777569, 13.372391222538646]], [[18.092385159569115, 39.874497381913365], [-72.92503494904395, 52.209526472358164]], [[18.092385159569115, 39.874497381913365], [104.0806387180368, 7.751014975668338]], [[18.092385159569115, 39.874497381913365], [-53.70131876277954, -35.28175621786824]], [[18.092385159569115, 39.874497381913365], [-0.4499895439525769, -49.354230958348126]], [[18.092385159569115, 39.874497381913365], [79.14404786858456, 26.298088879903844]], [[18.092385159569115, 39.874497381913365], [85.29560520095892, 24.490854576884633]], [[-43.00415112117418, -8.41964257657806], [-118.5434642252299, 10.424426995398562]], [[-43.00415112117418, -8.41964257657806], [-113.17001088571747, 23.257236503360108]], [[-43.00415112117418, -8.41964257657806], [23.189731552454766, -2.278366651740719]], [[-43.00415112117418, -8.41964257657806], [-63.30199191560882, 16.363495235079554]], [[-43.00415112117418, -8.41964257657806], [-73.67813995865478, -7.3190774577868085]], [[-43.00415112117418, -8.41964257657806], [-172.21886245794764, 38.95216290303106]], [[-43.00415112117418, -8.41964257657806], [174.88233171145856, 9.462846601453862]], [[-158.6986278470931, 47.12266711954597], [155.87215843345095, -16.75038812910867]], [[-158.6986278470931, 47.12266711954597], [51.03670390452974, 53.45640843903609]], [[-158.6986278470931, 47.12266711954597], [85.29560520095892, 24.490854576884633]], [[-158.6986278470931, 47.12266711954597], [12.592780731426254, 24.873951170345734]], [[21.30137215290691, -47.12266711954597], [32.82571451129693, 9.634063771103186]], [[21.30137215290691, -47.12266711954597], [-24.12784156654906, 16.75038812910867]], [[136.99584887882583, 8.41964257657806], [163.26421894024637, -59.63541142016559]], [[-65.78905430987248, 35.35025141739854], [179.2095397183244, 33.191974874242256]], [[-65.78905430987248, 35.35025141739854], [-163.1094934327298, 16.57013304839413]], [[-65.78905430987248, 35.35025141739854], [179.55001045604743, 49.354230958348126]], [[-65.78905430987248, 35.35025141739854], [-26.681528189690365, -64.64857936956696]], [[-118.5434642252299, 10.424426995398562], [-33.71870736413921, -9.044327954079328]], [[61.45653577477011, -10.424426995398562], [96.76435082674412, 70.33092523017162]], [[-23.97449794754763, -12.096825948986606], [-12.031326863511383, 32.802439651507164]], [[-23.97449794754763, -12.096825948986606], [126.29868123722045, 35.28175621786824]], [[-23.97449794754763, -12.096825948986606], [52.27945563156909, 37.928167196226994]], [[-6.591928441356072, -54.76117178728222], [133.1542088266842, -25.617580011093]], [[173.40807155864394, 54.76117178728222], [28.220088119370896, 15.195040437115507]], [[-159.97043299552112, 24.45868357674279], [-142.72120653290372, 5.63251296100289]], [[-72.92503494904395, 52.209526472358164], [-100.18941391545901, -17.296383071506625]], [[-72.92503494904395, 52.209526472358164], [-61.59999858431458, 0.5016170734156302]], [[-111.64950282596806, 66.74111368953238], [-12.031326863511383, 32.802439651507164]], [[-111.64950282596806, 66.74111368953238], [-164.1187973521175, 51.3146572740088]], [[-111.64950282596806, 66.74111368953238], [77.81356116986879, 65.9809606009213]], [[-111.64950282596806, 66.74111368953238], [96.76435082674412, 70.33092523017162]], [[-46.34318749385333, 58.04095814129404], [37.27879346709627, -5.63251296100289]], [[-46.34318749385333, 58.04095814129404], [126.29868123722045, 35.28175621786824]], [[178.18057709002142, 63.241707666746514], [-164.1187973521175, 51.3146572740088]], [[-143.68012006127367, -76.1068689013941], [68.52643611825226, -54.50616809799716]], [[-143.68012006127367, -76.1068689013941], [141.18271831213752, -8.798648527894619]], [[141.18271831213752, -8.798648527894619], [65.76369263171837, 55.71759021313585]], [[141.18271831213752, -8.798648527894619], [163.26421894024637, -59.63541142016559]], [[141.18271831213752, -8.798648527894619], [108.95357318145224, -47.542346141564614]], [[-12.031326863511383, 32.802439651507164], [153.74209622137386, -82.36206070364875]], [[-12.031326863511383, 32.802439651507164], [77.81356116986879, 65.9809606009213]], [[32.82571451129693, 9.634063771103186], [117.63077875476372, -53.586131698840845]], [[65.76369263171837, 55.71759021313585], [-87.78622117073115, 37.70640207443781]], [[-151.7799118806291, -15.195040437115507], [-172.21886245794764, 38.95216290303106]], [[170.77630144132218, -3.687676521914984], [104.0806387180368, 7.751014975668338]], [[153.31847181030966, 64.64857936956696], [117.63077875476372, -53.586131698840845]], [[153.31847181030966, 64.64857936956696], [104.0806387180368, 7.751014975668338]], [[170.08615426557188, 57.08637119381739], [104.0806387180368, 7.751014975668338]], [[170.08615426557188, 57.08637119381739], [-87.78622117073115, 37.70640207443781]], [[155.87215843345095, -16.75038812910867], [133.65681250614668, -58.04095814129404]], [[138.077984815007, -19.29347414688362], [-41.99897283380207, -78.50519399592247]], [[77.81356116986879, 65.9809606009213], [118.40000141568544, -0.5016170734156302]], [[37.27879346709627, -5.63251296100289], [38.149770494085374, 16.919306195379875]], [[-100.18941391545901, -17.296383071506625], [-33.71870736413921, -9.044327954079328]], [[-117.87324281383228, 7.975704692148736], [-26.681528189690365, -64.64857936956696]], [[-94.70439479904108, -24.490854576884633], [15.881202647882496, -51.3146572740088]], [[-145.16456379222433, -13.372391222538646], [-5.117668288541424, -9.462846601453862]], [[-63.30199191560882, 16.363495235079554], [-33.71870736413921, -9.044327954079328]], [[-96.29495873582769, 32.02928492511511], [-33.71870736413921, -9.044327954079328]], [[-61.59999858431458, 0.5016170734156302], [-87.78622117073115, 37.70640207443781]], [[-61.59999858431458, 0.5016170734156302], [-51.218299495853486, -73.96193395151109]], [[-61.59999858431458, 0.5016170734156302], [-0.4499895439525769, -49.354230958348126]], [[-61.59999858431458, 0.5016170734156302], [-26.257903778626158, 82.36206070364875]], [[-87.78622117073115, 37.70640207443781], [36.31987993872632, 76.1068689013941]], [[-33.71870736413921, -9.044327954079328], [-53.70131876277954, -35.28175621786824]], [[-46.84579117331582, 25.617580011093], [51.03670390452974, 53.45640843903609]], [[-5.117668288541424, -9.462846601453862], [66.82998911428253, -23.257236503360108]], [[-148.31688686173587, -23.468043546568236], [-59.51182711879002, -12.40435409540415]], [[-148.31688686173587, -23.468043546568236], [146.2812926358608, 9.044327954079328]], [[-96.8462003268193, 24.947244816430445], [7.781137542052354, -38.95216290303106]], [[-172.21886245794764, 38.95216290303106], [31.68311313826415, 23.468043546568236]], [[126.29868123722045, 35.28175621786824], [-24.12784156654906, 16.75038812910867]], [[126.29868123722045, 35.28175621786824], [-107.24616001925715, -76.3711675430342]], [[138.00102716619793, 78.50519399592247], [-111.47356388174774, 54.50616809799716]], [[47.548623836973285, 50.86095564508826], [31.68311313826415, 23.468043546568236]], [[47.548623836973285, 50.86095564508826], [119.03475981104798, 34.4280338476587]], [[96.76435082674412, 70.33092523017162], [106.32186004134522, 7.3190774577868085]], [[96.76435082674412, 70.33092523017162], [38.149770494085374, 16.919306195379875]], [[96.76435082674412, 70.33092523017162], [28.220088119370896, 15.195040437115507]], [[45.59066415759169, -0.08065495800273872], [-75.91936128196319, -7.751014975668338]], [[120.48817288120999, 12.40435409540415], [31.68311313826415, 23.468043546568236]], [[120.48817288120999, 12.40435409540415], [51.03670390452974, 53.45640843903609]], [[120.48817288120999, 12.40435409540415], [108.95357318145224, -47.542346141564614]], [[106.32186004134522, 7.3190774577868085], [28.220088119370896, 15.195040437115507]], [[31.68311313826415, 23.468043546568236], [51.03670390452974, 53.45640843903609]], [[51.03670390452974, 53.45640843903609], [28.220088119370896, 15.195040437115507]], [[174.88233171145856, 9.462846601453862], [34.83543620777569, 13.372391222538646]], [[42.82311094048219, 60.264945916552186], [85.29560520095892, 24.490854576884633]], [[42.82311094048219, 60.264945916552186], [-111.47356388174774, 54.50616809799716]], [[128.78170050414653, 73.96193395151109], [-147.17428548870308, -9.634063771103186]], [[128.78170050414653, 73.96193395151109], [18.824236919681777, 7.68649141524657]], [[118.40000141568544, -0.5016170734156302], [85.29560520095892, 24.490854576884633]], [[118.40000141568544, -0.5016170734156302], [79.81058608454099, 17.296383071506625]], [[118.40000141568544, -0.5016170734156302], [107.07496505095605, -52.209526472358164]], [[-75.91936128196319, -7.751014975668338], [-1.8194229099785686, -63.241707666746514]], [[-102.18643883013122, -65.9809606009213], [-156.81026844754524, 2.278366651740719]], [[-102.18643883013122, -65.9809606009213], [-24.12784156654906, 16.75038812910867]], [[-102.18643883013122, -65.9809606009213], [108.95357318145224, -47.542346141564614]], [[-156.81026844754524, 2.278366651740719], [-62.36922124523629, 53.586131698840845]], [[-62.36922124523629, 53.586131698840845], [-26.257903778626158, 82.36206070364875]], [[-24.12784156654906, 16.75038812910867], [36.31987993872632, 76.1068689013941]], [[-26.257903778626158, 82.36206070364875], [16.890506567270176, -16.57013304839413]], [[28.220088119370896, 15.195040437115507], [107.07496505095605, -52.209526472358164]], [[167.96867313648863, -32.802439651507164], [36.31987993872632, 76.1068689013941]], [[107.07496505095605, -52.209526472358164], [20.029567004478892, -24.45868357674279]], [[20.029567004478892, -24.45868357674279], [66.82998911428253, -23.257236503360108]]]}}]}