{"type": "FeatureCollection", "name": "E8_proj_seed1085 sites", "properties": {"shape": "E8_proj_seed1085", "lock_lat": 75.0, "lock_lon": -5.0, "bearing": 210.0, "thresholds": {"close": 0.09892531138990063, "medium": 0.13489815189531904, "close_km": 11.0, "medium_km": 15.0, "dist_mode": "edge_exact"}}, "features": [{"type": "Feature", "properties": {"kind": "site", "name": "Glastonbury Tor", "dist_deg": 0.1207954, "dist_km": 13.432, "class": "medium", "dist_source": "ks_full_grid"}, "geometry": {"type": "Point", "coordinates": [-2.7, 51.0]}}, {"type": "Feature", "properties": {"kind": "site", "name": "Shaftesbury", "dist_deg": 0.1197807, "dist_km": 13.319, "class": "medium", "dist_source": "ks_full_grid"}, "geometry": {"type": "Point", "coordinates": [-2.195, 51.0]}}, {"type": "Feature", "properties": {"kind": "site", "name": "Brandenburg Gate", "dist_deg": 0.0540141, "dist_km": 6.006, "class": "close", "dist_source": "ks_full_grid"}, "geometry": {"type": "Point", "coordinates": [13.3778, 52.5164]}}, {"type": "Feature", "properties": {"kind": "site", "name": "Placa de Catalunya", "dist_deg": 0.0481126, "dist_km": 5.35, "class": "close", "dist_source": "ks_full_grid"}, "geometry": {"type": "Point", "coordinates": [2.17, 41.387]}}, {"type": "Feature", "properties": {"kind": "site", "name": "Island of the Sun", "dist_deg": 0.034231, "dist_km": 3.806, "class": "close", "dist_source": "ks_full_grid"}, "geometry": {"type": "Point", "coordinates": [-69.1717, -16.0167]}}, {"type": "Feature", "properties": {"kind": "site", "name": "Plaza Mayor Lima", "dist_deg": 0.0274652, "dist_km": 3.054, "class": "close", "dist_source": "ks_full_grid"}, "geometry": {"type": "Point", "coordinates": [-77.0306, -12.0458]}}, {"type": "Feature", "properties": {"kind": "site", "name": "Rio Ucayali-Rio Maranon confluence", "dist_deg": 0.0181269, "dist_km": 2.016, "class": "close", "dist_source": "ks_full_grid"}, "geometry": {"type": "Point", "coordinates": [-73.45, -4.45]}}, {"type": "Feature", "properties": {"kind": "site", "name": "Uluru", "dist_deg": 0.0078505, "dist_km": 0.873, "class": "close", "dist_source": "ks_full_grid"}, "geometry": {"type": "Point", "coordinates": [130.9917, -25.3433]}}, {"type": "Feature", "properties": {"kind": "site", "name": "Kata Tjuta", "dist_deg": 0.0218683, "dist_km": 2.432, "class": "close", "dist_source": "ks_full_grid"}, "geometry": {"type": "Point", "coordinates": [130.7528, -25.2981]}}, {"type": "Feature", "properties": {"kind": "site", "name": "Nourlangie Rock", "dist_deg": 0.0351356, "dist_km": 3.907, "class": "close", "dist_source": "ks_full_grid"}, "geometry": {"type": "Point", "coordinates": [132.8111, -12.8669]}}, {"type": "Feature", "properties": {"kind": "site", "name": "Hamelin Pool", "dist_deg": 0.1585147, "dist_km": 17.626, "class": "far", "dist_source": "ks_full_grid"}, "geometry": {"type": "Point", "coordinates": [114.2003, -26.435]}}, {"type": "Feature", "properties": {"kind": "site", "name": "Tirta Empul", "dist_deg": 0.0116352, "dist_km": 1.294, "class": "close", "dist_source": "ks_full_grid"}, "geometry": {"type": "Point", "coordinates": [115.3111, -8.4167]}}, {"type": "Feature", "properties": {"kind": "site", "name": "Borobudur", "dist_deg": 0.0318646, "dist_km": 3.543, "class": "close", "dist_source": "ks_full_grid"}, "geometry": {"type": "Point", "coordinates": [110.2042, -7.6081]}}, {"type": "Feature", "properties": {"kind": "site", "name": "Mount Kinabalu", "dist_deg": 0.0460298, "dist_km": 5.118, "class": "close", "dist_source": "ks_full_grid"}, "geometry": {"type": "Point", "coordinates": [116.5628, 6.0744]}}, {"type": "Feature", "properties": {"kind": "site", "name": "Mount Kailash", "dist_deg": 0.0241088, "dist_km": 2.681, "class": "close", "dist_source": "ks_full_grid"}, "geometry": {"type": "Point", "coordinates": [81.3125, 31.0675]}}, {"type": "Feature", "properties": {"kind": "site", "name": "Karakul Lake", "dist_deg": 0.0617307, "dist_km": 6.864, "class": "close", "dist_source": "ks_full_grid"}, "geometry": {"type": "Point", "coordinates": [73.4886, 39.0217]}}, {"type": "Feature", "properties": {"kind": "site", "name": "Sundarbans-Sagar Island", "dist_deg": 0.0181057, "dist_km": 2.013, "class": "close", "dist_source": "ks_full_grid"}, "geometry": {"type": "Point", "coordinates": [88.2953, 22.5564]}}, {"type": "Feature", "properties": {"kind": "site", "name": "Mount Shasta", "dist_deg": 0.015161, "dist_km": 1.686, "class": "close", "dist_source": "ks_full_grid"}, "geometry": {"type": "Point", "coordinates": [-122.31, 41.31]}}, {"type": "Feature", "properties": {"kind": "site", "name": "Kachina Peaks Wilderness", "dist_deg": 0.0691656, "dist_km": 7.691, "class": "close", "dist_source": "ks_full_grid"}, "geometry": {"type": "Point", "coordinates": [-111.6625, 35.3394]}}, {"type": "Feature", "properties": {"kind": "site", "name": "Golden Hinde", "dist_deg": 0.0049705, "dist_km": 0.553, "class": "close", "dist_source": "ks_full_grid"}, "geometry": {"type": "Point", "coordinates": [-125.4494, 49.6506]}}, {"type": "Feature", "properties": {"kind": "site", "name": "El Tule-Palenque", "dist_deg": 0.0734828, "dist_km": 8.171, "class": "close", "dist_source": "ks_full_grid"}, "geometry": {"type": "Point", "coordinates": [-91.9817, 17.51]}}, {"type": "Feature", "properties": {"kind": "site", "name": "Laguna Corcovado", "dist_deg": 0.0196497, "dist_km": 2.185, "class": "close", "dist_source": "ks_full_grid"}, "geometry": {"type": "Point", "coordinates": [-83.6167, 8.55]}}, {"type": "Feature", "properties": {"kind": "site", "name": "Cerro de la Silla", "dist_deg": 0.0068183, "dist_km": 0.758, "class": "close", "dist_source": "ks_full_grid"}, "geometry": {"type": "Point", "coordinates": [-100.3092, 25.6733]}}, {"type": "Feature", "properties": {"kind": "site", "name": "Mount Fuji", "dist_deg": 0.0376224, "dist_km": 4.183, "class": "close", "dist_source": "ks_full_grid"}, "geometry": {"type": "Point", "coordinates": [138.7317, 35.3628]}}, {"type": "Feature", "properties": {"kind": "site", "name": "Mani San", "dist_deg": 0.0654463, "dist_km": 7.277, "class": "close", "dist_source": "ks_full_grid"}, "geometry": {"type": "Point", "coordinates": [126.4347, 37.6117]}}, {"type": "Feature", "properties": {"kind": "site", "name": "Sefa Utaki", "dist_deg": 0.0035499, "dist_km": 0.395, "class": "close", "dist_source": "ks_full_grid"}, "geometry": {"type": "Point", "coordinates": [127.7669, 26.1444]}}, {"type": "Feature", "properties": {"kind": "site", "name": "Haleakala Crater", "dist_deg": 0.0399128, "dist_km": 4.438, "class": "close", "dist_source": "ks_full_grid"}, "geometry": {"type": "Point", "coordinates": [-156.1828, 20.7186]}}, {"type": "Feature", "properties": {"kind": "site", "name": "Midway Atoll", "dist_deg": 0.005279, "dist_km": 0.587, "class": "close", "dist_source": "ks_full_grid"}, "geometry": {"type": "Point", "coordinates": [-177.3833, 28.25]}}, {"type": "Feature", "properties": {"kind": "site", "name": "Mauna Loa", "dist_deg": 0.0977304, "dist_km": 10.867, "class": "close", "dist_source": "ks_full_grid"}, "geometry": {"type": "Point", "coordinates": [-155.5356, 19.7569]}}, {"type": "Feature", "properties": {"kind": "site", "name": "Lake Rotopounamu", "dist_deg": 0.0854803, "dist_km": 9.505, "class": "close", "dist_source": "ks_full_grid"}, "geometry": {"type": "Point", "coordinates": [175.7372, -39.0258]}}, {"type": "Feature", "properties": {"kind": "site", "name": "Mount Panié", "dist_deg": 0.0017565, "dist_km": 0.195, "class": "close", "dist_source": "ks_full_grid"}, "geometry": {"type": "Point", "coordinates": [164.7706, -20.5894]}}, {"type": "Feature", "properties": {"kind": "site", "name": "Macquarie Island", "dist_deg": 0.0330818, "dist_km": 3.679, "class": "close", "dist_source": "ks_full_grid"}, "geometry": {"type": "Point", "coordinates": [158.8956, -54.5947]}}, {"type": "Feature", "properties": {"kind": "site", "name": "Great Pyramid of Giza", "dist_deg": 0.032308, "dist_km": 3.592, "class": "close", "dist_source": "ks_full_grid"}, "geometry": {"type": "Point", "coordinates": [31.1342, 29.9792]}}, {"type": "Feature", "properties": {"kind": "site", "name": "Mount Sinai", "dist_deg": 0.0128606, "dist_km": 1.43, "class": "close", "dist_source": "ks_full_grid"}, "geometry": {"type": "Point", "coordinates": [33.973, 28.5394]}}, {"type": "Feature", "properties": {"kind": "site", "name": "Mount of Olives", "dist_deg": 0.0075614, "dist_km": 0.841, "class": "close", "dist_source": "ks_full_grid"}, "geometry": {"type": "Point", "coordinates": [35.2439, 31.778]}}, {"type": "Feature", "properties": {"kind": "site", "name": "Mecca", "dist_deg": 0.0282237, "dist_km": 3.138, "class": "close", "dist_source": "ks_full_grid"}, "geometry": {"type": "Point", "coordinates": [39.8147, 21.4275]}}, {"type": "Feature", "properties": {"kind": "site", "name": "Takht-e Soleiman", "dist_deg": 0.0391029, "dist_km": 4.348, "class": "close", "dist_source": "ks_full_grid"}, "geometry": {"type": "Point", "coordinates": [47.2361, 36.6033]}}, {"type": "Feature", "properties": {"kind": "site", "name": "Table Mountain", "dist_deg": 0.0080312, "dist_km": 0.893, "class": "close", "dist_source": "ks_full_grid"}, "geometry": {"type": "Point", "coordinates": [18.43, -33.9247]}}, {"type": "Feature", "properties": {"kind": "site", "name": "Pilansberg", "dist_deg": 0.0090017, "dist_km": 1.001, "class": "close", "dist_source": "ks_full_grid"}, "geometry": {"type": "Point", "coordinates": [27.0322, -25.2294]}}, {"type": "Feature", "properties": {"kind": "site", "name": "Mont-aux-Sources", "dist_deg": 0.1129972, "dist_km": 12.565, "class": "medium", "dist_source": "ks_full_grid"}, "geometry": {"type": "Point", "coordinates": [28.8847, -28.7592]}}, {"type": "Feature", "properties": {"kind": "site", "name": "Sergiev Posad", "dist_deg": 0.0451807, "dist_km": 5.024, "class": "close", "dist_source": "ks_full_grid"}, "geometry": {"type": "Point", "coordinates": [37.6175, 55.7558]}}, {"type": "Feature", "properties": {"kind": "site", "name": "Mount Konzhakovsky Kamen", "dist_deg": 0.017508, "dist_km": 1.947, "class": "close", "dist_source": "ks_full_grid"}, "geometry": {"type": "Point", "coordinates": [60.0, 59.0]}}, {"type": "Feature", "properties": {"kind": "site", "name": "Mount Elbrus", "dist_deg": 0.0697244, "dist_km": 7.753, "class": "close", "dist_source": "ks_full_grid"}, "geometry": {"type": "Point", "coordinates": [42.4392, 43.355]}}, {"type": "Feature", "properties": {"kind": "site", "name": "Po Lin Monastery", "dist_deg": 0.0666656, "dist_km": 7.413, "class": "close", "dist_source": "ks_full_grid"}, "geometry": {"type": "Point", "coordinates": [113.9078, 22.2556]}}, {"type": "Feature", "properties": {"kind": "site", "name": "Emei Shan", "dist_deg": 0.0723606, "dist_km": 8.046, "class": "close", "dist_source": "ks_full_grid"}, "geometry": {"type": "Point", "coordinates": [104.0756, 30.6511]}}, {"type": "Feature", "properties": {"kind": "site", "name": "Mount Pulag", "dist_deg": 0.0524275, "dist_km": 5.83, "class": "close", "dist_source": "ks_full_grid"}, "geometry": {"type": "Point", "coordinates": [120.8836, 16.5836]}}, {"type": "Feature", "properties": {"kind": "site", "name": "Niagara Falls", "dist_deg": 0.1676592, "dist_km": 18.643, "class": "far", "dist_source": "ks_full_grid"}, "geometry": {"type": "Point", "coordinates": [-79.0853, 43.0903]}}, {"type": "Feature", "properties": {"kind": "site", "name": "Pilot Knob State Park", "dist_deg": 0.0065392, "dist_km": 0.727, "class": "close", "dist_source": "ks_full_grid"}, "geometry": {"type": "Point", "coordinates": [-93.5533, 43.2528]}}, {"type": "Feature", "properties": {"kind": "site", "name": "Akimiski Island", "dist_deg": 0.0228332, "dist_km": 2.539, "class": "close", "dist_source": "ks_full_grid"}, "geometry": {"type": "Point", "coordinates": [-81.3172, 52.9872]}}, {"type": "Feature", "properties": {"kind": "site", "name": "Mount Dimlang", "dist_deg": 0.0381032, "dist_km": 4.237, "class": "close", "dist_source": "ks_full_grid"}, "geometry": {"type": "Point", "coordinates": [11.75, 8.5]}}, {"type": "Feature", "properties": {"kind": "site", "name": "Lake Chad", "dist_deg": 0.0047109, "dist_km": 0.524, "class": "close", "dist_source": "ks_full_grid"}, "geometry": {"type": "Point", "coordinates": [14.1, 13.3303]}}, {"type": "Feature", "properties": {"kind": "site", "name": "Isangila Falls", "dist_deg": 0.066326, "dist_km": 7.375, "class": "close", "dist_source": "ks_full_grid"}, "geometry": {"type": "Point", "coordinates": [12.0, -6.0]}}, {"type": "Feature", "properties": {"kind": "site", "name": "Marco Zero Recife", "dist_deg": 0.1144207, "dist_km": 12.723, "class": "medium", "dist_source": "ks_full_grid"}, "geometry": {"type": "Point", "coordinates": [-34.8711, -8.0633]}}, {"type": "Feature", "properties": {"kind": "site", "name": "Peter and Paul Rocks", "dist_deg": 0.0014569, "dist_km": 0.162, "class": "close", "dist_source": "ks_full_grid"}, "geometry": {"type": "Point", "coordinates": [-29.3353, -0.9169]}}, {"type": "Feature", "properties": {"kind": "site", "name": "Parnaiba River Headwaters", "dist_deg": 0.0250485, "dist_km": 2.785, "class": "close", "dist_source": "ks_full_grid"}, "geometry": {"type": "Point", "coordinates": [-43.1747, -8.3231]}}, {"type": "Feature", "properties": {"kind": "site", "name": "Plaza de Mayo", "dist_deg": 0.031869, "dist_km": 3.544, "class": "close", "dist_source": "ks_full_grid"}, "geometry": {"type": "Point", "coordinates": [-58.3722, -34.6083]}}, {"type": "Feature", "properties": {"kind": "site", "name": "Iguazu Falls", "dist_deg": 0.0459327, "dist_km": 5.107, "class": "close", "dist_source": "ks_full_grid"}, "geometry": {"type": "Point", "coordinates": [-54.4453, -25.6803]}}, {"type": "Feature", "properties": {"kind": "site", "name": "Plaza de Armas Santiago", "dist_deg": 0.0217739, "dist_km": 2.421, "class": "close", "dist_source": "ks_full_grid"}, "geometry": {"type": "Point", "coordinates": [-70.6519, -33.4431]}}, {"type": "Feature", "properties": {"kind": "site", "name": "Jebel Toubkal", "dist_deg": 2.65e-05, "dist_km": 0.003, "class": "close", "dist_source": "ks_full_grid"}, "geometry": {"type": "Point", "coordinates": [-7.9161, 31.0619]}}, {"type": "Feature", "properties": {"kind": "site", "name": "Pico de Teide", "dist_deg": 0.0675834, "dist_km": 7.515, "class": "close", "dist_source": "ks_full_grid"}, "geometry": {"type": "Point", "coordinates": [-16.6333, 28.2667]}}, {"type": "Feature", "properties": {"kind": "site", "name": "Chott el Djerid", "dist_deg": 0.0339621, "dist_km": 3.776, "class": "close", "dist_source": "ks_full_grid"}, "geometry": {"type": "Point", "coordinates": [9.5375, 33.8869]}}, {"type": "Feature", "properties": {"kind": "site", "name": "Teatro Amazonas", "dist_deg": 0.0973583, "dist_km": 10.826, "class": "close", "dist_source": "ks_full_grid"}, "geometry": {"type": "Point", "coordinates": [-60.0231, -3.1306]}}, {"type": "Feature", "properties": {"kind": "site", "name": "Angel Falls", "dist_deg": 0.0081852, "dist_km": 0.91, "class": "close", "dist_source": "ks_full_grid"}, "geometry": {"type": "Point", "coordinates": [-62.5356, 5.9675]}}, {"type": "Feature", "properties": {"kind": "site", "name": "Lago Arari", "dist_deg": 0.0128919, "dist_km": 1.433, "class": "close", "dist_source": "ks_full_grid"}, "geometry": {"type": "Point", "coordinates": [-58.75, -3.4167]}}, {"type": "Feature", "properties": {"kind": "site", "name": "Christ the Redeemer", "dist_deg": 0.072244, "dist_km": 8.033, "class": "close", "dist_source": "ks_full_grid"}, "geometry": {"type": "Point", "coordinates": [-43.2106, -22.9519]}}, {"type": "Feature", "properties": {"kind": "site", "name": "Praca dos Tres Poderes", "dist_deg": 0.0059863, "dist_km": 0.666, "class": "close", "dist_source": "ks_full_grid"}, "geometry": {"type": "Point", "coordinates": [-47.8611, -15.7997]}}, {"type": "Feature", "properties": {"kind": "site", "name": "Terreiro de Jesus", "dist_deg": 0.0004235, "dist_km": 0.047, "class": "close", "dist_source": "ks_full_grid"}, "geometry": {"type": "Point", "coordinates": [-38.51, -12.9733]}}, {"type": "Feature", "properties": {"kind": "site", "name": "High Tatra", "dist_deg": 0.0108949, "dist_km": 1.212, "class": "close", "dist_source": "ks_full_grid"}, "geometry": {"type": "Point", "coordinates": [20.0, 49.1667]}}, {"type": "Feature", "properties": {"kind": "site", "name": "Stortorget Stockholm", "dist_deg": 0.0136096, "dist_km": 1.513, "class": "close", "dist_source": "ks_full_grid"}, "geometry": {"type": "Point", "coordinates": [18.0708, 59.325]}}, {"type": "Feature", "properties": {"kind": "site", "name": "Mount Olympus", "dist_deg": 0.0474038, "dist_km": 5.271, "class": "close", "dist_source": "ks_full_grid"}, "geometry": {"type": "Point", "coordinates": [22.35, 40.0833]}}, {"type": "Feature", "properties": {"kind": "site", "name": "Arunachala Hill", "dist_deg": 0.0238839, "dist_km": 2.656, "class": "close", "dist_source": "ks_full_grid"}, "geometry": {"type": "Point", "coordinates": [79.0517, 12.2406]}}, {"type": "Feature", "properties": {"kind": "site", "name": "Piram Island", "dist_deg": 0.034107, "dist_km": 3.792, "class": "close", "dist_source": "ks_full_grid"}, "geometry": {"type": "Point", "coordinates": [72.35, 21.6]}}, {"type": "Feature", "properties": {"kind": "site", "name": "Adam’s Peak", "dist_deg": 0.0106252, "dist_km": 1.181, "class": "close", "dist_source": "ks_full_grid"}, "geometry": {"type": "Point", "coordinates": [80.4997, 6.8092]}}, {"type": "Feature", "properties": {"kind": "site", "name": "Uhuru Peak Kilimanjaro", "dist_deg": 0.1011064, "dist_km": 11.242, "class": "medium", "dist_source": "ks_full_grid"}, "geometry": {"type": "Point", "coordinates": [37.3533, -3.0758]}}, {"type": "Feature", "properties": {"kind": "site", "name": "Lake Victoria (Ukerewe Island)", "dist_deg": 0.0177172, "dist_km": 1.97, "class": "close", "dist_source": "ks_full_grid"}, "geometry": {"type": "Point", "coordinates": [32.9, -0.9833]}}, {"type": "Feature", "properties": {"kind": "site", "name": "Mount Nkungwe", "dist_deg": 0.0564221, "dist_km": 6.274, "class": "close", "dist_source": "ks_full_grid"}, "geometry": {"type": "Point", "coordinates": [29.8, -6.1167]}}, {"type": "Feature", "properties": {"kind": "site", "name": "Mount Belukha", "dist_deg": 0.0185816, "dist_km": 2.066, "class": "close", "dist_source": "ks_full_grid"}, "geometry": {"type": "Point", "coordinates": [88.9, 48.5]}}, {"type": "Feature", "properties": {"kind": "site", "name": "Uzynaral Strait", "dist_deg": 0.0011823, "dist_km": 0.132, "class": "close", "dist_source": "ks_full_grid"}, "geometry": {"type": "Point", "coordinates": [75.5, 46.6]}}, {"type": "Feature", "properties": {"kind": "site", "name": "Lake Baikal (Cape Khoboy)", "dist_deg": 0.0234788, "dist_km": 2.611, "class": "close", "dist_source": "ks_full_grid"}, "geometry": {"type": "Point", "coordinates": [107.6667, 53.1667]}}, {"type": "Feature", "properties": {"kind": "site", "name": "Forbidden City Beijing", "dist_deg": 0.0010594, "dist_km": 0.118, "class": "close", "dist_source": "ks_full_grid"}, "geometry": {"type": "Point", "coordinates": [116.4075, 39.9042]}}, {"type": "Feature", "properties": {"kind": "site", "name": "Tai Shan", "dist_deg": 0.0856944, "dist_km": 9.529, "class": "close", "dist_source": "ks_full_grid"}, "geometry": {"type": "Point", "coordinates": [117.3333, 36.5]}}, {"type": "Feature", "properties": {"kind": "site", "name": "Karakorum", "dist_deg": 0.0349597, "dist_km": 3.887, "class": "close", "dist_source": "ks_full_grid"}, "geometry": {"type": "Point", "coordinates": [102.8239, 47.1972]}}, {"type": "Feature", "properties": {"kind": "site", "name": "Boulder Colorado", "dist_deg": 0.029033, "dist_km": 3.228, "class": "close", "dist_source": "ks_full_grid"}, "geometry": {"type": "Point", "coordinates": [-105.2706, 40.015]}}, {"type": "Feature", "properties": {"kind": "site", "name": "Mount Whitney", "dist_deg": 0.0702347, "dist_km": 7.81, "class": "close", "dist_source": "ks_full_grid"}, "geometry": {"type": "Point", "coordinates": [-118.292, 36.5786]}}, {"type": "Feature", "properties": {"kind": "site", "name": "Cahokia Mounds", "dist_deg": 0.0195763, "dist_km": 2.177, "class": "close", "dist_source": "ks_full_grid"}, "geometry": {"type": "Point", "coordinates": [-90.0678, 38.6503]}}, {"type": "Feature", "properties": {"kind": "site", "name": "Three Sisters Blue Mountains", "dist_deg": 0.0509988, "dist_km": 5.671, "class": "close", "dist_source": "ks_full_grid"}, "geometry": {"type": "Point", "coordinates": [150.5, -33.75]}}, {"type": "Feature", "properties": {"kind": "site", "name": "Mount Picton Tasmania", "dist_deg": 0.0569163, "dist_km": 6.329, "class": "close", "dist_source": "ks_full_grid"}, "geometry": {"type": "Point", "coordinates": [146.6075, -43.1575]}}, {"type": "Feature", "properties": {"kind": "site", "name": "Fraser Island", "dist_deg": 0.0251671, "dist_km": 2.799, "class": "close", "dist_source": "ks_full_grid"}, "geometry": {"type": "Point", "coordinates": [153.0294, -25.3925]}}, {"type": "Feature", "properties": {"kind": "site", "name": "Cerro de Puntas", "dist_deg": 0.0094483, "dist_km": 1.051, "class": "close", "dist_source": "ks_full_grid"}, "geometry": {"type": "Point", "coordinates": [-67.2639, 18.3561]}}, {"type": "Feature", "properties": {"kind": "site", "name": "Great Exuma Island", "dist_deg": 0.0060103, "dist_km": 0.668, "class": "close", "dist_source": "ks_full_grid"}, "geometry": {"type": "Point", "coordinates": [-75.8167, 23.5167]}}, {"type": "Feature", "properties": {"kind": "site", "name": "Montego Bay", "dist_deg": 0.0006456, "dist_km": 0.072, "class": "close", "dist_source": "ks_full_grid"}, "geometry": {"type": "Point", "coordinates": [-77.9167, 18.4667]}}, {"type": "Feature", "properties": {"kind": "site", "name": "Mount Simpson PNG", "dist_deg": 0.0005602, "dist_km": 0.062, "class": "close", "dist_source": "ks_full_grid"}, "geometry": {"type": "Point", "coordinates": [148.0, -9.5]}}, {"type": "Feature", "properties": {"kind": "site", "name": "Popomanaseu", "dist_deg": 0.0217265, "dist_km": 2.416, "class": "close", "dist_source": "ks_full_grid"}, "geometry": {"type": "Point", "coordinates": [160.0667, -9.7]}}, {"type": "Feature", "properties": {"kind": "site", "name": "Puncak Jaya", "dist_deg": 0.0624381, "dist_km": 6.943, "class": "close", "dist_source": "ks_full_grid"}, "geometry": {"type": "Point", "coordinates": [138.5, -4.5]}}, {"type": "Feature", "properties": {"kind": "site", "name": "Dakar", "dist_deg": 0.0053058, "dist_km": 0.59, "class": "close", "dist_source": "ks_full_grid"}, "geometry": {"type": "Point", "coordinates": [-17.3333, 14.75]}}, {"type": "Feature", "properties": {"kind": "site", "name": "Timbuktu", "dist_deg": 0.0004131, "dist_km": 0.046, "class": "close", "dist_source": "ks_full_grid"}, "geometry": {"type": "Point", "coordinates": [-3.5, 15.0]}}, {"type": "Feature", "properties": {"kind": "site", "name": "Fogo Cape Verde", "dist_deg": 0.0100934, "dist_km": 1.122, "class": "close", "dist_source": "ks_full_grid"}, "geometry": {"type": "Point", "coordinates": [-24.3817, 14.9133]}}, {"type": "Feature", "properties": {"kind": "site", "name": "Tsodilo Hill", "dist_deg": 0.092706, "dist_km": 10.308, "class": "close", "dist_source": "ks_full_grid"}, "geometry": {"type": "Point", "coordinates": [21.7667, -18.75]}}, {"type": "Feature", "properties": {"kind": "site", "name": "Kgalagadi Transfrontier Park", "dist_deg": 0.0410827, "dist_km": 4.568, "class": "close", "dist_source": "ks_full_grid"}, "geometry": {"type": "Point", "coordinates": [20.7122, -25.2872]}}, {"type": "Feature", "properties": {"kind": "site", "name": "Great Zimbabwe", "dist_deg": 0.0559034, "dist_km": 6.216, "class": "close", "dist_source": "ks_full_grid"}, "geometry": {"type": "Point", "coordinates": [30.9275, -20.2672]}}, {"type": "Feature", "properties": {"kind": "site", "name": "Khao Nan Mia", "dist_deg": 0.0789502, "dist_km": 8.779, "class": "close", "dist_source": "ks_full_grid"}, "geometry": {"type": "Point", "coordinates": [99.5941, 8.8594]}}, {"type": "Feature", "properties": {"kind": "site", "name": "Lake Toba", "dist_deg": 0.0203088, "dist_km": 2.258, "class": "close", "dist_source": "ks_full_grid"}, "geometry": {"type": "Point", "coordinates": [98.8756, 2.6845]}}, {"type": "Feature", "properties": {"kind": "site", "name": "Angkor Wat", "dist_deg": 0.0640176, "dist_km": 7.118, "class": "close", "dist_source": "ks_full_grid"}, "geometry": {"type": "Point", "coordinates": [103.86, 13.4256]}}, {"type": "Feature", "properties": {"kind": "site", "name": "Mount Tomaniivi", "dist_deg": 0.0473862, "dist_km": 5.269, "class": "close", "dist_source": "ks_full_grid"}, "geometry": {"type": "Point", "coordinates": [178.0167, -17.6167]}}, {"type": "Feature", "properties": {"kind": "site", "name": "Tarawa Island", "dist_deg": 0.0181505, "dist_km": 2.018, "class": "close", "dist_source": "ks_full_grid"}, "geometry": {"type": "Point", "coordinates": [173.0764, 1.4403]}}, {"type": "Feature", "properties": {"kind": "site", "name": "Mount Silisili", "dist_deg": 0.0119101, "dist_km": 1.324, "class": "close", "dist_source": "ks_full_grid"}, "geometry": {"type": "Point", "coordinates": [-172.4858, -13.6183]}}, {"type": "Feature", "properties": {"kind": "site", "name": "Denali (Mount McKinley)", "dist_deg": 0.0256448, "dist_km": 2.852, "class": "close", "dist_source": "ks_full_grid"}, "geometry": {"type": "Point", "coordinates": [-149.4289, 63.0694]}}, {"type": "Feature", "properties": {"kind": "site", "name": "Great Bear Lake", "dist_deg": 0.0516446, "dist_km": 5.743, "class": "close", "dist_source": "ks_full_grid"}, "geometry": {"type": "Point", "coordinates": [-120.3833, 66.1197]}}, {"type": "Feature", "properties": {"kind": "site", "name": "Fox Islands Aleutian", "dist_deg": 0.0273805, "dist_km": 3.045, "class": "close", "dist_source": "ks_full_grid"}, "geometry": {"type": "Point", "coordinates": [-166.5833, 53.7667]}}, {"type": "Feature", "properties": {"kind": "site", "name": "Mount Maromokotro", "dist_deg": 0.0876698, "dist_km": 9.748, "class": "close", "dist_source": "ks_full_grid"}, "geometry": {"type": "Point", "coordinates": [49.4847, -13.0183]}}, {"type": "Feature", "properties": {"kind": "site", "name": "Piton des Neiges", "dist_deg": 0.0098908, "dist_km": 1.1, "class": "close", "dist_source": "ks_full_grid"}, "geometry": {"type": "Point", "coordinates": [55.7333, -21.3167]}}, {"type": "Feature", "properties": {"kind": "site", "name": "Morne Seychellois", "dist_deg": 0.029268, "dist_km": 3.255, "class": "close", "dist_source": "ks_full_grid"}, "geometry": {"type": "Point", "coordinates": [55.45, -4.6167]}}, {"type": "Feature", "properties": {"kind": "site", "name": "Mount Damavand", "dist_deg": 0.049609, "dist_km": 5.516, "class": "close", "dist_source": "ks_full_grid"}, "geometry": {"type": "Point", "coordinates": [52.1097, 35.9547]}}, {"type": "Feature", "properties": {"kind": "site", "name": "Vozrozhdeniya Island", "dist_deg": 0.0390895, "dist_km": 4.347, "class": "close", "dist_source": "ks_full_grid"}, "geometry": {"type": "Point", "coordinates": [59.1419, 45.0917]}}, {"type": "Feature", "properties": {"kind": "site", "name": "Malek Siah Kuh", "dist_deg": 0.0041199, "dist_km": 0.458, "class": "close", "dist_source": "ks_full_grid"}, "geometry": {"type": "Point", "coordinates": [60.8636, 29.4892]}}, {"type": "Feature", "properties": {"kind": "site", "name": "Klyuchevskaya Sopka", "dist_deg": 0.0486861, "dist_km": 5.414, "class": "close", "dist_source": "ks_full_grid"}, "geometry": {"type": "Point", "coordinates": [160.6428, 56.0581]}}, {"type": "Feature", "properties": {"kind": "site", "name": "Sakhalin Island", "dist_deg": 0.0539068, "dist_km": 5.994, "class": "close", "dist_source": "ks_full_grid"}, "geometry": {"type": "Point", "coordinates": [143.0028, 50.2247]}}, {"type": "Feature", "properties": {"kind": "site", "name": "Cherskiy", "dist_deg": 0.0066681, "dist_km": 0.742, "class": "close", "dist_source": "ks_full_grid"}, "geometry": {"type": "Point", "coordinates": [-115.9872, 34.6272]}}, {"type": "Feature", "properties": {"kind": "site", "name": "Easter Island", "dist_deg": 0.0222908, "dist_km": 2.479, "class": "close", "dist_source": "ks_full_grid"}, "geometry": {"type": "Point", "coordinates": [-109.3664, -27.1211]}}, {"type": "Feature", "properties": {"kind": "site", "name": "Reykjavik-Thingvellir", "dist_deg": 0.0169418, "dist_km": 1.884, "class": "close", "dist_source": "ks_full_grid"}, "geometry": {"type": "Point", "coordinates": [-21.8953, 64.1353]}}, {"type": "Feature", "properties": {"kind": "site", "name": "Callanish", "dist_deg": 0.0618877, "dist_km": 6.882, "class": "close", "dist_source": "ks_full_grid"}, "geometry": {"type": "Point", "coordinates": [-6.7367, 58.1997]}}, {"type": "Feature", "properties": {"kind": "site", "name": "Nuuk Greenland", "dist_deg": 0.0074465, "dist_km": 0.828, "class": "close", "dist_source": "ks_full_grid"}, "geometry": {"type": "Point", "coordinates": [-51.7214, 64.1836]}}, {"type": "Feature", "properties": {"kind": "site", "name": "Port Stanley", "dist_deg": 0.0373886, "dist_km": 4.157, "class": "close", "dist_source": "ks_full_grid"}, "geometry": {"type": "Point", "coordinates": [-57.8492, -51.7011]}}, {"type": "Feature", "properties": {"kind": "site", "name": "South Georgia Island", "dist_deg": 0.0146686, "dist_km": 1.631, "class": "close", "dist_source": "ks_full_grid"}, "geometry": {"type": "Point", "coordinates": [-36.75, -54.25]}}, {"type": "Feature", "properties": {"kind": "site", "name": "Lake Buenos Aires", "dist_deg": 0.0896024, "dist_km": 9.963, "class": "close", "dist_source": "ks_full_grid"}, "geometry": {"type": "Point", "coordinates": [-71.3675, -46.5033]}}, {"type": "Feature", "properties": {"kind": "site", "name": "Wood Buffalo National Park", "dist_deg": 0.0092379, "dist_km": 1.027, "class": "close", "dist_source": "ks_full_grid"}, "geometry": {"type": "Point", "coordinates": [-112.8542, 58.9239]}}, {"type": "Feature", "properties": {"kind": "site", "name": "Adelaide Peninsula", "dist_deg": 0.037549, "dist_km": 4.175, "class": "close", "dist_source": "ks_full_grid"}, "geometry": {"type": "Point", "coordinates": [-97.8, 68.0833]}}, {"type": "Feature", "properties": {"kind": "site", "name": "Bay of God’s Mercy", "dist_deg": 0.0217634, "dist_km": 2.42, "class": "close", "dist_source": "ks_full_grid"}, "geometry": {"type": "Point", "coordinates": [-84.1333, 64.6]}}, {"type": "Feature", "properties": {"kind": "site", "name": "Ascension Island", "dist_deg": 0.0803693, "dist_km": 8.937, "class": "close", "dist_source": "ks_full_grid"}, "geometry": {"type": "Point", "coordinates": [-14.3558, -7.9467]}}, {"type": "Feature", "properties": {"kind": "site", "name": "St. Helena Island", "dist_deg": 0.0763447, "dist_km": 8.489, "class": "close", "dist_source": "ks_full_grid"}, "geometry": {"type": "Point", "coordinates": [-5.7167, -15.9333]}}, {"type": "Feature", "properties": {"kind": "site", "name": "Mount Loma", "dist_deg": 0.0363878, "dist_km": 4.046, "class": "close", "dist_source": "ks_full_grid"}, "geometry": {"type": "Point", "coordinates": [-11.117, 9.217]}}, {"type": "Feature", "properties": {"kind": "site", "name": "Lena-Muna juncture", "dist_deg": 0.0581606, "dist_km": 6.467, "class": "close", "dist_source": "ks_full_grid"}, "geometry": {"type": "Point", "coordinates": [123.2833, 68.0167]}}, {"type": "Feature", "properties": {"kind": "site", "name": "Lake Ozero Taymyr", "dist_deg": 0.020536, "dist_km": 2.284, "class": "close", "dist_source": "ks_full_grid"}, "geometry": {"type": "Point", "coordinates": [101.7167, 74.5167]}}, {"type": "Feature", "properties": {"kind": "site", "name": "Tunguska", "dist_deg": 0.0712145, "dist_km": 7.919, "class": "close", "dist_source": "ks_full_grid"}, "geometry": {"type": "Point", "coordinates": [102.7861, 52.6528]}}, {"type": "Feature", "properties": {"kind": "site", "name": "Mount Ross Kerguelen", "dist_deg": 0.0154242, "dist_km": 1.715, "class": "close", "dist_source": "ks_full_grid"}, "geometry": {"type": "Point", "coordinates": [69.5, -49.5833]}}, {"type": "Feature", "properties": {"kind": "site", "name": "Big Ben Heard Island", "dist_deg": 0.0171012, "dist_km": 1.902, "class": "close", "dist_source": "ks_full_grid"}, "geometry": {"type": "Point", "coordinates": [73.525, -53.1083]}}, {"type": "Feature", "properties": {"kind": "site", "name": "Prydz Bay", "dist_deg": 0.0116324, "dist_km": 1.294, "class": "close", "dist_source": "ks_full_grid"}, "geometry": {"type": "Point", "coordinates": [75.0, -69.0]}}, {"type": "Feature", "properties": {"kind": "site", "name": "Mount Lamlam Guam", "dist_deg": 0.0111101, "dist_km": 1.235, "class": "close", "dist_source": "ks_full_grid"}, "geometry": {"type": "Point", "coordinates": [144.6628, 13.3386]}}, {"type": "Feature", "properties": {"kind": "site", "name": "Yap Island", "dist_deg": 0.0038138, "dist_km": 0.424, "class": "close", "dist_source": "ks_full_grid"}, "geometry": {"type": "Point", "coordinates": [134.3833, -2.55]}}, {"type": "Feature", "properties": {"kind": "site", "name": "Nan Madol", "dist_deg": 0.0212828, "dist_km": 2.366, "class": "close", "dist_source": "ks_full_grid"}, "geometry": {"type": "Point", "coordinates": [158.3358, 6.8444]}}, {"type": "Feature", "properties": {"kind": "site", "name": "Mount Orohena", "dist_deg": 0.025131, "dist_km": 2.794, "class": "close", "dist_source": "ks_full_grid"}, "geometry": {"type": "Point", "coordinates": [-149.4842, -17.6197]}}, {"type": "Feature", "properties": {"kind": "site", "name": "Hivaoa Island", "dist_deg": 0.0863054, "dist_km": 9.597, "class": "close", "dist_source": "ks_full_grid"}, "geometry": {"type": "Point", "coordinates": [-139.0211, -9.7547]}}, {"type": "Feature", "properties": {"kind": "site", "name": "Kiritimati (Christmas Island)", "dist_deg": 0.0442375, "dist_km": 4.919, "class": "close", "dist_source": "ks_full_grid"}, "geometry": {"type": "Point", "coordinates": [-157.4278, 1.8722]}}, {"type": "Feature", "properties": {"kind": "site", "name": "Graciosa Azores", "dist_deg": 0.0536766, "dist_km": 5.969, "class": "close", "dist_source": "ks_full_grid"}, "geometry": {"type": "Point", "coordinates": [-28.0069, 39.0525]}}, {"type": "Feature", "properties": {"kind": "site", "name": "St. George’s Island Bermuda", "dist_deg": 0.0033145, "dist_km": 0.369, "class": "close", "dist_source": "ks_full_grid"}, "geometry": {"type": "Point", "coordinates": [-64.7786, 32.2811]}}, {"type": "Feature", "properties": {"kind": "site", "name": "Lisbon Portugal", "dist_deg": 0.0534532, "dist_km": 5.944, "class": "close", "dist_source": "ks_full_grid"}, "geometry": {"type": "Point", "coordinates": [-9.1356, 38.7069]}}, {"type": "Feature", "properties": {"kind": "site", "name": "Longyearbyen Spitsbergen", "dist_deg": 0.0048377, "dist_km": 0.538, "class": "close", "dist_source": "ks_full_grid"}, "geometry": {"type": "Point", "coordinates": [18.1642, 78.6481]}}, {"type": "Feature", "properties": {"kind": "site", "name": "Independence Fjord", "dist_deg": 0.0403053, "dist_km": 4.482, "class": "close", "dist_source": "ks_full_grid"}, "geometry": {"type": "Point", "coordinates": [-28.2725, 81.9247]}}, {"type": "Feature", "properties": {"kind": "site", "name": "Yuzhny Novaya Zemlya", "dist_deg": 0.0649736, "dist_km": 7.225, "class": "close", "dist_source": "ks_full_grid"}, "geometry": {"type": "Point", "coordinates": [80.3667, 73.4833]}}, {"type": "Feature", "properties": {"kind": "site", "name": "Mount Hope Antarctica", "dist_deg": 0.0386564, "dist_km": 4.298, "class": "close", "dist_source": "ks_full_grid"}, "geometry": {"type": "Point", "coordinates": [171.0, -83.75]}}, {"type": "Feature", "properties": {"kind": "site", "name": "Bear Island Antarctica", "dist_deg": 0.0613221, "dist_km": 6.819, "class": "close", "dist_source": "ks_full_grid"}, "geometry": {"type": "Point", "coordinates": [-67.06, -68.18]}}, {"type": "Feature", "properties": {"kind": "site", "name": "Elephant Island", "dist_deg": 0.0136764, "dist_km": 1.521, "class": "close", "dist_source": "ks_full_grid"}, "geometry": {"type": "Point", "coordinates": [-55.1167, -61.1333]}}, {"type": "Feature", "properties": {"kind": "site", "name": "South Pole", "dist_deg": 0.0408304, "dist_km": 4.54, "class": "close", "dist_source": "ks_full_grid"}, "geometry": {"type": "Point", "coordinates": [0.0, -90.0]}}, {"type": "Feature", "properties": {"kind": "site", "name": "South Magnetic Pole", "dist_deg": 0.0096877, "dist_km": 1.077, "class": "close", "dist_source": "ks_full_grid"}, "geometry": {"type": "Point", "coordinates": [138.0, -67.0]}}, {"type": "Feature", "properties": {"kind": "site", "name": "Sanae Antarctica", "dist_deg": 0.0139503, "dist_km": 1.551, "class": "close", "dist_source": "ks_full_grid"}, "geometry": {"type": "Point", "coordinates": [127.5233, -71.6728]}}, {"type": "Feature", "properties": {"kind": "site", "name": "Halifax Nova Scotia", "dist_deg": 0.0858879, "dist_km": 9.55, "class": "close", "dist_source": "ks_full_grid"}, "geometry": {"type": "Point", "coordinates": [-63.5753, 44.6489]}}, {"type": "Feature", "properties": {"kind": "site", "name": "Washington DC", "dist_deg": 0.0220497, "dist_km": 2.452, "class": "close", "dist_source": "ks_full_grid"}, "geometry": {"type": "Point", "coordinates": [-77.0364, 38.895]}}]}