{"type": "FeatureCollection", "name": "E8_proj_seed797 grid", "properties": {"shape": "E8_proj_seed797", "lock_lat": -65.0, "lock_lon": -65.0, "bearing": 90.0}, "features": [{"type": "Feature", "properties": {"kind": "grid_vertices", "shape": "E8_proj_seed797", "count": 240, "ids": ["V1", "V2", "V3", "V4", "V5", "V6", "V7", "V8", "V9", "V10", "V11", "V12", "V13", "V14", "V15", "V16", "V17", "V18", "V19", "V20", "V21", "V22", "V23", "V24", "V25", "V26", "V27", "V28", "V29", "V30", "V31", "V32", "V33", "V34", "V35", "V36", "V37", "V38", "V39", "V40", "V41", "V42", "V43", "V44", "V45", "V46", "V47", "V48", "V49", "V50", "V51", "V52", "V53", "V54", "V55", "V56", "V57", "V58", "V59", "V60", "V61", "V62", "V63", "V64", "V65", "V66", "V67", "V68", "V69", "V70", "V71", "V72", "V73", "V74", "V75", "V76", "V77", "V78", "V79", "V80", "V81", "V82", "V83", "V84", "V85", "V86", "V87", "V88", "V89", "V90", "V91", "V92", "V93", "V94", "V95", "V96", "V97", "V98", "V99", "V100", "V101", "V102", "V103", "V104", "V105", "V106", "V107", "V108", "V109", "V110", "V111", "V112", "V113", "V114", "V115", "V116", "V117", "V118", "V119", "V120", "V121", "V122", "V123", "V124", "V125", "V126", "V127", "V128", "V129", "V130", "V131", "V132", "V133", "V134", "V135", "V136", "V137", "V138", "V139", "V140", "V141", "V142", "V143", "V144", "V145", "V146", "V147", "V148", "V149", "V150", "V151", "V152", "V153", "V154", "V155", "V156", "V157", "V158", "V159", "V160", "V161", "V162", "V163", "V164", "V165", "V166", "V167", "V168", "V169", "V170", "V171", "V172", "V173", "V174", "V175", "V176", "V177", "V178", "V179", "V180", "V181", "V182", "V183", "V184", "V185", "V186", "V187", "V188", "V189", "V190", "V191", "V192", "V193", "V194", "V195", "V196", "V197", "V198", "V199", "V200", "V201", "V202", "V203", "V204", "V205", "V206", "V207", "V208", "V209", "V210", "V211", "V212", "V213", "V214", "V215", "V216", "V217", "V218", "V219", "V220", "V221", "V222", "V223", "V224", "V225", "V226", "V227", "V228", "V229", "V230", "V231", "V232", "V233", "V234", "V235", "V236", "V237", "V238", "V239", "V240"]}, "geometry": {"type": "MultiPoint", "coordinates": [[-107.55672090924386, -73.45841836601986], [-140.45043794221212, 8.054274699124198], [39.549562057787895, -8.054274699124198], [72.44327909075615, 73.45841836601986], [-94.59298308538482, 16.95319746365822], [-147.22426546503246, -42.78066488857168], [32.77573453496754, 42.78066488857168], [85.40701691461517, -16.95319746365822], [-139.24873337912265, -72.5698419784295], [-132.7116614718461, -16.944565275364585], [47.288338528153915, 16.944565275364585], [40.751266620877374, 72.5698419784295], [-162.8043784232621, -27.749814621865447], [-77.98732213672382, -22.55769721204007], [102.0126778632762, 22.55769721204007], [17.195621576737913, 27.749814621865447], [149.60594565880382, -14.90017268085148], [-92.25235917518702, -21.7532627237331], [87.74764082481298, 21.7532627237331], [-30.394054341196185, 14.90017268085148], [-163.33921036266563, -53.99315946831653], [-107.31761766570871, 8.686931448000088], [72.68238233429129, -8.686931448000088], [16.66078963733439, 53.99315946831653], [-71.41525389198405, -71.38434528727653], [-148.08220996531674, 8.154277933718365], [31.917790034683282, -8.154277933718365], [108.58474610801596, 71.38434528727653], [19.749837245065688, -2.0484963895431583], [117.17071693912176, -83.55838038242351], [-62.82928306087825, 83.55838038242351], [-160.2501627549343, 2.0484963895431583], [39.346739454104444, -35.10749369998085], [-81.50784191068958, -70.06546835056355], [98.49215808931042, 70.06546835056355], [-140.65326054589556, 35.10749369998085], [122.39184367687761, -59.99376486670921], [2.4735224160981533, -23.74011123393527], [-177.52647758390185, 23.74011123393527], [-57.6081563231224, 59.99376486670921], [91.54978468243105, -19.34329744174782], [-45.70515956212784, -33.871369637948234], [134.29484043787218, 33.871369637948234], [-88.45021531756895, 19.34329744174782], [72.82439313774823, -65.97387010955548], [-7.860085035612246, -2.8383734063615047], [172.13991496438777, 2.8383734063615047], [-107.17560686225177, 65.97387010955548], [20.767562360888252, -49.60097891773292], [167.82758183654948, 6.027853316676902], [-12.172418163450528, -6.027853316676902], [-159.23243763911177, 49.60097891773292], [31.40661755534798, 28.121882897920983], [-73.92316491168256, 63.36313189376482], [106.07683508831745, -63.36313189376482], [-148.593382444652, -28.121882897920983], [124.62893948573593, 53.04677560314051], [-4.001992087239703, 34.42184814050703], [175.99800791276033, -34.42184814050703], [-55.371060514264094, -53.04677560314051], [88.61639564662244, 33.43148792955343], [-47.45827175876134, 17.535441958569763], [132.54172824123864, -17.535441958569763], [-91.38360435337756, -33.43148792955343], [60.634680550700054, -0.10216495361623293], [-16.72607854086916, 58.368391825535916], [163.27392145913083, -58.368391825535916], [-119.36531944929996, 0.10216495361623293], [13.683284185148338, -2.897001848362935], [-153.79493802831746, 82.14329241841143], [26.20506197168255, -82.14329241841143], [-166.31671581485168, 2.897001848362935], [115.16580964991816, -20.318575379164194], [13.509049385919472, 5.152350348095897], [-166.49095061408053, -5.152350348095897], [-64.83419035008184, 20.318575379164194], [92.48558973709405, 3.927378350575219], [-39.202636749715936, -13.417050315919708], [140.79736325028406, 13.417050315919708], [-87.51441026290597, -3.927378350575219], [79.66358914588344, -42.40897028937873], [10.29850645987174, 40.16039545199686], [-169.70149354012827, -40.16039545199686], [-100.33641085411658, 42.40897028937873], [30.628659313322924, -32.23675222385046], [135.1310306655889, 58.92290950357599], [-44.86896933441111, -58.92290950357599], [-149.3713406866771, 32.23675222385046], [131.00123496518614, 0.2772635753922359], [-103.17850784097514, -20.29122151004187], [76.82149215902486, 20.29122151004187], [-48.998765034813864, -0.2772635753922359], [151.73930981621356, -37.20010992837261], [-161.84361081835837, 45.02075579349391], [18.15638918164162, -45.02075579349391], [-28.260690183786448, 37.20010992837261], [94.79632739175774, -67.32324992625983], [179.92390557001784, 20.961042770227085], [-0.07609442998217297, -20.961042770227085], [-85.20367260824226, 67.32324992625983], [116.0848771923109, -15.340027943417875], [104.31484599267834, 44.20929294186398], [-75.68515400732167, -44.20929294186398], [-63.915122807689116, 15.340027943417875], [81.64327649341828, -20.76959634604688], [139.37535354177805, 30.78821706953368], [-40.624646458221946, -30.78821706953368], [-98.35672350658172, 20.76959634604688], [51.41265022409205, -64.05661354619149], [171.03543972590884, 3.6599866211789487], [-8.964560274091168, -3.6599866211789487], [-128.58734977590797, 64.05661354619149], [89.00838303582765, -43.296618834808434], [126.72885589175942, 29.564769742252963], [-120.37390502428998, -52.51529254640093], [-31.184385425834567, -30.894167456353824], [85.81986104012387, -7.846407791353458], [28.18039272414928, -7.841721030446787], [-14.53662196318028, -38.79803768931711], [-46.52857746989326, 17.77354171424186], [158.93869599805416, -9.79503180585374], [115.6502651859802, -41.58199727207036], [-81.27262474364878, -61.99281642798882], [-106.50311821367293, 12.968189259682285], [51.87824774563096, -54.50589708979883], [-130.24026069343472, 77.11927338788071], [-82.80511687074262, -12.085783086125375], [-46.11368401085226, -9.89385451897057], [146.81663919323648, -33.68468985767198], [110.30476333487216, -56.48793600727502], [-93.19707670364276, -82.93779932043246], [-119.7867453367441, -28.538404775597797], [73.96934674193375, -61.52174979098769], [129.11191375251582, -16.61432373690674], [-88.21975109946325, -57.35508608081057], [-38.0129864850219, -39.4021822349198], [151.15704844140956, -56.80586645844998], [-178.84102458557985, -8.508872913272826], [-141.60824965055377, -36.675776908292725], [-98.76215591540992, -46.97825148034611], [172.11014348251072, -37.34814459421822], [-20.786727824088842, -83.72681423032776], [-71.59756052564529, -59.74156527497177], [-95.1518658461581, -8.35081894105643], [150.21008036075682, 18.01578321328935], [108.25408756192626, 34.72964281980577], [-81.13083722440842, -53.49994415510513], [-112.1252712579371, 42.51608456958004], [65.32652199222457, -9.825714844778833], [139.99629906201525, 82.42903455222537], [-83.19164537895684, 28.5330047350717], [-40.70066176925232, 14.15930740677045], [156.5435754218319, -13.884067876109004], [-172.60421323058722, 42.42791977684805], [-135.67176762546197, 11.775374180507454], [-94.34991867064318, 11.667549996579055], [-178.93117569650002, 40.29089532573908], [-48.57887873649522, 70.49374535973925], [-70.35847987137252, -12.2428907396799], [-92.11159550447626, 36.66022726279503], [142.53213158667174, -39.22544476971604], [171.87826362359317, 16.898335941761907], [-150.0534198979737, -18.387869638152242], [-103.33738985071449, -31.040772855001208], [159.35398990223115, -3.443922484562297], [77.4917718101529, -31.358457161161194], [-68.49135076684594, -53.97562222139043], [-97.67452125456543, 18.840393936150317], [177.9999182789928, -4.574488383619276], [-175.8448820623078, -11.65884342248644], [-132.998910716528, -40.31407344172434], [-131.4731006575543, 8.877623871410774], [173.76577434334845, -47.676839256022966], [-156.555388236, 30.758426986548013], [-122.57425897438019, -6.313231082489274], [-85.52025703401227, -9.06220022852162], [94.47974296598774, 9.06220022852162], [57.425741025619836, 6.313231082489274], [23.444611764, -30.758426986548013], [-6.234225656651558, 47.676839256022966], [48.52689934244569, -8.877623871410774], [47.00108928347202, 40.31407344172434], [4.155117937692212, 11.65884342248644], [-2.0000817210072173, 4.574488383619276], [82.32547874543457, -18.840393936150317], [111.50864923315407, 53.97562222139043], [-102.50822818984712, 31.358457161161194], [-20.646010097768873, 3.443922484562297], [76.66261014928551, 31.040772855001208], [29.9465801020263, 18.387869638152242], [-8.121736376406849, -16.898335941761907], [-37.46786841332829, 39.22544476971604], [87.88840449552374, -36.66022726279503], [109.64152012862749, 12.2428907396799], [131.42112126350477, -70.49374535973925], [1.068824303499988, -40.29089532573908], [85.65008132935682, -11.667549996579055], [44.32823237453804, -11.775374180507454], [7.395786769412787, -42.42791977684805], [-23.45642457816812, 13.884067876109004], [139.29933823074768, -14.15930740677045], [96.80835462104318, -28.5330047350717], [-40.003700937984746, -82.42903455222537], [-114.67347800777544, 9.825714844778833], [67.87472874206289, -42.51608456958004], [98.86916277559159, 53.49994415510513], [-71.74591243807374, -34.72964281980577], [-29.789919639243188, -18.01578321328935], [84.84813415384191, 8.35081894105643], [108.40243947435472, 59.74156527497177], [159.21327217591116, 83.72681423032776], [-7.889856517489286, 37.34814459421822], [81.23784408459008, 46.97825148034611], [38.39175034944622, 36.675776908292725], [1.1589754144201845, 8.508872913272826], [-28.842951558590446, 56.80586645844998], [141.98701351497812, 39.4021822349198], [91.78024890053675, 57.35508608081057], [-50.888086247484196, 16.61432373690674], [-106.03065325806625, 61.52174979098769], [60.2132546632559, 28.538404775597797], [86.80292329635724, 82.93779932043246], [-69.69523666512785, 56.48793600727502], [-33.18336080676353, 33.68468985767198], [133.88631598914776, 9.89385451897057], [97.19488312925739, 12.085783086125375], [49.7597393065653, -77.11927338788071], [-128.12175225436903, 54.50589708979883], [73.49688178632708, -12.968189259682285], [98.72737525635124, 61.99281642798882], [-64.34973481401981, 41.58199727207036], [-21.061304001945857, 9.79503180585374], [133.47142253010676, -17.77354171424186], [165.4633780368197, 38.79803768931711], [-151.81960727585073, 7.841721030446787], [-94.18013895987613, 7.846407791353458], [148.81561457416544, 30.894167456353824], [59.626094975710025, 52.51529254640093], [-53.271144108240584, -29.564769742252963], [-90.99161696417235, 43.296618834808434]]}}, {"type": "Feature", "properties": {"kind": "grid_edges", "shape": "E8_proj_seed797", "count": 329, "ids": ["E1", "E2", "E3", "E4", "E5", "E6", "E7", "E8", "E9", "E10", "E11", "E12", "E13", "E14", "E15", "E16", "E17", "E18", "E19", "E20", "E21", "E22", "E23", "E24", "E25", "E26", "E27", "E28", "E29", "E30", "E31", "E32", "E33", "E34", "E35", "E36", "E37", "E38", "E39", "E40", "E41", "E42", "E43", "E44", "E45", "E46", "E47", "E48", "E49", "E50", "E51", "E52", "E53", "E54", "E55", "E56", "E57", "E58", "E59", "E60", "E61", "E62", "E63", "E64", "E65", "E66", "E67", "E68", "E69", "E70", "E71", "E72", "E73", "E74", "E75", "E76", "E77", "E78", "E79", "E80", "E81", "E82", "E83", "E84", "E85", "E86", "E87", "E88", "E89", "E90", "E91", "E92", "E93", "E94", "E95", "E96", "E97", "E98", "E99", "E100", "E101", "E102", "E103", "E104", "E105", "E106", "E107", "E108", "E109", "E110", "E111", "E112", "E113", "E114", "E115", "E116", "E117", "E118", "E119", "E120", "E121", "E122", "E123", "E124", "E125", "E126", "E127", "E128", "E129", "E130", "E131", "E132", "E133", "E134", "E135", "E136", "E137", "E138", "E139", "E140", "E141", "E142", "E143", "E144", "E145", "E146", "E147", "E148", "E149", "E150", "E151", "E152", "E153", "E154", "E155", "E156", "E157", "E158", "E159", "E160", "E161", "E162", "E163", "E164", "E165", "E166", "E167", "E168", "E169", "E170", "E171", "E172", "E173", "E174", "E175", "E176", "E177", "E178", "E179", "E180", "E181", "E182", "E183", "E184", "E185", "E186", "E187", "E188", "E189", "E190", "E191", "E192", "E193", "E194", "E195", "E196", "E197", "E198", "E199", "E200", "E201", "E202", "E203", "E204", "E205", "E206", "E207", "E208", "E209", "E210", "E211", "E212", "E213", "E214", "E215", "E216", "E217", "E218", "E219", "E220", "E221", "E222", "E223", "E224", "E225", "E226", "E227", "E228", "E229", "E230", "E231", "E232", "E233", "E234", "E235", "E236", "E237", "E238", "E239", "E240", "E241", "E242", "E243", "E244", "E245", "E246", "E247", "E248", "E249", "E250", "E251", "E252", "E253", "E254", "E255", "E256", "E257", "E258", "E259", "E260", "E261", "E262", "E263", "E264", "E265", "E266", "E267", "E268", "E269", "E270", "E271", "E272", "E273", "E274", "E275", "E276", "E277", "E278", "E279", "E280", "E281", "E282", "E283", "E284", "E285", "E286", "E287", "E288", "E289", "E290", "E291", "E292", "E293", "E294", "E295", "E296", "E297", "E298", "E299", "E300", "E301", "E302", "E303", "E304", "E305", "E306", "E307", "E308", "E309", "E310", "E311", "E312", "E313", "E314", "E315", "E316", "E317", "E318", "E319", "E320", "E321", "E322", "E323", "E324", "E325", "E326", "E327", "E328", "E329"], "pairs": [[0, 16], [0, 44], [0, 127], [1, 152], [2, 11], [2, 23], [2, 185], [2, 198], [2, 205], [3, 27], [3, 231], [4, 61], [4, 116], [4, 144], [6, 60], [6, 61], [6, 189], [6, 208], [6, 220], [7, 23], [7, 234], [7, 239], [8, 77], [8, 117], [8, 148], [9, 152], [10, 193], [10, 230], [11, 83], [11, 184], [11, 186], [11, 187], [11, 201], [11, 203], [11, 216], [11, 235], [12, 145], [13, 116], [13, 125], [14, 89], [14, 179], [14, 219], [14, 234], [15, 75], [15, 188], [15, 238], [16, 42], [16, 88], [17, 77], [18, 100], [18, 101], [18, 233], [19, 41], [20, 120], [22, 218], [23, 181], [23, 199], [23, 211], [23, 225], [24, 127], [24, 157], [25, 69], [25, 85], [26, 202], [26, 213], [27, 191], [27, 194], [27, 215], [28, 49], [28, 65], [28, 69], [28, 178], [29, 44], [29, 59], [29, 62], [29, 135], [30, 52], [30, 60], [30, 145], [30, 148], [30, 150], [30, 216], [31, 67], [32, 113], [32, 179], [33, 36], [33, 185], [34, 150], [34, 162], [34, 213], [34, 215], [35, 152], [35, 172], [35, 219], [36, 97], [36, 193], [37, 40], [37, 91], [37, 127], [37, 142], [38, 58], [39, 156], [39, 158], [39, 230], [40, 78], [40, 88], [40, 181], [41, 182], [42, 101], [42, 156], [42, 160], [43, 162], [43, 222], [44, 49], [44, 82], [45, 93], [45, 193], [45, 203], [46, 146], [46, 166], [46, 214], [46, 218], [47, 50], [47, 65], [47, 110], [47, 163], [48, 187], [49, 182], [49, 194], [50, 155], [50, 220], [51, 99], [51, 107], [52, 77], [52, 113], [52, 181], [53, 153], [54, 81], [54, 167], [55, 205], [56, 89], [56, 92], [57, 69], [57, 73], [57, 222], [58, 161], [58, 203], [58, 227], [59, 143], [61, 178], [62, 224], [62, 229], [62, 237], [64, 120], [65, 81], [65, 159], [67, 110], [67, 197], [68, 86], [68, 122], [69, 159], [69, 176], [69, 182], [70, 160], [72, 176], [73, 119], [73, 135], [73, 149], [74, 120], [75, 141], [75, 143], [75, 156], [75, 206], [75, 238], [76, 105], [77, 91], [77, 182], [77, 214], [77, 231], [78, 101], [78, 189], [80, 150], [80, 166], [80, 212], [82, 220], [83, 175], [83, 185], [83, 217], [84, 145], [85, 116], [85, 162], [85, 227], [86, 158], [86, 237], [88, 144], [88, 152], [88, 232], [89, 178], [90, 221], [91, 118], [91, 150], [91, 167], [91, 175], [91, 206], [92, 216], [93, 129], [94, 102], [94, 109], [94, 158], [94, 222], [95, 117], [95, 207], [95, 221], [95, 237], [96, 187], [96, 195], [96, 232], [97, 128], [98, 104], [98, 175], [99, 109], [99, 206], [101, 105], [101, 117], [101, 125], [101, 205], [102, 109], [102, 186], [102, 222], [103, 147], [103, 227], [104, 169], [105, 221], [106, 142], [106, 214], [106, 223], [108, 172], [108, 192], [109, 138], [109, 200], [110, 157], [110, 163], [111, 133], [111, 193], [113, 114], [113, 147], [115, 147], [116, 164], [118, 122], [119, 126], [120, 137], [121, 157], [123, 185], [125, 126], [126, 127], [126, 188], [127, 139], [127, 142], [127, 187], [128, 162], [132, 204], [133, 197], [135, 141], [136, 172], [141, 142], [141, 173], [142, 158], [142, 198], [144, 212], [146, 152], [146, 208], [146, 211], [147, 154], [148, 151], [149, 165], [151, 158], [152, 220], [155, 211], [156, 220], [158, 159], [158, 174], [159, 223], [160, 168], [160, 225], [161, 225], [162, 171], [162, 226], [162, 230], [163, 195], [166, 230], [168, 200], [172, 236], [173, 205], [176, 186], [178, 218], [180, 181], [181, 212], [182, 206], [184, 188], [187, 217], [188, 221], [188, 222], [188, 236], [189, 191], [193, 197], [193, 200], [194, 198], [195, 225], [195, 231], [199, 230], [200, 202], [200, 205], [200, 236], [203, 227], [205, 207], [205, 239], [208, 218], [209, 211], [210, 211], [211, 219], [212, 213], [212, 222], [213, 223], [215, 227], [217, 220], [220, 223], [221, 233], [224, 229], [232, 237]], "support_counts": [1, 1, 1, 1, 1, 1, 1, 1, 1, 1, 1, 1, 1, 1, 1, 1, 1, 1, 1, 1, 2, 1, 1, 1, 1, 1, 1, 1, 1, 1, 1, 1, 1, 1, 1, 1, 1, 1, 1, 1, 1, 1, 1, 1, 1, 1, 1, 1, 1, 1, 1, 1, 1, 1, 1, 1, 1, 1, 1, 1, 1, 1, 2, 1, 1, 1, 1, 1, 1, 1, 1, 1, 1, 1, 1, 1, 1, 1, 1, 1, 1, 1, 1, 1, 1, 1, 2, 1, 1, 1, 1, 1, 1, 1, 1, 1, 1, 1, 1, 1, 1, 1, 1, 1, 1, 1, 1, 1, 1, 1, 1, 1, 1, 1, 1, 1, 1, 1, 1, 1, 1, 1, 1, 1, 1, 1, 1, 1, 1, 1, 1, 1, 1, 1, 1, 1, 1, 1, 1, 1, 1, 1, 1, 1, 1, 1, 1, 1, 1, 1, 1, 1, 1, 1, 1, 1, 1, 1, 1, 1, 1, 1, 1, 1, 1, 1, 1, 1, 1, 1, 1, 1, 1, 1, 1, 1, 1, 1, 2, 1, 1, 1, 1, 1, 1, 1, 1, 1, 1, 1, 1, 1, 1, 1, 1, 1, 1, 1, 1, 1, 1, 1, 1, 1, 1, 1, 1, 1, 1, 1, 1, 1, 1, 1, 1, 1, 1, 1, 1, 1, 1, 1, 1, 1, 1, 1, 1, 1, 1, 1, 1, 1, 1, 1, 1, 1, 1, 1, 2, 1, 1, 1, 1, 1, 1, 1, 1, 1, 1, 1, 1, 1, 1, 1, 1, 1, 1, 1, 1, 1, 1, 1, 1, 1, 1, 1, 1, 1, 1, 1, 2, 1, 1, 1, 1, 1, 1, 1, 1, 1, 1, 1, 2, 1, 1, 1, 1, 1, 1, 1, 1, 1, 1, 1, 1, 1, 1, 1, 1, 1, 1, 1, 1, 1, 1, 1, 1, 1, 1, 1, 1, 1, 1, 1, 1, 1, 1, 1, 1, 1, 1, 1, 1, 1, 1, 1, 1, 1, 1], "support_class": ["single", "single", "single", "single", "single", "single", "single", "single", "single", "single", "single", "single", "single", "single", "single", "single", "single", "single", "single", "single", "shared", "single", "single", "single", "single", "single", "single", "single", "single", "single", "single", "single", "single", "single", "single", "single", "single", "single", "single", "single", "single", "single", "single", "single", "single", "single", "single", "single", "single", "single", "single", "single", "single", "single", "single", "single", "single", "single", "single", "single", "single", "single", "shared", "single", "single", "single", "single", "single", "single", "single", "single", "single", "single", "single", "single", "single", "single", "single", "single", "single", "single", "single", "single", "single", "single", "single", "shared", "single", "single", "single", "single", "single", "single", "single", "single", "single", "single", "single", "single", "single", "single", "single", "single", "single", "single", "single", "single", "single", "single", "single", "single", "single", "single", "single", "single", "single", "single", "single", "single", "single", "single", "single", "single", "single", "single", "single", "single", "single", "single", "single", "single", "single", "single", "single", "single", "single", "single", "single", "single", "single", "single", "single", "single", "single", "single", "single", "single", "single", "single", "single", "single", "single", "single", "single", "single", "single", "single", "single", "single", "single", "single", "single", "single", "single", "single", "single", "single", "single", "single", "single", "single", "single", "single", "single", "single", "single", "single", "single", "shared", "single", "single", "single", "single", "single", "single", "single", "single", "single", "single", "single", "single", "single", "single", "single", "single", "single", "single", "single", "single", "single", "single", "single", "single", "single", "single", "single", "single", "single", "single", "single", "single", "single", "single", "single", "single", "single", "single", "single", "single", "single", "single", "single", "single", "single", "single", "single", "single", "single", "single", "single", "single", "single", "single", "single", "single", "single", "single", "single", "shared", "single", "single", "single", "single", "single", "single", "single", "single", "single", "single", "single", "single", "single", "single", "single", "single", "single", "single", "single", "single", "single", "single", "single", "single", "single", "single", "single", "single", "single", "single", "single", "shared", "single", "single", "single", "single", "single", "single", "single", "single", "single", "single", "single", "shared", "single", "single", "single", "single", "single", "single", "single", "single", "single", "single", "single", "single", "single", "single", "single", "single", "single", "single", "single", "single", "single", "single", "single", "single", "single", "single", "single", "single", "single", "single", "single", "single", "single", "single", "single", "single", "single", "single", "single", "single", "single", "single", "single", "single", "single", "single"]}, "geometry": {"type": "MultiLineString", "coordinates": [[[-107.55672090924386, -73.45841836601986], [149.60594565880382, -14.90017268085148]], [[-107.55672090924386, -73.45841836601986], [72.82439313774823, -65.97387010955548]], [[-107.55672090924386, -73.45841836601986], [-46.11368401085226, -9.89385451897057]], [[-140.45043794221212, 8.054274699124198], [156.5435754218319, -13.884067876109004]], [[39.549562057787895, -8.054274699124198], [40.751266620877374, 72.5698419784295]], [[39.549562057787895, -8.054274699124198], [16.66078963733439, 53.99315946831653]], [[39.549562057787895, -8.054274699124198], [111.50864923315407, 53.97562222139043]], [[39.549562057787895, -8.054274699124198], [7.395786769412787, -42.42791977684805]], [[39.549562057787895, -8.054274699124198], [98.86916277559159, 53.49994415510513]], [[72.44327909075615, 73.45841836601986], [108.58474610801596, 71.38434528727653]], [[72.44327909075615, 73.45841836601986], [-21.061304001945857, 9.79503180585374]], [[-94.59298308538482, 16.95319746365822], [-47.45827175876134, 17.535441958569763]], [[-94.59298308538482, 16.95319746365822], [85.81986104012387, -7.846407791353458]], [[-94.59298308538482, 16.95319746365822], [150.21008036075682, 18.01578321328935]], [[32.77573453496754, 42.78066488857168], [88.61639564662244, 33.43148792955343]], [[32.77573453496754, 42.78066488857168], [-47.45827175876134, 17.535441958569763]], [[32.77573453496754, 42.78066488857168], [29.9465801020263, 18.387869638152242]], [[32.77573453496754, 42.78066488857168], [84.84813415384191, 8.35081894105643]], [[32.77573453496754, 42.78066488857168], [60.2132546632559, 28.538404775597797]], [[85.40701691461517, -16.95319746365822], [16.66078963733439, 53.99315946831653]], [[85.40701691461517, -16.95319746365822], [-151.81960727585073, 7.841721030446787]], [[85.40701691461517, -16.95319746365822], [-90.99161696417235, 43.296618834808434]], [[-139.24873337912265, -72.5698419784295], [-39.202636749715936, -13.417050315919708]], [[-139.24873337912265, -72.5698419784295], [28.18039272414928, -7.841721030446787]], [[-139.24873337912265, -72.5698419784295], [65.32652199222457, -9.825714844778833]], [[-132.7116614718461, -16.944565275364585], [156.5435754218319, -13.884067876109004]], [[47.288338528153915, 16.944565275364585], [109.64152012862749, 12.2428907396799]], [[47.288338528153915, 16.944565275364585], [-64.34973481401981, 41.58199727207036]], [[40.751266620877374, 72.5698419784295], [-100.33641085411658, 42.40897028937873]], [[40.751266620877374, 72.5698419784295], [82.32547874543457, -18.840393936150317]], [[40.751266620877374, 72.5698419784295], [-102.50822818984712, 31.358457161161194]], [[40.751266620877374, 72.5698419784295], [-20.646010097768873, 3.443922484562297]], [[40.751266620877374, 72.5698419784295], [96.80835462104318, -28.5330047350717]], [[40.751266620877374, 72.5698419784295], [-114.67347800777544, 9.825714844778833]], [[40.751266620877374, 72.5698419784295], [141.98701351497812, 39.4021822349198]], [[40.751266620877374, 72.5698419784295], [-94.18013895987613, 7.846407791353458]], [[-162.8043784232621, -27.749814621865447], [108.25408756192626, 34.72964281980577]], [[-77.98732213672382, -22.55769721204007], [85.81986104012387, -7.846407791353458]], [[-77.98732213672382, -22.55769721204007], [-130.24026069343472, 77.11927338788071]], [[102.0126778632762, 22.55769721204007], [-103.17850784097514, -20.29122151004187]], [[102.0126778632762, 22.55769721204007], [-6.234225656651558, 47.676839256022966]], [[102.0126778632762, 22.55769721204007], [-106.03065325806625, 61.52174979098769]], [[102.0126778632762, 22.55769721204007], [-151.81960727585073, 7.841721030446787]], [[17.195621576737913, 27.749814621865447], [-64.83419035008184, 20.318575379164194]], [[17.195621576737913, 27.749814621865447], [76.66261014928551, 31.040772855001208]], [[17.195621576737913, 27.749814621865447], [-53.271144108240584, -29.564769742252963]], [[149.60594565880382, -14.90017268085148], [134.29484043787218, 33.871369637948234]], [[149.60594565880382, -14.90017268085148], [131.00123496518614, 0.2772635753922359]], [[-92.25235917518702, -21.7532627237331], [-39.202636749715936, -13.417050315919708]], [[87.74764082481298, 21.7532627237331], [116.0848771923109, -15.340027943417875]], [[87.74764082481298, 21.7532627237331], [104.31484599267834, 44.20929294186398]], [[87.74764082481298, 21.7532627237331], [165.4633780368197, 38.79803768931711]], [[-30.394054341196185, 14.90017268085148], [-45.70515956212784, -33.871369637948234]], [[-163.33921036266563, -53.99315946831653], [158.93869599805416, -9.79503180585374]], [[72.68238233429129, -8.686931448000088], [-50.888086247484196, 16.61432373690674]], [[16.66078963733439, 53.99315946831653], [47.00108928347202, 40.31407344172434]], [[16.66078963733439, 53.99315946831653], [-23.45642457816812, 13.884067876109004]], [[16.66078963733439, 53.99315946831653], [-7.889856517489286, 37.34814459421822]], [[16.66078963733439, 53.99315946831653], [97.19488312925739, 12.085783086125375]], [[-71.41525389198405, -71.38434528727653], [-46.11368401085226, -9.89385451897057]], [[-71.41525389198405, -71.38434528727653], [-48.57887873649522, 70.49374535973925]], [[-148.08220996531674, 8.154277933718365], [-153.79493802831746, 82.14329241841143]], [[-148.08220996531674, 8.154277933718365], [135.1310306655889, 58.92290950357599]], [[31.917790034683282, -8.154277933718365], [-40.003700937984746, -82.42903455222537]], [[31.917790034683282, -8.154277933718365], [38.39175034944622, 36.675776908292725]], [[108.58474610801596, 71.38434528727653], [-37.46786841332829, 39.22544476971604]], [[108.58474610801596, 71.38434528727653], [131.42112126350477, -70.49374535973925]], [[108.58474610801596, 71.38434528727653], [-28.842951558590446, 56.80586645844998]], [[19.749837245065688, -2.0484963895431583], [167.82758183654948, 6.027853316676902]], [[19.749837245065688, -2.0484963895431583], [-16.72607854086916, 58.368391825535916]], [[19.749837245065688, -2.0484963895431583], [-153.79493802831746, 82.14329241841143]], [[19.749837245065688, -2.0484963895431583], [23.444611764, -30.758426986548013]], [[117.17071693912176, -83.55838038242351], [72.82439313774823, -65.97387010955548]], [[117.17071693912176, -83.55838038242351], [-55.371060514264094, -53.04677560314051]], [[117.17071693912176, -83.55838038242351], [132.54172824123864, -17.535441958569763]], [[117.17071693912176, -83.55838038242351], [-38.0129864850219, -39.4021822349198]], [[-62.82928306087825, 83.55838038242351], [31.40661755534798, 28.121882897920983]], [[-62.82928306087825, 83.55838038242351], [88.61639564662244, 33.43148792955343]], [[-62.82928306087825, 83.55838038242351], [108.25408756192626, 34.72964281980577]], [[-62.82928306087825, 83.55838038242351], [65.32652199222457, -9.825714844778833]], [[-62.82928306087825, 83.55838038242351], [-83.19164537895684, 28.5330047350717]], [[-62.82928306087825, 83.55838038242351], [141.98701351497812, 39.4021822349198]], [[-160.2501627549343, 2.0484963895431583], [-119.36531944929996, 0.10216495361623293]], [[39.346739454104444, -35.10749369998085], [126.72885589175942, 29.564769742252963]], [[39.346739454104444, -35.10749369998085], [-6.234225656651558, 47.676839256022966]], [[-81.50784191068958, -70.06546835056355], [122.39184367687761, -59.99376486670921]], [[-81.50784191068958, -70.06546835056355], [111.50864923315407, 53.97562222139043]], [[98.49215808931042, 70.06546835056355], [-83.19164537895684, 28.5330047350717]], [[98.49215808931042, 70.06546835056355], [-150.0534198979737, -18.387869638152242]], [[98.49215808931042, 70.06546835056355], [38.39175034944622, 36.675776908292725]], [[98.49215808931042, 70.06546835056355], [-28.842951558590446, 56.80586645844998]], [[-140.65326054589556, 35.10749369998085], [156.5435754218319, -13.884067876109004]], [[-140.65326054589556, 35.10749369998085], [173.76577434334845, -47.676839256022966]], [[-140.65326054589556, 35.10749369998085], [-106.03065325806625, 61.52174979098769]], [[122.39184367687761, -59.99376486670921], [179.92390557001784, 20.961042770227085]], [[122.39184367687761, -59.99376486670921], [109.64152012862749, 12.2428907396799]], [[2.4735224160981533, -23.74011123393527], [91.54978468243105, -19.34329744174782]], [[2.4735224160981533, -23.74011123393527], [-48.998765034813864, -0.2772635753922359]], [[2.4735224160981533, -23.74011123393527], [-46.11368401085226, -9.89385451897057]], [[2.4735224160981533, -23.74011123393527], [-71.59756052564529, -59.74156527497177]], [[-177.52647758390185, 23.74011123393527], [175.99800791276033, -34.42184814050703]], [[-57.6081563231224, 59.99376486670921], [-178.93117569650002, 40.29089532573908]], [[-57.6081563231224, 59.99376486670921], [-70.35847987137252, -12.2428907396799]], [[-57.6081563231224, 59.99376486670921], [-64.34973481401981, 41.58199727207036]], [[91.54978468243105, -19.34329744174782], [140.79736325028406, 13.417050315919708]], [[91.54978468243105, -19.34329744174782], [131.00123496518614, 0.2772635753922359]], [[91.54978468243105, -19.34329744174782], [47.00108928347202, 40.31407344172434]], [[-45.70515956212784, -33.871369637948234], [4.155117937692212, 11.65884342248644]], [[134.29484043787218, 33.871369637948234], [104.31484599267834, 44.20929294186398]], [[134.29484043787218, 33.871369637948234], [-178.93117569650002, 40.29089532573908]], [[134.29484043787218, 33.871369637948234], [142.53213158667174, -39.22544476971604]], [[-88.45021531756895, 19.34329744174782], [-150.0534198979737, -18.387869638152242]], [[-88.45021531756895, 19.34329744174782], [-69.69523666512785, 56.48793600727502]], [[72.82439313774823, -65.97387010955548], [167.82758183654948, 6.027853316676902]], [[72.82439313774823, -65.97387010955548], [-169.70149354012827, -40.16039545199686]], [[-7.860085035612246, -2.8383734063615047], [-161.84361081835837, 45.02075579349391]], [[-7.860085035612246, -2.8383734063615047], [109.64152012862749, 12.2428907396799]], [[-7.860085035612246, -2.8383734063615047], [-114.67347800777544, 9.825714844778833]], [[172.13991496438777, 2.8383734063615047], [-81.13083722440842, -53.49994415510513]], [[172.13991496438777, 2.8383734063615047], [-68.49135076684594, -53.97562222139043]], [[172.13991496438777, 2.8383734063615047], [1.1589754144201845, 8.508872913272826]], [[172.13991496438777, 2.8383734063615047], [-50.888086247484196, 16.61432373690674]], [[-107.17560686225177, 65.97387010955548], [-12.172418163450528, -6.027853316676902]], [[-107.17560686225177, 65.97387010955548], [-16.72607854086916, 58.368391825535916]], [[-107.17560686225177, 65.97387010955548], [-8.964560274091168, -3.6599866211789487]], [[-107.17560686225177, 65.97387010955548], [-103.33738985071449, -31.040772855001208]], [[20.767562360888252, -49.60097891773292], [-20.646010097768873, 3.443922484562297]], [[167.82758183654948, 6.027853316676902], [4.155117937692212, 11.65884342248644]], [[167.82758183654948, 6.027853316676902], [131.42112126350477, -70.49374535973925]], [[-12.172418163450528, -6.027853316676902], [-94.34991867064318, 11.667549996579055]], [[-12.172418163450528, -6.027853316676902], [60.2132546632559, 28.538404775597797]], [[-159.23243763911177, 49.60097891773292], [-85.20367260824226, 67.32324992625983]], [[-159.23243763911177, 49.60097891773292], [-98.35672350658172, 20.76959634604688]], [[31.40661755534798, 28.121882897920983], [-39.202636749715936, -13.417050315919708]], [[31.40661755534798, 28.121882897920983], [126.72885589175942, 29.564769742252963]], [[31.40661755534798, 28.121882897920983], [47.00108928347202, 40.31407344172434]], [[-73.92316491168256, 63.36313189376482], [-172.60421323058722, 42.42791977684805]], [[106.07683508831745, -63.36313189376482], [10.29850645987174, 40.16039545199686]], [[106.07683508831745, -63.36313189376482], [-97.67452125456543, 18.840393936150317]], [[-148.593382444652, -28.121882897920983], [98.86916277559159, 53.49994415510513]], [[124.62893948573593, 53.04677560314051], [-103.17850784097514, -20.29122151004187]], [[124.62893948573593, 53.04677560314051], [151.73930981621356, -37.20010992837261]], [[-4.001992087239703, 34.42184814050703], [-153.79493802831746, 82.14329241841143]], [[-4.001992087239703, 34.42184814050703], [13.509049385919472, 5.152350348095897]], [[-4.001992087239703, 34.42184814050703], [-69.69523666512785, 56.48793600727502]], [[175.99800791276033, -34.42184814050703], [171.87826362359317, 16.898335941761907]], [[175.99800791276033, -34.42184814050703], [-114.67347800777544, 9.825714844778833]], [[175.99800791276033, -34.42184814050703], [-128.12175225436903, 54.50589708979883]], [[-55.371060514264094, -53.04677560314051], [-95.1518658461581, -8.35081894105643]], [[-47.45827175876134, 17.535441958569763], [23.444611764, -30.758426986548013]], [[132.54172824123864, -17.535441958569763], [133.88631598914776, 9.89385451897057]], [[132.54172824123864, -17.535441958569763], [98.72737525635124, 61.99281642798882]], [[132.54172824123864, -17.535441958569763], [59.626094975710025, 52.51529254640093]], [[60.634680550700054, -0.10216495361623293], [158.93869599805416, -9.79503180585374]], [[-16.72607854086916, 58.368391825535916], [10.29850645987174, 40.16039545199686]], [[-16.72607854086916, 58.368391825535916], [-92.11159550447626, 36.66022726279503]], [[-119.36531944929996, 0.10216495361623293], [-8.964560274091168, -3.6599866211789487]], [[-119.36531944929996, 0.10216495361623293], [44.32823237453804, -11.775374180507454]], [[13.683284185148338, -2.897001848362935], [-44.86896933441111, -58.92290950357599]], [[13.683284185148338, -2.897001848362935], [-81.27262474364878, -61.99281642798882]], [[-153.79493802831746, 82.14329241841143], [-92.11159550447626, 36.66022726279503]], [[-153.79493802831746, 82.14329241841143], [94.47974296598774, 9.06220022852162]], [[-153.79493802831746, 82.14329241841143], [4.155117937692212, 11.65884342248644]], [[26.20506197168255, -82.14329241841143], [142.53213158667174, -39.22544476971604]], [[115.16580964991816, -20.318575379164194], [94.47974296598774, 9.06220022852162]], [[13.509049385919472, 5.152350348095897], [-46.52857746989326, 17.77354171424186]], [[13.509049385919472, 5.152350348095897], [-38.0129864850219, -39.4021822349198]], [[13.509049385919472, 5.152350348095897], [139.99629906201525, 82.42903455222537]], [[-166.49095061408053, -5.152350348095897], [158.93869599805416, -9.79503180585374]], [[-64.83419035008184, 20.318575379164194], [-20.786727824088842, -83.72681423032776]], [[-64.83419035008184, 20.318575379164194], [-95.1518658461581, -8.35081894105643]], [[-64.83419035008184, 20.318575379164194], [-178.93117569650002, 40.29089532573908]], [[-64.83419035008184, 20.318575379164194], [-71.74591243807374, -34.72964281980577]], [[-64.83419035008184, 20.318575379164194], [-53.271144108240584, -29.564769742252963]], [[92.48558973709405, 3.927378350575219], [139.37535354177805, 30.78821706953368]], [[-39.202636749715936, -13.417050315919708], [-48.998765034813864, -0.2772635753922359]], [[-39.202636749715936, -13.417050315919708], [4.155117937692212, 11.65884342248644]], [[-39.202636749715936, -13.417050315919708], [1.1589754144201845, 8.508872913272826]], [[-39.202636749715936, -13.417050315919708], [-21.061304001945857, 9.79503180585374]], [[140.79736325028406, 13.417050315919708], [104.31484599267834, 44.20929294186398]], [[140.79736325028406, 13.417050315919708], [29.9465801020263, 18.387869638152242]], [[79.66358914588344, -42.40897028937873], [-83.19164537895684, 28.5330047350717]], [[79.66358914588344, -42.40897028937873], [-68.49135076684594, -53.97562222139043]], [[79.66358914588344, -42.40897028937873], [81.23784408459008, 46.97825148034611]], [[-169.70149354012827, -40.16039545199686], [60.2132546632559, 28.538404775597797]], [[-100.33641085411658, 42.40897028937873], [-85.52025703401227, -9.06220022852162]], [[-100.33641085411658, 42.40897028937873], [111.50864923315407, 53.97562222139043]], [[-100.33641085411658, 42.40897028937873], [91.78024890053675, 57.35508608081057]], [[30.628659313322924, -32.23675222385046], [108.25408756192626, 34.72964281980577]], [[135.1310306655889, 58.92290950357599], [85.81986104012387, -7.846407791353458]], [[135.1310306655889, 58.92290950357599], [-150.0534198979737, -18.387869638152242]], [[135.1310306655889, 58.92290950357599], [-128.12175225436903, 54.50589708979883]], [[-44.86896933441111, -58.92290950357599], [-70.35847987137252, -12.2428907396799]], [[-44.86896933441111, -58.92290950357599], [59.626094975710025, 52.51529254640093]], [[131.00123496518614, 0.2772635753922359], [150.21008036075682, 18.01578321328935]], [[131.00123496518614, 0.2772635753922359], [156.5435754218319, -13.884067876109004]], [[131.00123496518614, 0.2772635753922359], [133.47142253010676, -17.77354171424186]], [[-103.17850784097514, -20.29122151004187], [23.444611764, -30.758426986548013]], [[76.82149215902486, 20.29122151004187], [86.80292329635724, 82.93779932043246]], [[-48.998765034813864, -0.2772635753922359], [-14.53662196318028, -38.79803768931711]], [[-48.998765034813864, -0.2772635753922359], [-83.19164537895684, 28.5330047350717]], [[-48.998765034813864, -0.2772635753922359], [-97.67452125456543, 18.840393936150317]], [[-48.998765034813864, -0.2772635753922359], [-85.52025703401227, -9.06220022852162]], [[-48.998765034813864, -0.2772635753922359], [-71.74591243807374, -34.72964281980577]], [[151.73930981621356, -37.20010992837261], [141.98701351497812, 39.4021822349198]], [[-161.84361081835837, 45.02075579349391], [110.30476333487216, -56.48793600727502]], [[18.15638918164162, -45.02075579349391], [-75.68515400732167, -44.20929294186398]], [[18.15638918164162, -45.02075579349391], [171.03543972590884, 3.6599866211789487]], [[18.15638918164162, -45.02075579349391], [-70.35847987137252, -12.2428907396799]], [[18.15638918164162, -45.02075579349391], [-69.69523666512785, 56.48793600727502]], [[-28.260690183786448, 37.20010992837261], [28.18039272414928, -7.841721030446787]], [[-28.260690183786448, 37.20010992837261], [-29.789919639243188, -18.01578321328935]], [[-28.260690183786448, 37.20010992837261], [86.80292329635724, 82.93779932043246]], [[-28.260690183786448, 37.20010992837261], [59.626094975710025, 52.51529254640093]], [[94.79632739175774, -67.32324992625983], [-20.646010097768873, 3.443922484562297]], [[94.79632739175774, -67.32324992625983], [1.068824303499988, -40.29089532573908]], [[94.79632739175774, -67.32324992625983], [133.47142253010676, -17.77354171424186]], [[179.92390557001784, 20.961042770227085], [146.81663919323648, -33.68468985767198]], [[-0.07609442998217297, -20.961042770227085], [81.64327649341828, -20.76959634604688]], [[-0.07609442998217297, -20.961042770227085], [-85.52025703401227, -9.06220022852162]], [[-85.20367260824226, 67.32324992625983], [171.03543972590884, 3.6599866211789487]], [[-85.20367260824226, 67.32324992625983], [-71.74591243807374, -34.72964281980577]], [[104.31484599267834, 44.20929294186398], [139.37535354177805, 30.78821706953368]], [[104.31484599267834, 44.20929294186398], [28.18039272414928, -7.841721030446787]], [[104.31484599267834, 44.20929294186398], [-130.24026069343472, 77.11927338788071]], [[104.31484599267834, 44.20929294186398], [98.86916277559159, 53.49994415510513]], [[-75.68515400732167, -44.20929294186398], [171.03543972590884, 3.6599866211789487]], [[-75.68515400732167, -44.20929294186398], [-102.50822818984712, 31.358457161161194]], [[-75.68515400732167, -44.20929294186398], [-69.69523666512785, 56.48793600727502]], [[-63.915122807689116, 15.340027943417875], [-112.1252712579371, 42.51608456958004]], [[-63.915122807689116, 15.340027943417875], [-128.12175225436903, 54.50589708979883]], [[81.64327649341828, -20.76959634604688], [-175.8448820623078, -11.65884342248644]], [[139.37535354177805, 30.78821706953368], [86.80292329635724, 82.93779932043246]], [[-40.624646458221946, -30.78821706953368], [-71.59756052564529, -59.74156527497177]], [[-40.624646458221946, -30.78821706953368], [1.1589754144201845, 8.508872913272826]], [[-40.624646458221946, -30.78821706953368], [-33.18336080676353, 33.68468985767198]], [[51.41265022409205, -64.05661354619149], [173.76577434334845, -47.676839256022966]], [[51.41265022409205, -64.05661354619149], [87.88840449552374, -36.66022726279503]], [[171.03543972590884, 3.6599866211789487], [-141.60824965055377, -36.675776908292725]], [[171.03543972590884, 3.6599866211789487], [139.29933823074768, -14.15930740677045]], [[-8.964560274091168, -3.6599866211789487], [-48.57887873649522, 70.49374535973925]], [[-8.964560274091168, -3.6599866211789487], [-103.33738985071449, -31.040772855001208]], [[-128.58734977590797, 64.05661354619149], [129.11191375251582, -16.61432373690674]], [[-128.58734977590797, 64.05661354619149], [109.64152012862749, 12.2428907396799]], [[126.72885589175942, 29.564769742252963], [-120.37390502428998, -52.51529254640093]], [[126.72885589175942, 29.564769742252963], [-112.1252712579371, 42.51608456958004]], [[-31.184385425834567, -30.894167456353824], [-112.1252712579371, 42.51608456958004]], [[85.81986104012387, -7.846407791353458], [159.35398990223115, -3.443922484562297]], [[-14.53662196318028, -38.79803768931711], [-81.27262474364878, -61.99281642798882]], [[-46.52857746989326, 17.77354171424186], [-82.80511687074262, -12.085783086125375]], [[158.93869599805416, -9.79503180585374], [-178.84102458557985, -8.508872913272826]], [[115.6502651859802, -41.58199727207036], [-48.57887873649522, 70.49374535973925]], [[-106.50311821367293, 12.968189259682285], [111.50864923315407, 53.97562222139043]], [[-130.24026069343472, 77.11927338788071], [-82.80511687074262, -12.085783086125375]], [[-82.80511687074262, -12.085783086125375], [-46.11368401085226, -9.89385451897057]], [[-82.80511687074262, -12.085783086125375], [76.66261014928551, 31.040772855001208]], [[-46.11368401085226, -9.89385451897057], [-98.76215591540992, -46.97825148034611]], [[-46.11368401085226, -9.89385451897057], [-71.59756052564529, -59.74156527497177]], [[-46.11368401085226, -9.89385451897057], [-20.646010097768873, 3.443922484562297]], [[146.81663919323648, -33.68468985767198], [-150.0534198979737, -18.387869638152242]], [[73.96934674193375, -61.52174979098769], [67.87472874206289, -42.51608456958004]], [[129.11191375251582, -16.61432373690674], [44.32823237453804, -11.775374180507454]], [[-38.0129864850219, -39.4021822349198], [-20.786727824088842, -83.72681423032776]], [[151.15704844140956, -56.80586645844998], [173.76577434334845, -47.676839256022966]], [[-20.786727824088842, -83.72681423032776], [-71.59756052564529, -59.74156527497177]], [[-20.786727824088842, -83.72681423032776], [-156.555388236, 30.758426986548013]], [[-71.59756052564529, -59.74156527497177], [-70.35847987137252, -12.2428907396799]], [[-71.59756052564529, -59.74156527497177], [7.395786769412787, -42.42791977684805]], [[150.21008036075682, 18.01578321328935], [81.23784408459008, 46.97825148034611]], [[-81.13083722440842, -53.49994415510513], [156.5435754218319, -13.884067876109004]], [[-81.13083722440842, -53.49994415510513], [84.84813415384191, 8.35081894105643]], [[-81.13083722440842, -53.49994415510513], [-7.889856517489286, 37.34814459421822]], [[-112.1252712579371, 42.51608456958004], [-135.67176762546197, 11.775374180507454]], [[65.32652199222457, -9.825714844778833], [-40.70066176925232, 14.15930740677045]], [[139.99629906201525, 82.42903455222537], [77.4917718101529, -31.358457161161194]], [[-40.70066176925232, 14.15930740677045], [-70.35847987137252, -12.2428907396799]], [[156.5435754218319, -13.884067876109004], [60.2132546632559, 28.538404775597797]], [[-94.34991867064318, 11.667549996579055], [-7.889856517489286, 37.34814459421822]], [[-178.93117569650002, 40.29089532573908], [60.2132546632559, 28.538404775597797]], [[-70.35847987137252, -12.2428907396799], [-92.11159550447626, 36.66022726279503]], [[-70.35847987137252, -12.2428907396799], [-122.57425897438019, -6.313231082489274]], [[-92.11159550447626, 36.66022726279503], [-33.18336080676353, 33.68468985767198]], [[142.53213158667174, -39.22544476971604], [177.9999182789928, -4.574488383619276]], [[142.53213158667174, -39.22544476971604], [97.19488312925739, 12.085783086125375]], [[171.87826362359317, 16.898335941761907], [97.19488312925739, 12.085783086125375]], [[-150.0534198979737, -18.387869638152242], [-131.4731006575543, 8.877623871410774]], [[-150.0534198979737, -18.387869638152242], [49.7597393065653, -77.11927338788071]], [[-150.0534198979737, -18.387869638152242], [-64.34973481401981, 41.58199727207036]], [[-103.33738985071449, -31.040772855001208], [1.068824303499988, -40.29089532573908]], [[-68.49135076684594, -53.97562222139043], [-64.34973481401981, 41.58199727207036]], [[177.9999182789928, -4.574488383619276], [139.29933823074768, -14.15930740677045]], [[173.76577434334845, -47.676839256022966], [148.81561457416544, 30.894167456353824]], [[-156.555388236, 30.758426986548013], [98.86916277559159, 53.49994415510513]], [[94.47974296598774, 9.06220022852162], [-102.50822818984712, 31.358457161161194]], [[23.444611764, -30.758426986548013], [-50.888086247484196, 16.61432373690674]], [[48.52689934244569, -8.877623871410774], [47.00108928347202, 40.31407344172434]], [[47.00108928347202, 40.31407344172434], [81.23784408459008, 46.97825148034611]], [[4.155117937692212, 11.65884342248644], [-71.74591243807374, -34.72964281980577]], [[82.32547874543457, -18.840393936150317], [76.66261014928551, 31.040772855001208]], [[-20.646010097768873, 3.443922484562297], [91.78024890053675, 57.35508608081057]], [[76.66261014928551, 31.040772855001208], [86.80292329635724, 82.93779932043246]], [[76.66261014928551, 31.040772855001208], [-69.69523666512785, 56.48793600727502]], [[76.66261014928551, 31.040772855001208], [148.81561457416544, 30.894167456353824]], [[29.9465801020263, 18.387869638152242], [-37.46786841332829, 39.22544476971604]], [[109.64152012862749, 12.2428907396799], [44.32823237453804, -11.775374180507454]], [[109.64152012862749, 12.2428907396799], [139.29933823074768, -14.15930740677045]], [[131.42112126350477, -70.49374535973925], [7.395786769412787, -42.42791977684805]], [[1.068824303499988, -40.29089532573908], [97.19488312925739, 12.085783086125375]], [[1.068824303499988, -40.29089532573908], [-21.061304001945857, 9.79503180585374]], [[-23.45642457816812, 13.884067876109004], [-64.34973481401981, 41.58199727207036]], [[139.29933823074768, -14.15930740677045], [-40.003700937984746, -82.42903455222537]], [[139.29933823074768, -14.15930740677045], [98.86916277559159, 53.49994415510513]], [[139.29933823074768, -14.15930740677045], [148.81561457416544, 30.894167456353824]], [[-114.67347800777544, 9.825714844778833], [-128.12175225436903, 54.50589708979883]], [[98.86916277559159, 53.49994415510513], [-29.789919639243188, -18.01578321328935]], [[98.86916277559159, 53.49994415510513], [-90.99161696417235, 43.296618834808434]], [[84.84813415384191, 8.35081894105643], [-50.888086247484196, 16.61432373690674]], [[108.40243947435472, 59.74156527497177], [-7.889856517489286, 37.34814459421822]], [[159.21327217591116, 83.72681423032776], [-7.889856517489286, 37.34814459421822]], [[-7.889856517489286, 37.34814459421822], [-106.03065325806625, 61.52174979098769]], [[81.23784408459008, 46.97825148034611], [38.39175034944622, 36.675776908292725]], [[81.23784408459008, 46.97825148034611], [-69.69523666512785, 56.48793600727502]], [[38.39175034944622, 36.675776908292725], [-33.18336080676353, 33.68468985767198]], [[-28.842951558590446, 56.80586645844998], [-128.12175225436903, 54.50589708979883]], [[91.78024890053675, 57.35508608081057], [60.2132546632559, 28.538404775597797]], [[60.2132546632559, 28.538404775597797], [-33.18336080676353, 33.68468985767198]], [[86.80292329635724, 82.93779932043246], [165.4633780368197, 38.79803768931711]], [[133.88631598914776, 9.89385451897057], [98.72737525635124, 61.99281642798882]], [[133.47142253010676, -17.77354171424186], [59.626094975710025, 52.51529254640093]]]}}]}