{"type": "FeatureCollection", "name": "E8_proj_seed1649 grid", "properties": {"shape": "E8_proj_seed1649", "lock_lat": 55.0, "lock_lon": 5.0, "bearing": 300.0}, "features": [{"type": "Feature", "properties": {"kind": "grid_vertices", "shape": "E8_proj_seed1649", "count": 240, "ids": ["V1", "V2", "V3", "V4", "V5", "V6", "V7", "V8", "V9", "V10", "V11", "V12", "V13", "V14", "V15", "V16", "V17", "V18", "V19", "V20", "V21", "V22", "V23", "V24", "V25", "V26", "V27", "V28", "V29", "V30", "V31", "V32", "V33", "V34", "V35", "V36", "V37", "V38", "V39", "V40", "V41", "V42", "V43", "V44", "V45", "V46", "V47", "V48", "V49", "V50", "V51", "V52", "V53", "V54", "V55", "V56", "V57", "V58", "V59", "V60", "V61", "V62", "V63", "V64", "V65", "V66", "V67", "V68", "V69", "V70", "V71", "V72", "V73", "V74", "V75", "V76", "V77", "V78", "V79", "V80", "V81", "V82", "V83", "V84", "V85", "V86", "V87", "V88", "V89", "V90", "V91", "V92", "V93", "V94", "V95", "V96", "V97", "V98", "V99", "V100", "V101", "V102", "V103", "V104", "V105", "V106", "V107", "V108", "V109", "V110", "V111", "V112", "V113", "V114", "V115", "V116", "V117", "V118", "V119", "V120", "V121", "V122", "V123", "V124", "V125", "V126", "V127", "V128", "V129", "V130", "V131", "V132", "V133", "V134", "V135", "V136", "V137", "V138", "V139", "V140", "V141", "V142", "V143", "V144", "V145", "V146", "V147", "V148", "V149", "V150", "V151", "V152", "V153", "V154", "V155", "V156", "V157", "V158", "V159", "V160", "V161", "V162", "V163", "V164", "V165", "V166", "V167", "V168", "V169", "V170", "V171", "V172", "V173", "V174", "V175", "V176", "V177", "V178", "V179", "V180", "V181", "V182", "V183", "V184", "V185", "V186", "V187", "V188", "V189", "V190", "V191", "V192", "V193", "V194", "V195", "V196", "V197", "V198", "V199", "V200", "V201", "V202", "V203", "V204", "V205", "V206", "V207", "V208", "V209", "V210", "V211", "V212", "V213", "V214", "V215", "V216", "V217", "V218", "V219", "V220", "V221", "V222", "V223", "V224", "V225", "V226", "V227", "V228", "V229", "V230", "V231", "V232", "V233", "V234", "V235", "V236", "V237", "V238", "V239", "V240"]}, "geometry": {"type": "MultiPoint", "coordinates": [[-2.4325660231525843, -7.398647812529874], [73.57741766553156, 25.536213977817674], [-106.42258233446846, -25.536213977817674], [177.5674339768474, 7.398647812529874], [13.582123188865106, -26.777144654386007], [67.5464944734066, 48.82735359584952], [-112.45350552659342, -48.82735359584952], [-166.4178768111349, 26.777144654386007], [45.013092400438, 25.978594682808072], [13.540001417384284, -25.510125827742783], [-166.45999858261573, 25.510125827742783], [-134.986907599562, -25.978594682808072], [23.440058636087496, 7.762008470567812], [75.34489925723412, 22.69478169130751], [-104.6551007427659, -22.69478169130751], [-156.55994136391251, -7.762008470567812], [25.889048473293027, 20.84880948790825], [67.06574884944582, -13.177818954473278], [-112.93425115055419, 13.177818954473278], [-154.11095152670697, -20.84880948790825], [45.66114599035369, 55.49338979776905], [33.403391663763884, -10.659142460027855], [-146.59660833623613, 10.659142460027855], [-134.33885400964633, -55.49338979776905], [-20.59265959192642, 38.91414240373543], [74.34321946078212, -17.67065057570031], [-105.65678053921789, 17.67065057570031], [159.4073404080736, -38.91414240373543], [-47.17521475629575, -44.48455290495162], [-89.73270729346486, 53.85537682476431], [90.26729270653514, -53.85537682476431], [132.82478524370424, 44.48455290495162], [-15.048164721817919, 8.695708456159593], [-80.5197690707301, -38.33293790070401], [99.48023092926991, 38.33293790070401], [164.95183527818207, -8.695708456159593], [-29.021733963362802, -17.75685602326665], [-107.82911326929919, -27.6912989858538], [72.17088673070081, 27.6912989858538], [150.9782660366372, 17.75685602326665], [-29.016102134857224, -1.4888242745900415], [-101.52072559230383, -45.2873231669035], [78.47927440769618, 45.2873231669035], [150.98389786514278, 1.4888242745900415], [-90.70110312103895, 7.839184137175484], [-25.171611114329888, -42.623561616581966], [154.82838888567014, 42.623561616581966], [89.29889687896105, -7.839184137175484], [-64.84700047469828, 11.468226830779495], [76.88301348994186, -71.32379311370754], [-103.11698651005815, 71.32379311370754], [115.15299952530172, -11.468226830779495], [13.615849917562958, -27.77170735103876], [-76.36832802698885, -60.403557015229005], [103.63167197301115, 60.403557015229005], [-166.38415008243706, 27.77170735103876], [-13.159336194293621, -38.17446857588407], [-123.63428739086245, -64.98368210200867], [56.36571260913754, 64.98368210200867], [166.84066380570638, 38.17446857588407], [-11.90628976121616, -26.148165401749008], [-111.78769693342475, -71.85313156287506], [68.21230306657525, 71.85313156287506], [168.09371023878384, 26.148165401749008], [-91.3491561094177, -34.467040323078194], [-4.148328790744118, -57.33885958561186], [175.8516712092559, 57.33885958561186], [88.6508438905823, 34.467040323078194], [-59.317534666106624, -3.9714966243999874], [83.22836045143357, -65.749215362337], [-96.77163954856643, 65.749215362337], [120.68246533389339, 3.9714966243999874], [28.821392672883476, 25.138314180292383], [133.85840757090412, 41.06650013041098], [-46.14159242909587, -41.06650013041098], [-151.17860732711654, -25.138314180292383], [32.86945718216021, 40.714857349471345], [131.10492245912693, 15.399098424431774], [-48.895077540873096, -15.399098424431774], [-147.1305428178398, -40.714857349471345], [130.3284438822923, 73.31221080029844], [44.67875337191816, -0.6786456132187703], [-135.32124662808184, 0.6786456132187703], [-49.67155611770771, -73.31221080029844], [-43.25854768346224, 56.85916368610885], [93.71051769119205, -10.109916235874842], [-86.28948230880796, 10.109916235874842], [136.74145231653776, -56.85916368610885], [5.463483613602193, 15.563895076397072], [-29.101008545631146, -77.36806101919538], [150.89899145436885, 77.36806101919538], [-174.53651638639784, -15.563895076397072], [-42.38302554425174, 60.341119041771925], [13.724316955673007, -24.62973000996116], [-166.275683044327, 24.62973000996116], [137.61697445574825, -60.341119041771925], [-44.45534605280093, 28.1126704057525], [73.82568244055743, -34.96213540692058], [-106.17431755944257, 34.96213540692058], [135.54465394719907, -28.1126704057525], [-47.744715833429325, 76.78470280613426], [16.724418795608507, -7.979368167709639], [-163.2755812043915, 7.979368167709639], [132.25528416657068, -76.78470280613426], [-45.4027929575216, 40.197019400693826], [77.92886444597531, -19.716310403282428], [-102.07113555402469, 19.716310403282428], [134.59720704247843, -40.197019400693826], [-94.5141534162969, 45.30836644414079], [135.02181144706518, -12.723094445801479], [-44.97818855293482, 12.723094445801479], [85.4858465837031, -45.30836644414079], [-18.450473018810413, 18.591113206753388], [24.500766487202007, -22.12513515331698], [35.83899682842837, -37.96399222812056], [-14.483455271555501, -12.684067624263129], [41.91138672321411, -16.352824298698653], [-13.60299784905854, 1.9122954047425968], [-65.1242361622712, 15.78954482028658], [57.957054469376324, -55.58305115676285], [3.2396283550843434, -37.5106505076484], [-23.224523490772896, -13.852078578522457], [-56.45756494439735, -13.92641860976631], [14.3506019003352, -62.601115783246165], [-58.29439449426445, 2.750486177173234], [18.631807756976634, -57.85879265832644], [-167.91270115325545, -73.54575186033225], [-60.45724736984389, -39.35321059559073], [47.115152386841984, 30.527160293484673], [0.4917913794236607, 30.322407000695094], [-29.98569775892971, 60.635768705358245], [57.39694558711958, -10.844115547733812], [-30.129348531268963, 70.28388923156331], [61.57481298246757, 7.619723639548579], [125.44782848790223, 19.70223207254328], [-19.093236853562342, 59.93416668209992], [-38.67905214622289, 40.172235043994256], [31.41365215590189, -17.87141380350224], [107.73834104731243, -36.28821814782937], [-36.596094585617536, 3.07290064388475], [117.16747118297909, 25.294972940080008], [-37.36915237655626, 27.506471943839625], [-116.33694099524153, 32.60126288671655], [122.74860435879911, -52.243142909518305], [57.14225294560701, 6.990642578149242], [13.285793280050767, 14.931283152770995], [6.0855815239997355, 48.079448926494884], [64.97483014102531, -25.80162850976359], [12.178779932093658, 64.50503638483306], [68.23577301626993, -12.748569840909024], [115.32031163858125, -8.791315013875005], [39.06332577405494, 10.995491178223057], [-21.126059712681034, 25.631957313225637], [44.53391675623586, -32.33033052266667], [98.02512756246647, -47.714103081369494], [-13.931767921029063, -30.724803528292327], [103.61781091479791, -25.069053298119865], [-12.018002926806837, -5.583364278899284], [-131.64740081674626, 8.3499692439574], [110.11978149759803, -53.95099808047939], [32.91860720363977, 66.37221942797115], [65.67989230013868, 15.989915129774365], [101.1321717725254, 25.91694306782895], [47.830037261453654, 50.07937041811666], [103.62521067475052, 35.82301717950809], [53.87271560018496, 59.532738655873885], [151.84952115783358, 65.71193243762582], [107.04594892502533, 6.354333648113237], [86.41642897066991, 28.54587480176076], [13.020870987839047, 42.09420224701681], [-147.31798796764465, 77.67058838833286], [93.74719487520186, -15.922549181962285], [-163.86244447427484, 78.96667834564563], [97.09406918993011, 2.063650511131398], [143.43933151082695, 7.52884949420081], [168.27899462302193, 48.81887945902822], [-11.721005376978063, -48.81887945902822], [-36.56066848917307, -7.52884949420081], [-82.9059308100699, -2.063650511131398], [16.137555525725173, -78.96667834564563], [-86.25280512479814, 15.922549181962285], [32.68201203235534, -77.67058838833286], [-166.97912901216094, -42.09420224701681], [-93.58357102933009, -28.54587480176076], [-72.95405107497467, -6.354333648113237], [-28.150478842166414, -65.71193243762582], [-126.12728439981505, -59.532738655873885], [-76.37478932524948, -35.82301717950809], [-132.16996273854636, -50.07937041811666], [-78.8678282274746, -25.91694306782895], [-114.32010769986132, -15.989915129774365], [-147.08139279636023, -66.37221942797115], [-69.88021850240199, 53.95099808047939], [48.35259918325373, -8.3499692439574], [167.98199707319318, 5.583364278899284], [-76.3821890852021, 25.069053298119865], [166.06823207897094, 30.724803528292327], [-81.97487243753353, 47.714103081369494], [-135.46608324376416, 32.33033052266667], [158.87394028731896, -25.631957313225637], [-140.93667422594507, -10.995491178223057], [-64.67968836141875, 8.791315013875005], [-111.76422698373008, 12.748569840909024], [-167.82122006790635, -64.50503638483306], [-115.02516985897469, 25.80162850976359], [-173.91441847600026, -48.079448926494884], [-166.71420671994923, -14.931283152770995], [-122.857747054393, -6.990642578149242], [-57.251395641200894, 52.243142909518305], [63.66305900475847, -32.60126288671655], [142.63084762344374, -27.506471943839625], [-62.83252881702093, -25.294972940080008], [143.40390541438248, -3.07290064388475], [-72.26165895268757, 36.28821814782937], [-148.58634784409813, 17.87141380350224], [141.3209478537771, -40.172235043994256], [160.90676314643767, -59.93416668209992], [-54.55217151209778, -19.70223207254328], [-118.42518701753242, -7.619723639548579], [149.87065146873104, -70.28388923156331], [-122.60305441288043, 10.844115547733812], [150.01430224107028, -60.635768705358245], [-179.50820862057634, -30.322407000695094], [-132.88484761315803, -30.527160293484673], [119.54275263015612, 39.35321059559073], [12.087298846744572, 73.54575186033225], [-161.36819224302337, 57.85879265832644], [121.70560550573556, -2.750486177173234], [-165.6493980996648, 62.601115783246165], [123.54243505560264, 13.92641860976631], [156.7754765092271, 13.852078578522457], [-176.76037164491567, 37.5106505076484], [-122.04294553062367, 55.58305115676285], [114.87576383772881, -15.78954482028658], [166.39700215094146, -1.9122954047425968], [-138.0886132767859, 16.352824298698653], [165.5165447284445, 12.684067624263129], [-144.16100317157162, 37.96399222812056], [-155.49923351279799, 22.12513515331698], [161.54952698118962, -18.591113206753388]]}}, {"type": "Feature", "properties": {"kind": "grid_edges", "shape": "E8_proj_seed1649", "count": 333, "ids": ["E1", "E2", "E3", "E4", "E5", "E6", "E7", "E8", "E9", "E10", "E11", "E12", "E13", "E14", "E15", "E16", "E17", "E18", "E19", "E20", "E21", "E22", "E23", "E24", "E25", "E26", "E27", "E28", "E29", "E30", "E31", "E32", "E33", "E34", "E35", "E36", "E37", "E38", "E39", "E40", "E41", "E42", "E43", "E44", "E45", "E46", "E47", "E48", "E49", "E50", "E51", "E52", "E53", "E54", "E55", "E56", "E57", "E58", "E59", "E60", "E61", "E62", "E63", "E64", "E65", "E66", "E67", "E68", "E69", "E70", "E71", "E72", "E73", "E74", "E75", "E76", "E77", "E78", "E79", "E80", "E81", "E82", "E83", "E84", "E85", "E86", "E87", "E88", "E89", "E90", "E91", "E92", "E93", "E94", "E95", "E96", "E97", "E98", "E99", "E100", "E101", "E102", "E103", "E104", "E105", "E106", "E107", "E108", "E109", "E110", "E111", "E112", "E113", "E114", "E115", "E116", "E117", "E118", "E119", "E120", "E121", "E122", "E123", "E124", "E125", "E126", "E127", "E128", "E129", "E130", "E131", "E132", "E133", "E134", "E135", "E136", "E137", "E138", "E139", "E140", "E141", "E142", "E143", "E144", "E145", "E146", "E147", "E148", "E149", "E150", "E151", "E152", "E153", "E154", "E155", "E156", "E157", "E158", "E159", "E160", "E161", "E162", "E163", "E164", "E165", "E166", "E167", "E168", "E169", "E170", "E171", "E172", "E173", "E174", "E175", "E176", "E177", "E178", "E179", "E180", "E181", "E182", "E183", "E184", "E185", "E186", "E187", "E188", "E189", "E190", "E191", "E192", "E193", "E194", "E195", "E196", "E197", "E198", "E199", "E200", "E201", "E202", "E203", "E204", "E205", "E206", "E207", "E208", "E209", "E210", "E211", "E212", "E213", "E214", "E215", "E216", "E217", "E218", "E219", "E220", "E221", "E222", "E223", "E224", "E225", "E226", "E227", "E228", "E229", "E230", "E231", "E232", "E233", "E234", "E235", "E236", "E237", "E238", "E239", "E240", "E241", "E242", "E243", "E244", "E245", "E246", "E247", "E248", "E249", "E250", "E251", "E252", "E253", "E254", "E255", "E256", "E257", "E258", "E259", "E260", "E261", "E262", "E263", "E264", "E265", "E266", "E267", "E268", "E269", "E270", "E271", "E272", "E273", "E274", "E275", "E276", "E277", "E278", "E279", "E280", "E281", "E282", "E283", "E284", "E285", "E286", "E287", "E288", "E289", "E290", "E291", "E292", "E293", "E294", "E295", "E296", "E297", "E298", "E299", "E300", "E301", "E302", "E303", "E304", "E305", "E306", "E307", "E308", "E309", "E310", "E311", "E312", "E313", "E314", "E315", "E316", "E317", "E318", "E319", "E320", "E321", "E322", "E323", "E324", "E325", "E326", "E327", "E328", "E329", "E330", "E331", "E332", "E333"], "pairs": [[0, 5], [0, 29], [0, 122], [1, 158], [1, 159], [1, 169], [1, 174], [2, 29], [2, 192], [3, 11], [3, 34], [3, 38], [3, 213], [3, 224], [4, 17], [4, 149], [5, 9], [5, 63], [6, 15], [7, 193], [8, 129], [8, 131], [8, 132], [8, 135], [9, 53], [9, 78], [10, 177], [10, 196], [10, 212], [10, 213], [12, 123], [13, 59], [13, 124], [13, 141], [13, 148], [13, 159], [15, 95], [15, 238], [16, 100], [16, 121], [16, 137], [16, 148], [17, 43], [17, 122], [17, 135], [17, 142], [18, 100], [18, 193], [19, 26], [19, 106], [19, 202], [20, 24], [20, 118], [20, 134], [20, 142], [20, 162], [21, 145], [22, 109], [23, 225], [24, 115], [24, 142], [25, 140], [25, 168], [26, 50], [27, 224], [28, 118], [28, 180], [28, 182], [29, 32], [29, 36], [29, 40], [29, 44], [29, 49], [31, 161], [31, 226], [32, 44], [32, 77], [32, 84], [32, 128], [32, 176], [33, 55], [33, 125], [33, 140], [34, 80], [34, 150], [35, 157], [35, 159], [35, 168], [35, 217], [35, 220], [36, 128], [36, 131], [38, 92], [38, 97], [38, 146], [38, 208], [39, 151], [39, 172], [39, 173], [39, 221], [40, 90], [40, 128], [40, 188], [40, 192], [40, 196], [40, 197], [41, 48], [41, 63], [42, 76], [42, 144], [42, 145], [42, 152], [42, 160], [42, 217], [42, 232], [43, 89], [43, 147], [43, 151], [43, 210], [43, 222], [44, 132], [45, 193], [46, 160], [46, 164], [47, 163], [47, 213], [48, 122], [48, 197], [48, 198], [49, 109], [49, 133], [50, 86], [50, 211], [51, 224], [53, 120], [53, 156], [54, 81], [54, 162], [54, 196], [54, 197], [54, 229], [55, 82], [55, 173], [56, 208], [57, 69], [58, 138], [58, 169], [58, 233], [59, 98], [59, 197], [59, 205], [59, 207], [60, 78], [60, 100], [60, 149], [61, 115], [62, 197], [63, 67], [63, 195], [63, 227], [65, 113], [65, 223], [66, 224], [67, 93], [67, 129], [67, 139], [67, 201], [67, 205], [68, 98], [68, 110], [68, 146], [68, 152], [70, 98], [70, 201], [71, 128], [72, 209], [72, 210], [72, 224], [73, 81], [73, 119], [74, 86], [76, 181], [77, 118], [77, 162], [77, 211], [78, 156], [78, 173], [78, 221], [78, 237], [80, 150], [80, 182], [80, 210], [83, 87], [83, 217], [83, 219], [84, 112], [84, 211], [85, 182], [85, 199], [85, 224], [86, 104], [86, 155], [88, 92], [88, 224], [90, 157], [90, 164], [90, 173], [90, 181], [90, 204], [91, 238], [92, 97], [92, 114], [93, 163], [93, 195], [94, 98], [94, 124], [94, 158], [95, 237], [96, 108], [96, 129], [97, 200], [97, 227], [99, 173], [100, 128], [100, 164], [100, 220], [101, 229], [102, 150], [103, 187], [104, 157], [105, 140], [106, 155], [106, 170], [107, 182], [108, 130], [108, 142], [108, 228], [109, 144], [109, 174], [109, 236], [110, 175], [110, 189], [110, 231], [111, 239], [112, 117], [113, 116], [114, 122], [115, 177], [116, 132], [116, 182], [116, 212], [117, 132], [117, 189], [118, 134], [118, 150], [122, 170], [122, 186], [123, 137], [124, 126], [125, 137], [127, 135], [127, 141], [127, 157], [128, 224], [129, 136], [130, 138], [130, 162], [130, 198], [131, 139], [131, 203], [133, 229], [134, 167], [135, 167], [136, 137], [137, 201], [140, 206], [144, 150], [146, 150], [146, 154], [146, 160], [146, 208], [146, 210], [148, 208], [148, 220], [149, 165], [150, 151], [150, 164], [150, 214], [150, 222], [151, 214], [152, 160], [152, 168], [155, 170], [155, 175], [157, 159], [157, 237], [161, 233], [163, 171], [165, 169], [168, 236], [169, 173], [169, 201], [169, 235], [170, 174], [172, 237], [176, 193], [181, 191], [181, 213], [181, 229], [184, 208], [193, 195], [193, 201], [193, 209], [194, 206], [194, 226], [195, 211], [197, 199], [199, 207], [200, 232], [201, 233], [203, 234], [208, 214], [209, 225], [210, 224], [212, 213], [212, 222], [213, 220], [217, 221], [217, 233], [220, 232], [222, 238], [224, 227], [224, 233]], "support_counts": [1, 1, 1, 1, 1, 1, 1, 1, 1, 1, 1, 1, 1, 1, 1, 1, 1, 1, 1, 1, 1, 1, 1, 1, 1, 1, 1, 1, 1, 1, 1, 1, 1, 1, 1, 1, 1, 1, 1, 1, 1, 1, 1, 1, 1, 1, 1, 1, 1, 2, 2, 1, 1, 1, 1, 1, 1, 1, 1, 1, 1, 1, 1, 1, 1, 2, 1, 1, 1, 1, 1, 1, 1, 1, 1, 1, 1, 1, 2, 1, 1, 1, 1, 1, 1, 1, 1, 1, 1, 1, 1, 1, 1, 1, 1, 1, 1, 1, 1, 1, 1, 1, 1, 1, 1, 1, 1, 1, 1, 1, 1, 1, 1, 1, 1, 1, 1, 1, 1, 1, 1, 1, 2, 1, 1, 1, 1, 1, 1, 1, 1, 1, 1, 2, 1, 1, 1, 1, 1, 1, 1, 1, 1, 1, 1, 1, 1, 1, 1, 1, 1, 1, 1, 2, 1, 1, 1, 1, 1, 1, 1, 1, 1, 1, 1, 1, 1, 1, 1, 1, 1, 1, 1, 1, 1, 1, 1, 1, 1, 1, 1, 1, 1, 1, 1, 1, 1, 1, 1, 1, 1, 1, 1, 1, 1, 1, 1, 1, 1, 1, 1, 1, 1, 1, 1, 1, 1, 1, 1, 1, 1, 1, 2, 1, 1, 1, 1, 1, 1, 1, 1, 1, 2, 1, 1, 1, 1, 1, 1, 1, 1, 1, 1, 1, 1, 1, 1, 1, 1, 1, 1, 1, 1, 1, 1, 1, 1, 1, 1, 1, 1, 1, 1, 1, 1, 1, 1, 1, 1, 1, 1, 1, 1, 1, 1, 1, 1, 1, 1, 1, 1, 1, 1, 1, 1, 1, 1, 1, 1, 1, 1, 1, 1, 1, 1, 1, 1, 1, 1, 1, 1, 1, 1, 1, 1, 1, 1, 1, 1, 1, 1, 1, 2, 1, 1, 1, 1, 1, 1, 1, 2, 1, 1, 1, 1, 1, 2, 1, 1, 1, 1, 1, 1, 1, 1, 1, 1, 1, 1, 1, 1, 1, 1], "support_class": ["single", "single", "single", "single", "single", "single", "single", "single", "single", "single", "single", "single", "single", "single", "single", "single", "single", "single", "single", "single", "single", "single", "single", "single", "single", "single", "single", "single", "single", "single", "single", "single", "single", "single", "single", "single", "single", "single", "single", "single", "single", "single", "single", "single", "single", "single", "single", "single", "single", "shared", "shared", "single", "single", "single", "single", "single", "single", "single", "single", "single", "single", "single", "single", "single", "single", "shared", "single", "single", "single", "single", "single", "single", "single", "single", "single", "single", "single", "single", "shared", "single", "single", "single", "single", "single", "single", "single", "single", "single", "single", "single", "single", "single", "single", "single", "single", "single", "single", "single", "single", "single", "single", "single", "single", "single", "single", "single", "single", "single", "single", "single", "single", "single", "single", "single", "single", "single", "single", "single", "single", "single", "single", "single", "shared", "single", "single", "single", "single", "single", "single", "single", "single", "single", "single", "shared", "single", "single", "single", "single", "single", "single", "single", "single", "single", "single", "single", "single", "single", "single", "single", "single", "single", "single", "single", "shared", "single", "single", "single", "single", "single", "single", "single", "single", "single", "single", "single", "single", "single", "single", "single", "single", "single", "single", "single", "single", "single", "single", "single", "single", "single", "single", "single", "single", "single", "single", "single", "single", "single", "single", "single", "single", "single", "single", "single", "single", "single", "single", "single", "single", "single", "single", "single", "single", "single", "single", "single", "single", "single", "single", "single", "single", "single", "single", "shared", "single", "single", "single", "single", "single", "single", "single", "single", "single", "shared", "single", "single", "single", "single", "single", "single", "single", "single", "single", "single", "single", "single", "single", "single", "single", "single", "single", "single", "single", "single", "single", "single", "single", "single", "single", "single", "single", "single", "single", "single", "single", "single", "single", "single", "single", "single", "single", "single", "single", "single", "single", "single", "single", "single", "single", "single", "single", "single", "single", "single", "single", "single", "single", "single", "single", "single", "single", "single", "single", "single", "single", "single", "single", "single", "single", "single", "single", "single", "single", "single", "single", "single", "single", "single", "single", "single", "single", "single", "single", "shared", "single", "single", "single", "single", "single", "single", "single", "shared", "single", "single", "single", "single", "single", "shared", "single", "single", "single", "single", "single", "single", "single", "single", "single", "single", "single", "single", "single", "single", "single", "single"]}, "geometry": {"type": "MultiLineString", "coordinates": [[[-2.4325660231525843, -7.398647812529874], [67.5464944734066, 48.82735359584952]], [[-2.4325660231525843, -7.398647812529874], [-89.73270729346486, 53.85537682476431]], [[-2.4325660231525843, -7.398647812529874], [-56.45756494439735, -13.92641860976631]], [[73.57741766553156, 25.536213977817674], [-131.64740081674626, 8.3499692439574]], [[73.57741766553156, 25.536213977817674], [110.11978149759803, -53.95099808047939]], [[73.57741766553156, 25.536213977817674], [13.020870987839047, 42.09420224701681]], [[73.57741766553156, 25.536213977817674], [143.43933151082695, 7.52884949420081]], [[-106.42258233446846, -25.536213977817674], [-89.73270729346486, 53.85537682476431]], [[-106.42258233446846, -25.536213977817674], [-69.88021850240199, 53.95099808047939]], [[177.5674339768474, 7.398647812529874], [-134.986907599562, -25.978594682808072]], [[177.5674339768474, 7.398647812529874], [99.48023092926991, 38.33293790070401]], [[177.5674339768474, 7.398647812529874], [72.17088673070081, 27.6912989858538]], [[177.5674339768474, 7.398647812529874], [-72.26165895268757, 36.28821814782937]], [[177.5674339768474, 7.398647812529874], [119.54275263015612, 39.35321059559073]], [[13.582123188865106, -26.777144654386007], [67.06574884944582, -13.177818954473278]], [[13.582123188865106, -26.777144654386007], [68.23577301626993, -12.748569840909024]], [[67.5464944734066, 48.82735359584952], [13.540001417384284, -25.510125827742783]], [[67.5464944734066, 48.82735359584952], [168.09371023878384, 26.148165401749008]], [[-112.45350552659342, -48.82735359584952], [-156.55994136391251, -7.762008470567812]], [[-166.4178768111349, 26.777144654386007], [48.35259918325373, -8.3499692439574]], [[45.013092400438, 25.978594682808072], [0.4917913794236607, 30.322407000695094]], [[45.013092400438, 25.978594682808072], [57.39694558711958, -10.844115547733812]], [[45.013092400438, 25.978594682808072], [-30.129348531268963, 70.28388923156331]], [[45.013092400438, 25.978594682808072], [-19.093236853562342, 59.93416668209992]], [[13.540001417384284, -25.510125827742783], [-76.36832802698885, -60.403557015229005]], [[13.540001417384284, -25.510125827742783], [-48.895077540873096, -15.399098424431774]], [[-166.45999858261573, 25.510125827742783], [-36.56066848917307, -7.52884949420081]], [[-166.45999858261573, 25.510125827742783], [166.06823207897094, 30.724803528292327]], [[-166.45999858261573, 25.510125827742783], [143.40390541438248, -3.07290064388475]], [[-166.45999858261573, 25.510125827742783], [-72.26165895268757, 36.28821814782937]], [[23.440058636087496, 7.762008470567812], [14.3506019003352, -62.601115783246165]], [[75.34489925723412, 22.69478169130751], [166.84066380570638, 38.17446857588407]], [[75.34489925723412, 22.69478169130751], [-58.29439449426445, 2.750486177173234]], [[75.34489925723412, 22.69478169130751], [-37.36915237655626, 27.506471943839625]], [[75.34489925723412, 22.69478169130751], [12.178779932093658, 64.50503638483306]], [[75.34489925723412, 22.69478169130751], [110.11978149759803, -53.95099808047939]], [[-156.55994136391251, -7.762008470567812], [137.61697445574825, -60.341119041771925]], [[-156.55994136391251, -7.762008470567812], [-155.49923351279799, 22.12513515331698]], [[25.889048473293027, 20.84880948790825], [-47.744715833429325, 76.78470280613426]], [[25.889048473293027, 20.84880948790825], [-23.224523490772896, -13.852078578522457]], [[25.889048473293027, 20.84880948790825], [31.41365215590189, -17.87141380350224]], [[25.889048473293027, 20.84880948790825], [12.178779932093658, 64.50503638483306]], [[67.06574884944582, -13.177818954473278], [150.98389786514278, 1.4888242745900415]], [[67.06574884944582, -13.177818954473278], [-56.45756494439735, -13.92641860976631]], [[67.06574884944582, -13.177818954473278], [-19.093236853562342, 59.93416668209992]], [[67.06574884944582, -13.177818954473278], [-116.33694099524153, 32.60126288671655]], [[-112.93425115055419, 13.177818954473278], [-47.744715833429325, 76.78470280613426]], [[-112.93425115055419, 13.177818954473278], [48.35259918325373, -8.3499692439574]], [[-154.11095152670697, -20.84880948790825], [-105.65678053921789, 17.67065057570031]], [[-154.11095152670697, -20.84880948790825], [-102.07113555402469, 19.716310403282428]], [[-154.11095152670697, -20.84880948790825], [-111.76422698373008, 12.748569840909024]], [[45.66114599035369, 55.49338979776905], [-20.59265959192642, 38.91414240373543]], [[45.66114599035369, 55.49338979776905], [-65.1242361622712, 15.78954482028658]], [[45.66114599035369, 55.49338979776905], [125.44782848790223, 19.70223207254328]], [[45.66114599035369, 55.49338979776905], [-116.33694099524153, 32.60126288671655]], [[45.66114599035369, 55.49338979776905], [101.1321717725254, 25.91694306782895]], [[33.403391663763884, -10.659142460027855], [13.285793280050767, 14.931283152770995]], [[-146.59660833623613, 10.659142460027855], [135.02181144706518, -12.723094445801479]], [[-134.33885400964633, -55.49338979776905], [12.087298846744572, 73.54575186033225]], [[-20.59265959192642, 38.91414240373543], [-14.483455271555501, -12.684067624263129]], [[-20.59265959192642, 38.91414240373543], [-116.33694099524153, 32.60126288671655]], [[74.34321946078212, -17.67065057570031], [117.16747118297909, 25.294972940080008]], [[74.34321946078212, -17.67065057570031], [86.41642897066991, 28.54587480176076]], [[-105.65678053921789, 17.67065057570031], [-103.11698651005815, 71.32379311370754]], [[159.4073404080736, -38.91414240373543], [119.54275263015612, 39.35321059559073]], [[-47.17521475629575, -44.48455290495162], [-65.1242361622712, 15.78954482028658]], [[-47.17521475629575, -44.48455290495162], [-86.25280512479814, 15.922549181962285]], [[-47.17521475629575, -44.48455290495162], [-166.97912901216094, -42.09420224701681]], [[-89.73270729346486, 53.85537682476431], [-15.048164721817919, 8.695708456159593]], [[-89.73270729346486, 53.85537682476431], [-29.021733963362802, -17.75685602326665]], [[-89.73270729346486, 53.85537682476431], [-29.016102134857224, -1.4888242745900415]], [[-89.73270729346486, 53.85537682476431], [-90.70110312103895, 7.839184137175484]], [[-89.73270729346486, 53.85537682476431], [76.88301348994186, -71.32379311370754]], [[132.82478524370424, 44.48455290495162], [65.67989230013868, 15.989915129774365]], [[132.82478524370424, 44.48455290495162], [-161.36819224302337, 57.85879265832644]], [[-15.048164721817919, 8.695708456159593], [-90.70110312103895, 7.839184137175484]], [[-15.048164721817919, 8.695708456159593], [131.10492245912693, 15.399098424431774]], [[-15.048164721817919, 8.695708456159593], [-43.25854768346224, 56.85916368610885]], [[-15.048164721817919, 8.695708456159593], [47.115152386841984, 30.527160293484673]], [[-15.048164721817919, 8.695708456159593], [-11.721005376978063, -48.81887945902822]], [[-80.5197690707301, -38.33293790070401], [-166.38415008243706, 27.77170735103876]], [[-80.5197690707301, -38.33293790070401], [18.631807756976634, -57.85879265832644]], [[-80.5197690707301, -38.33293790070401], [117.16747118297909, 25.294972940080008]], [[99.48023092926991, 38.33293790070401], [130.3284438822923, 73.31221080029844]], [[99.48023092926991, 38.33293790070401], [115.32031163858125, -8.791315013875005]], [[164.95183527818207, -8.695708456159593], [-12.018002926806837, -5.583364278899284]], [[164.95183527818207, -8.695708456159593], [110.11978149759803, -53.95099808047939]], [[164.95183527818207, -8.695708456159593], [86.41642897066991, 28.54587480176076]], [[164.95183527818207, -8.695708456159593], [-54.55217151209778, -19.70223207254328]], [[164.95183527818207, -8.695708456159593], [-122.60305441288043, 10.844115547733812]], [[-29.021733963362802, -17.75685602326665], [47.115152386841984, 30.527160293484673]], [[-29.021733963362802, -17.75685602326665], [57.39694558711958, -10.844115547733812]], [[72.17088673070081, 27.6912989858538], [-42.38302554425174, 60.341119041771925]], [[72.17088673070081, 27.6912989858538], [73.82568244055743, -34.96213540692058]], [[72.17088673070081, 27.6912989858538], [6.0855815239997355, 48.079448926494884]], [[72.17088673070081, 27.6912989858538], [-57.251395641200894, 52.243142909518305]], [[150.9782660366372, 17.75685602326665], [39.06332577405494, 10.995491178223057]], [[150.9782660366372, 17.75685602326665], [-163.86244447427484, 78.96667834564563]], [[150.9782660366372, 17.75685602326665], [97.09406918993011, 2.063650511131398]], [[150.9782660366372, 17.75685602326665], [150.01430224107028, -60.635768705358245]], [[-29.016102134857224, -1.4888242745900415], [150.89899145436885, 77.36806101919538]], [[-29.016102134857224, -1.4888242745900415], [47.115152386841984, 30.527160293484673]], [[-29.016102134857224, -1.4888242745900415], [-132.16996273854636, -50.07937041811666]], [[-29.016102134857224, -1.4888242745900415], [-69.88021850240199, 53.95099808047939]], [[-29.016102134857224, -1.4888242745900415], [166.06823207897094, 30.724803528292327]], [[-29.016102134857224, -1.4888242745900415], [-81.97487243753353, 47.714103081369494]], [[-101.52072559230383, -45.2873231669035], [-64.84700047469828, 11.468226830779495]], [[-101.52072559230383, -45.2873231669035], [168.09371023878384, 26.148165401749008]], [[78.47927440769618, 45.2873231669035], [32.86945718216021, 40.714857349471345]], [[78.47927440769618, 45.2873231669035], [57.14225294560701, 6.990642578149242]], [[78.47927440769618, 45.2873231669035], [13.285793280050767, 14.931283152770995]], [[78.47927440769618, 45.2873231669035], [-21.126059712681034, 25.631957313225637]], [[78.47927440769618, 45.2873231669035], [32.91860720363977, 66.37221942797115]], [[78.47927440769618, 45.2873231669035], [-54.55217151209778, -19.70223207254328]], [[78.47927440769618, 45.2873231669035], [-122.04294553062367, 55.58305115676285]], [[150.98389786514278, 1.4888242745900415], [-29.101008545631146, -77.36806101919538]], [[150.98389786514278, 1.4888242745900415], [64.97483014102531, -25.80162850976359]], [[150.98389786514278, 1.4888242745900415], [39.06332577405494, 10.995491178223057]], [[150.98389786514278, 1.4888242745900415], [142.63084762344374, -27.506471943839625]], [[150.98389786514278, 1.4888242745900415], [-179.50820862057634, -30.322407000695094]], [[-90.70110312103895, 7.839184137175484], [-30.129348531268963, 70.28388923156331]], [[-25.171611114329888, -42.623561616581966], [48.35259918325373, -8.3499692439574]], [[154.82838888567014, 42.623561616581966], [32.91860720363977, 66.37221942797115]], [[154.82838888567014, 42.623561616581966], [103.62521067475052, 35.82301717950809]], [[89.29889687896105, -7.839184137175484], [47.830037261453654, 50.07937041811666]], [[89.29889687896105, -7.839184137175484], [-72.26165895268757, 36.28821814782937]], [[-64.84700047469828, 11.468226830779495], [-56.45756494439735, -13.92641860976631]], [[-64.84700047469828, 11.468226830779495], [-81.97487243753353, 47.714103081369494]], [[-64.84700047469828, 11.468226830779495], [-135.46608324376416, 32.33033052266667]], [[76.88301348994186, -71.32379311370754], [135.02181144706518, -12.723094445801479]], [[76.88301348994186, -71.32379311370754], [61.57481298246757, 7.619723639548579]], [[-103.11698651005815, 71.32379311370754], [-86.28948230880796, 10.109916235874842]], [[-103.11698651005815, 71.32379311370754], [-62.83252881702093, -25.294972940080008]], [[115.15299952530172, -11.468226830779495], [119.54275263015612, 39.35321059559073]], [[-76.36832802698885, -60.403557015229005], [3.2396283550843434, -37.5106505076484]], [[-76.36832802698885, -60.403557015229005], [103.61781091479791, -25.069053298119865]], [[103.63167197301115, 60.403557015229005], [44.67875337191816, -0.6786456132187703]], [[103.63167197301115, 60.403557015229005], [101.1321717725254, 25.91694306782895]], [[103.63167197301115, 60.403557015229005], [166.06823207897094, 30.724803528292327]], [[103.63167197301115, 60.403557015229005], [-81.97487243753353, 47.714103081369494]], [[103.63167197301115, 60.403557015229005], [123.54243505560264, 13.92641860976631]], [[-166.38415008243706, 27.77170735103876], [-135.32124662808184, 0.6786456132187703]], [[-166.38415008243706, 27.77170735103876], [97.09406918993011, 2.063650511131398]], [[-13.159336194293621, -38.17446857588407], [-57.251395641200894, 52.243142909518305]], [[-123.63428739086245, -64.98368210200867], [83.22836045143357, -65.749215362337]], [[56.36571260913754, 64.98368210200867], [107.73834104731243, -36.28821814782937]], [[56.36571260913754, 64.98368210200867], [13.020870987839047, 42.09420224701681]], [[56.36571260913754, 64.98368210200867], [114.87576383772881, -15.78954482028658]], [[166.84066380570638, 38.17446857588407], [-106.17431755944257, 34.96213540692058]], [[166.84066380570638, 38.17446857588407], [-81.97487243753353, 47.714103081369494]], [[166.84066380570638, 38.17446857588407], [-173.91441847600026, -48.079448926494884]], [[166.84066380570638, 38.17446857588407], [-122.857747054393, -6.990642578149242]], [[-11.90628976121616, -26.148165401749008], [-48.895077540873096, -15.399098424431774]], [[-11.90628976121616, -26.148165401749008], [-47.744715833429325, 76.78470280613426]], [[-11.90628976121616, -26.148165401749008], [68.23577301626993, -12.748569840909024]], [[-111.78769693342475, -71.85313156287506], [-14.483455271555501, -12.684067624263129]], [[68.21230306657525, 71.85313156287506], [-81.97487243753353, 47.714103081369494]], [[168.09371023878384, 26.148165401749008], [88.6508438905823, 34.467040323078194]], [[168.09371023878384, 26.148165401749008], [-76.3821890852021, 25.069053298119865]], [[168.09371023878384, 26.148165401749008], [121.70560550573556, -2.750486177173234]], [[-4.148328790744118, -57.33885958561186], [24.500766487202007, -22.12513515331698]], [[-4.148328790744118, -57.33885958561186], [-132.88484761315803, -30.527160293484673]], [[175.8516712092559, 57.33885958561186], [119.54275263015612, 39.35321059559073]], [[88.6508438905823, 34.467040323078194], [13.724316955673007, -24.62973000996116]], [[88.6508438905823, 34.467040323078194], [0.4917913794236607, 30.322407000695094]], [[88.6508438905823, 34.467040323078194], [-36.596094585617536, 3.07290064388475]], [[88.6508438905823, 34.467040323078194], [-64.67968836141875, 8.791315013875005]], [[88.6508438905823, 34.467040323078194], [-173.91441847600026, -48.079448926494884]], [[-59.317534666106624, -3.9714966243999874], [-106.17431755944257, 34.96213540692058]], [[-59.317534666106624, -3.9714966243999874], [-44.97818855293482, 12.723094445801479]], [[-59.317534666106624, -3.9714966243999874], [6.0855815239997355, 48.079448926494884]], [[-59.317534666106624, -3.9714966243999874], [-21.126059712681034, 25.631957313225637]], [[-96.77163954856643, 65.749215362337], [-106.17431755944257, 34.96213540692058]], [[-96.77163954856643, 65.749215362337], [-64.67968836141875, 8.791315013875005]], [[120.68246533389339, 3.9714966243999874], [47.115152386841984, 30.527160293484673]], [[28.821392672883476, 25.138314180292383], [63.66305900475847, -32.60126288671655]], [[28.821392672883476, 25.138314180292383], [142.63084762344374, -27.506471943839625]], [[28.821392672883476, 25.138314180292383], [119.54275263015612, 39.35321059559073]], [[133.85840757090412, 41.06650013041098], [44.67875337191816, -0.6786456132187703]], [[133.85840757090412, 41.06650013041098], [57.957054469376324, -55.58305115676285]], [[-46.14159242909587, -41.06650013041098], [-86.28948230880796, 10.109916235874842]], [[32.86945718216021, 40.714857349471345], [32.68201203235534, -77.67058838833286]], [[131.10492245912693, 15.399098424431774], [-65.1242361622712, 15.78954482028658]], [[131.10492245912693, 15.399098424431774], [101.1321717725254, 25.91694306782895]], [[131.10492245912693, 15.399098424431774], [-62.83252881702093, -25.294972940080008]], [[-48.895077540873096, -15.399098424431774], [103.61781091479791, -25.069053298119865]], [[-48.895077540873096, -15.399098424431774], [97.09406918993011, 2.063650511131398]], [[-48.895077540873096, -15.399098424431774], [150.01430224107028, -60.635768705358245]], [[-48.895077540873096, -15.399098424431774], [-144.16100317157162, 37.96399222812056]], [[130.3284438822923, 73.31221080029844], [115.32031163858125, -8.791315013875005]], [[130.3284438822923, 73.31221080029844], [-166.97912901216094, -42.09420224701681]], [[130.3284438822923, 73.31221080029844], [142.63084762344374, -27.506471943839625]], [[-49.67155611770771, -73.31221080029844], [136.74145231653776, -56.85916368610885]], [[-49.67155611770771, -73.31221080029844], [-54.55217151209778, -19.70223207254328]], [[-49.67155611770771, -73.31221080029844], [149.87065146873104, -70.28388923156331]], [[-43.25854768346224, 56.85916368610885], [-18.450473018810413, 18.591113206753388]], [[-43.25854768346224, 56.85916368610885], [-62.83252881702093, -25.294972940080008]], [[93.71051769119205, -10.109916235874842], [-166.97912901216094, -42.09420224701681]], [[93.71051769119205, -10.109916235874842], [158.87394028731896, -25.631957313225637]], [[93.71051769119205, -10.109916235874842], [119.54275263015612, 39.35321059559073]], [[-86.28948230880796, 10.109916235874842], [-45.4027929575216, 40.197019400693826]], [[-86.28948230880796, 10.109916235874842], [-13.931767921029063, -30.724803528292327]], [[5.463483613602193, 15.563895076397072], [-42.38302554425174, 60.341119041771925]], [[5.463483613602193, 15.563895076397072], [119.54275263015612, 39.35321059559073]], [[150.89899145436885, 77.36806101919538], [-12.018002926806837, -5.583364278899284]], [[150.89899145436885, 77.36806101919538], [103.62521067475052, 35.82301717950809]], [[150.89899145436885, 77.36806101919538], [97.09406918993011, 2.063650511131398]], [[150.89899145436885, 77.36806101919538], [32.68201203235534, -77.67058838833286]], [[150.89899145436885, 77.36806101919538], [-115.02516985897469, 25.80162850976359]], [[-174.53651638639784, -15.563895076397072], [-155.49923351279799, 22.12513515331698]], [[-42.38302554425174, 60.341119041771925], [73.82568244055743, -34.96213540692058]], [[-42.38302554425174, 60.341119041771925], [35.83899682842837, -37.96399222812056]], [[13.724316955673007, -24.62973000996116], [47.830037261453654, 50.07937041811666]], [[13.724316955673007, -24.62973000996116], [-76.3821890852021, 25.069053298119865]], [[-166.275683044327, 24.62973000996116], [-106.17431755944257, 34.96213540692058]], [[-166.275683044327, 24.62973000996116], [-58.29439449426445, 2.750486177173234]], [[-166.275683044327, 24.62973000996116], [-131.64740081674626, 8.3499692439574]], [[137.61697445574825, -60.341119041771925], [-144.16100317157162, 37.96399222812056]], [[-44.45534605280093, 28.1126704057525], [-94.5141534162969, 45.30836644414079]], [[-44.45534605280093, 28.1126704057525], [0.4917913794236607, 30.322407000695094]], [[73.82568244055743, -34.96213540692058], [-140.93667422594507, -10.995491178223057]], [[73.82568244055743, -34.96213540692058], [121.70560550573556, -2.750486177173234]], [[135.54465394719907, -28.1126704057525], [97.09406918993011, 2.063650511131398]], [[-47.744715833429325, 76.78470280613426], [47.115152386841984, 30.527160293484673]], [[-47.744715833429325, 76.78470280613426], [103.62521067475052, 35.82301717950809]], [[-47.744715833429325, 76.78470280613426], [-122.60305441288043, 10.844115547733812]], [[16.724418795608507, -7.979368167709639], [123.54243505560264, 13.92641860976631]], [[-163.2755812043915, 7.979368167709639], [115.32031163858125, -8.791315013875005]], [[132.25528416657068, -76.78470280613426], [-76.37478932524948, -35.82301717950809]], [[-45.4027929575216, 40.197019400693826], [-12.018002926806837, -5.583364278899284]], [[77.92886444597531, -19.716310403282428], [117.16747118297909, 25.294972940080008]], [[-102.07113555402469, 19.716310403282428], [-13.931767921029063, -30.724803528292327]], [[-102.07113555402469, 19.716310403282428], [-147.31798796764465, 77.67058838833286]], [[134.59720704247843, -40.197019400693826], [-166.97912901216094, -42.09420224701681]], [[-94.5141534162969, 45.30836644414079], [-29.98569775892971, 60.635768705358245]], [[-94.5141534162969, 45.30836644414079], [-116.33694099524153, 32.60126288671655]], [[-94.5141534162969, 45.30836644414079], [-165.6493980996648, 62.601115783246165]], [[135.02181144706518, -12.723094445801479], [57.14225294560701, 6.990642578149242]], [[135.02181144706518, -12.723094445801479], [143.43933151082695, 7.52884949420081]], [[135.02181144706518, -12.723094445801479], [165.5165447284445, 12.684067624263129]], [[-44.97818855293482, 12.723094445801479], [168.27899462302193, 48.81887945902822]], [[-44.97818855293482, 12.723094445801479], [-78.8678282274746, -25.91694306782895]], [[-44.97818855293482, 12.723094445801479], [-176.76037164491567, 37.5106505076484]], [[85.4858465837031, -45.30836644414079], [161.54952698118962, -18.591113206753388]], [[-18.450473018810413, 18.591113206753388], [-13.60299784905854, 1.9122954047425968]], [[24.500766487202007, -22.12513515331698], [41.91138672321411, -16.352824298698653]], [[35.83899682842837, -37.96399222812056], [-56.45756494439735, -13.92641860976631]], [[-14.483455271555501, -12.684067624263129], [-36.56066848917307, -7.52884949420081]], [[41.91138672321411, -16.352824298698653], [-30.129348531268963, 70.28388923156331]], [[41.91138672321411, -16.352824298698653], [-166.97912901216094, -42.09420224701681]], [[41.91138672321411, -16.352824298698653], [143.40390541438248, -3.07290064388475]], [[-13.60299784905854, 1.9122954047425968], [-30.129348531268963, 70.28388923156331]], [[-13.60299784905854, 1.9122954047425968], [-78.8678282274746, -25.91694306782895]], [[-65.1242361622712, 15.78954482028658], [125.44782848790223, 19.70223207254328]], [[-65.1242361622712, 15.78954482028658], [115.32031163858125, -8.791315013875005]], [[-56.45756494439735, -13.92641860976631], [-147.31798796764465, 77.67058838833286]], [[-56.45756494439735, -13.92641860976631], [-126.12728439981505, -59.532738655873885]], [[14.3506019003352, -62.601115783246165], [31.41365215590189, -17.87141380350224]], [[-58.29439449426445, 2.750486177173234], [-167.91270115325545, -73.54575186033225]], [[18.631807756976634, -57.85879265832644], [31.41365215590189, -17.87141380350224]], [[-60.45724736984389, -39.35321059559073], [-19.093236853562342, 59.93416668209992]], [[-60.45724736984389, -39.35321059559073], [-37.36915237655626, 27.506471943839625]], [[-60.45724736984389, -39.35321059559073], [-12.018002926806837, -5.583364278899284]], [[47.115152386841984, 30.527160293484673], [119.54275263015612, 39.35321059559073]], [[0.4917913794236607, 30.322407000695094], [-38.67905214622289, 40.172235043994256]], [[-29.98569775892971, 60.635768705358245], [107.73834104731243, -36.28821814782937]], [[-29.98569775892971, 60.635768705358245], [101.1321717725254, 25.91694306782895]], [[-29.98569775892971, 60.635768705358245], [-135.46608324376416, 32.33033052266667]], [[57.39694558711958, -10.844115547733812], [-36.596094585617536, 3.07290064388475]], [[57.39694558711958, -10.844115547733812], [-167.82122006790635, -64.50503638483306]], [[61.57481298246757, 7.619723639548579], [123.54243505560264, 13.92641860976631]], [[125.44782848790223, 19.70223207254328], [107.04594892502533, 6.354333648113237]], [[-19.093236853562342, 59.93416668209992], [107.04594892502533, 6.354333648113237]], [[-38.67905214622289, 40.172235043994256], [31.41365215590189, -17.87141380350224]], [[31.41365215590189, -17.87141380350224], [-64.67968836141875, 8.791315013875005]], [[117.16747118297909, 25.294972940080008], [-166.71420671994923, -14.931283152770995]], [[57.14225294560701, 6.990642578149242], [115.32031163858125, -8.791315013875005]], [[6.0855815239997355, 48.079448926494884], [115.32031163858125, -8.791315013875005]], [[6.0855815239997355, 48.079448926494884], [98.02512756246647, -47.714103081369494]], [[6.0855815239997355, 48.079448926494884], [32.91860720363977, 66.37221942797115]], [[6.0855815239997355, 48.079448926494884], [-57.251395641200894, 52.243142909518305]], [[6.0855815239997355, 48.079448926494884], [142.63084762344374, -27.506471943839625]], [[12.178779932093658, 64.50503638483306], [-57.251395641200894, 52.243142909518305]], [[12.178779932093658, 64.50503638483306], [-122.60305441288043, 10.844115547733812]], [[68.23577301626993, -12.748569840909024], [53.87271560018496, 59.532738655873885]], [[115.32031163858125, -8.791315013875005], [39.06332577405494, 10.995491178223057]], [[115.32031163858125, -8.791315013875005], [103.62521067475052, 35.82301717950809]], [[115.32031163858125, -8.791315013875005], [-148.58634784409813, 17.87141380350224]], [[115.32031163858125, -8.791315013875005], [-179.50820862057634, -30.322407000695094]], [[39.06332577405494, 10.995491178223057], [-148.58634784409813, 17.87141380350224]], [[-21.126059712681034, 25.631957313225637], [32.91860720363977, 66.37221942797115]], [[-21.126059712681034, 25.631957313225637], [86.41642897066991, 28.54587480176076]], [[-13.931767921029063, -30.724803528292327], [-147.31798796764465, 77.67058838833286]], [[-13.931767921029063, -30.724803528292327], [168.27899462302193, 48.81887945902822]], [[-12.018002926806837, -5.583364278899284], [110.11978149759803, -53.95099808047939]], [[-12.018002926806837, -5.583364278899284], [-144.16100317157162, 37.96399222812056]], [[65.67989230013868, 15.989915129774365], [114.87576383772881, -15.78954482028658]], [[47.830037261453654, 50.07937041811666], [93.74719487520186, -15.922549181962285]], [[53.87271560018496, 59.532738655873885], [13.020870987839047, 42.09420224701681]], [[86.41642897066991, 28.54587480176076], [165.5165447284445, 12.684067624263129]], [[13.020870987839047, 42.09420224701681], [97.09406918993011, 2.063650511131398]], [[13.020870987839047, 42.09420224701681], [-64.67968836141875, 8.791315013875005]], [[13.020870987839047, 42.09420224701681], [-138.0886132767859, 16.352824298698653]], [[-147.31798796764465, 77.67058838833286], [143.43933151082695, 7.52884949420081]], [[-163.86244447427484, 78.96667834564563], [-144.16100317157162, 37.96399222812056]], [[-11.721005376978063, -48.81887945902822], [48.35259918325373, -8.3499692439574]], [[32.68201203235534, -77.67058838833286], [-147.08139279636023, -66.37221942797115]], [[32.68201203235534, -77.67058838833286], [-72.26165895268757, 36.28821814782937]], [[32.68201203235534, -77.67058838833286], [123.54243505560264, 13.92641860976631]], [[-72.95405107497467, -6.354333648113237], [-57.251395641200894, 52.243142909518305]], [[48.35259918325373, -8.3499692439574], [-76.3821890852021, 25.069053298119865]], [[48.35259918325373, -8.3499692439574], [-64.67968836141875, 8.791315013875005]], [[48.35259918325373, -8.3499692439574], [63.66305900475847, -32.60126288671655]], [[167.98199707319318, 5.583364278899284], [-166.71420671994923, -14.931283152770995]], [[167.98199707319318, 5.583364278899284], [-161.36819224302337, 57.85879265832644]], [[-76.3821890852021, 25.069053298119865], [-62.83252881702093, -25.294972940080008]], [[-81.97487243753353, 47.714103081369494], [158.87394028731896, -25.631957313225637]], [[158.87394028731896, -25.631957313225637], [-122.857747054393, -6.990642578149242]], [[-140.93667422594507, -10.995491178223057], [-122.04294553062367, 55.58305115676285]], [[-64.67968836141875, 8.791315013875005], [114.87576383772881, -15.78954482028658]], [[-167.82122006790635, -64.50503638483306], [166.39700215094146, -1.9122954047425968]], [[-57.251395641200894, 52.243142909518305], [-148.58634784409813, 17.87141380350224]], [[63.66305900475847, -32.60126288671655], [12.087298846744572, 73.54575186033225]], [[142.63084762344374, -27.506471943839625], [119.54275263015612, 39.35321059559073]], [[143.40390541438248, -3.07290064388475], [-72.26165895268757, 36.28821814782937]], [[143.40390541438248, -3.07290064388475], [-179.50820862057634, -30.322407000695094]], [[-72.26165895268757, 36.28821814782937], [-122.60305441288043, 10.844115547733812]], [[-54.55217151209778, -19.70223207254328], [150.01430224107028, -60.635768705358245]], [[-54.55217151209778, -19.70223207254328], [114.87576383772881, -15.78954482028658]], [[-122.60305441288043, 10.844115547733812], [-122.04294553062367, 55.58305115676285]], [[-179.50820862057634, -30.322407000695094], [-155.49923351279799, 22.12513515331698]], [[119.54275263015612, 39.35321059559073], [121.70560550573556, -2.750486177173234]], [[119.54275263015612, 39.35321059559073], [114.87576383772881, -15.78954482028658]]]}}]}