{"type": "FeatureCollection", "name": "E8_proj_seed1409 sites", "properties": {"shape": "E8_proj_seed1409", "lock_lat": 35.0, "lock_lon": 25.0, "bearing": 260.0, "thresholds": {"close": 0.09892531138990063, "medium": 0.13489815189531904, "close_km": 11.0, "medium_km": 15.0, "dist_mode": "edge_exact"}}, "features": [{"type": "Feature", "properties": {"kind": "site", "name": "Glastonbury Tor", "dist_deg": 0.006397, "dist_km": 0.711, "class": "close", "dist_source": "ks_full_grid"}, "geometry": {"type": "Point", "coordinates": [-2.7, 51.0]}}, {"type": "Feature", "properties": {"kind": "site", "name": "Shaftesbury", "dist_deg": 0.0004527, "dist_km": 0.05, "class": "close", "dist_source": "ks_full_grid"}, "geometry": {"type": "Point", "coordinates": [-2.195, 51.0]}}, {"type": "Feature", "properties": {"kind": "site", "name": "Brandenburg Gate", "dist_deg": 0.0610462, "dist_km": 6.788, "class": "close", "dist_source": "ks_full_grid"}, "geometry": {"type": "Point", "coordinates": [13.3778, 52.5164]}}, {"type": "Feature", "properties": {"kind": "site", "name": "Placa de Catalunya", "dist_deg": 0.0356669, "dist_km": 3.966, "class": "close", "dist_source": "ks_full_grid"}, "geometry": {"type": "Point", "coordinates": [2.17, 41.387]}}, {"type": "Feature", "properties": {"kind": "site", "name": "Island of the Sun", "dist_deg": 0.0156906, "dist_km": 1.745, "class": "close", "dist_source": "ks_full_grid"}, "geometry": {"type": "Point", "coordinates": [-69.1717, -16.0167]}}, {"type": "Feature", "properties": {"kind": "site", "name": "Plaza Mayor Lima", "dist_deg": 0.0082434, "dist_km": 0.917, "class": "close", "dist_source": "ks_full_grid"}, "geometry": {"type": "Point", "coordinates": [-77.0306, -12.0458]}}, {"type": "Feature", "properties": {"kind": "site", "name": "Rio Ucayali-Rio Maranon confluence", "dist_deg": 0.0007006, "dist_km": 0.078, "class": "close", "dist_source": "ks_full_grid"}, "geometry": {"type": "Point", "coordinates": [-73.45, -4.45]}}, {"type": "Feature", "properties": {"kind": "site", "name": "Uluru", "dist_deg": 0.0297938, "dist_km": 3.313, "class": "close", "dist_source": "ks_full_grid"}, "geometry": {"type": "Point", "coordinates": [130.9917, -25.3433]}}, {"type": "Feature", "properties": {"kind": "site", "name": "Kata Tjuta", "dist_deg": 0.0394143, "dist_km": 4.383, "class": "close", "dist_source": "ks_full_grid"}, "geometry": {"type": "Point", "coordinates": [130.7528, -25.2981]}}, {"type": "Feature", "properties": {"kind": "site", "name": "Nourlangie Rock", "dist_deg": 0.0622294, "dist_km": 6.92, "class": "close", "dist_source": "ks_full_grid"}, "geometry": {"type": "Point", "coordinates": [132.8111, -12.8669]}}, {"type": "Feature", "properties": {"kind": "site", "name": "Hamelin Pool", "dist_deg": 0.0054167, "dist_km": 0.602, "class": "close", "dist_source": "ks_full_grid"}, "geometry": {"type": "Point", "coordinates": [114.2003, -26.435]}}, {"type": "Feature", "properties": {"kind": "site", "name": "Tirta Empul", "dist_deg": 0.1295595, "dist_km": 14.406, "class": "medium", "dist_source": "ks_full_grid"}, "geometry": {"type": "Point", "coordinates": [115.3111, -8.4167]}}, {"type": "Feature", "properties": {"kind": "site", "name": "Borobudur", "dist_deg": 0.0111312, "dist_km": 1.238, "class": "close", "dist_source": "ks_full_grid"}, "geometry": {"type": "Point", "coordinates": [110.2042, -7.6081]}}, {"type": "Feature", "properties": {"kind": "site", "name": "Mount Kinabalu", "dist_deg": 0.0466021, "dist_km": 5.182, "class": "close", "dist_source": "ks_full_grid"}, "geometry": {"type": "Point", "coordinates": [116.5628, 6.0744]}}, {"type": "Feature", "properties": {"kind": "site", "name": "Mount Kailash", "dist_deg": 0.0393202, "dist_km": 4.372, "class": "close", "dist_source": "ks_full_grid"}, "geometry": {"type": "Point", "coordinates": [81.3125, 31.0675]}}, {"type": "Feature", "properties": {"kind": "site", "name": "Karakul Lake", "dist_deg": 0.0203278, "dist_km": 2.26, "class": "close", "dist_source": "ks_full_grid"}, "geometry": {"type": "Point", "coordinates": [73.4886, 39.0217]}}, {"type": "Feature", "properties": {"kind": "site", "name": "Sundarbans-Sagar Island", "dist_deg": 0.0565121, "dist_km": 6.284, "class": "close", "dist_source": "ks_full_grid"}, "geometry": {"type": "Point", "coordinates": [88.2953, 22.5564]}}, {"type": "Feature", "properties": {"kind": "site", "name": "Mount Shasta", "dist_deg": 0.1125945, "dist_km": 12.52, "class": "medium", "dist_source": "ks_full_grid"}, "geometry": {"type": "Point", "coordinates": [-122.31, 41.31]}}, {"type": "Feature", "properties": {"kind": "site", "name": "Kachina Peaks Wilderness", "dist_deg": 0.0407516, "dist_km": 4.531, "class": "close", "dist_source": "ks_full_grid"}, "geometry": {"type": "Point", "coordinates": [-111.6625, 35.3394]}}, {"type": "Feature", "properties": {"kind": "site", "name": "Golden Hinde", "dist_deg": 0.0042457, "dist_km": 0.472, "class": "close", "dist_source": "ks_full_grid"}, "geometry": {"type": "Point", "coordinates": [-125.4494, 49.6506]}}, {"type": "Feature", "properties": {"kind": "site", "name": "El Tule-Palenque", "dist_deg": 0.039484, "dist_km": 4.39, "class": "close", "dist_source": "ks_full_grid"}, "geometry": {"type": "Point", "coordinates": [-91.9817, 17.51]}}, {"type": "Feature", "properties": {"kind": "site", "name": "Laguna Corcovado", "dist_deg": 0.0504716, "dist_km": 5.612, "class": "close", "dist_source": "ks_full_grid"}, "geometry": {"type": "Point", "coordinates": [-83.6167, 8.55]}}, {"type": "Feature", "properties": {"kind": "site", "name": "Cerro de la Silla", "dist_deg": 0.1032227, "dist_km": 11.478, "class": "medium", "dist_source": "ks_full_grid"}, "geometry": {"type": "Point", "coordinates": [-100.3092, 25.6733]}}, {"type": "Feature", "properties": {"kind": "site", "name": "Mount Fuji", "dist_deg": 0.0198234, "dist_km": 2.204, "class": "close", "dist_source": "ks_full_grid"}, "geometry": {"type": "Point", "coordinates": [138.7317, 35.3628]}}, {"type": "Feature", "properties": {"kind": "site", "name": "Mani San", "dist_deg": 0.0290168, "dist_km": 3.227, "class": "close", "dist_source": "ks_full_grid"}, "geometry": {"type": "Point", "coordinates": [126.4347, 37.6117]}}, {"type": "Feature", "properties": {"kind": "site", "name": "Sefa Utaki", "dist_deg": 0.0364954, "dist_km": 4.058, "class": "close", "dist_source": "ks_full_grid"}, "geometry": {"type": "Point", "coordinates": [127.7669, 26.1444]}}, {"type": "Feature", "properties": {"kind": "site", "name": "Haleakala Crater", "dist_deg": 0.0006404, "dist_km": 0.071, "class": "close", "dist_source": "ks_full_grid"}, "geometry": {"type": "Point", "coordinates": [-156.1828, 20.7186]}}, {"type": "Feature", "properties": {"kind": "site", "name": "Midway Atoll", "dist_deg": 0.0237693, "dist_km": 2.643, "class": "close", "dist_source": "ks_full_grid"}, "geometry": {"type": "Point", "coordinates": [-177.3833, 28.25]}}, {"type": "Feature", "properties": {"kind": "site", "name": "Mauna Loa", "dist_deg": 0.0458485, "dist_km": 5.098, "class": "close", "dist_source": "ks_full_grid"}, "geometry": {"type": "Point", "coordinates": [-155.5356, 19.7569]}}, {"type": "Feature", "properties": {"kind": "site", "name": "Lake Rotopounamu", "dist_deg": 0.0173827, "dist_km": 1.933, "class": "close", "dist_source": "ks_full_grid"}, "geometry": {"type": "Point", "coordinates": [175.7372, -39.0258]}}, {"type": "Feature", "properties": {"kind": "site", "name": "Mount Panié", "dist_deg": 0.0513937, "dist_km": 5.715, "class": "close", "dist_source": "ks_full_grid"}, "geometry": {"type": "Point", "coordinates": [164.7706, -20.5894]}}, {"type": "Feature", "properties": {"kind": "site", "name": "Macquarie Island", "dist_deg": 0.0103871, "dist_km": 1.155, "class": "close", "dist_source": "ks_full_grid"}, "geometry": {"type": "Point", "coordinates": [158.8956, -54.5947]}}, {"type": "Feature", "properties": {"kind": "site", "name": "Great Pyramid of Giza", "dist_deg": 0.0302585, "dist_km": 3.365, "class": "close", "dist_source": "ks_full_grid"}, "geometry": {"type": "Point", "coordinates": [31.1342, 29.9792]}}, {"type": "Feature", "properties": {"kind": "site", "name": "Mount Sinai", "dist_deg": 0.082651, "dist_km": 9.19, "class": "close", "dist_source": "ks_full_grid"}, "geometry": {"type": "Point", "coordinates": [33.973, 28.5394]}}, {"type": "Feature", "properties": {"kind": "site", "name": "Mount of Olives", "dist_deg": 0.041176, "dist_km": 4.579, "class": "close", "dist_source": "ks_full_grid"}, "geometry": {"type": "Point", "coordinates": [35.2439, 31.778]}}, {"type": "Feature", "properties": {"kind": "site", "name": "Mecca", "dist_deg": 0.03579, "dist_km": 3.98, "class": "close", "dist_source": "ks_full_grid"}, "geometry": {"type": "Point", "coordinates": [39.8147, 21.4275]}}, {"type": "Feature", "properties": {"kind": "site", "name": "Takht-e Soleiman", "dist_deg": 0.0179922, "dist_km": 2.001, "class": "close", "dist_source": "ks_full_grid"}, "geometry": {"type": "Point", "coordinates": [47.2361, 36.6033]}}, {"type": "Feature", "properties": {"kind": "site", "name": "Table Mountain", "dist_deg": 0.0103645, "dist_km": 1.153, "class": "close", "dist_source": "ks_full_grid"}, "geometry": {"type": "Point", "coordinates": [18.43, -33.9247]}}, {"type": "Feature", "properties": {"kind": "site", "name": "Pilansberg", "dist_deg": 0.0051539, "dist_km": 0.573, "class": "close", "dist_source": "ks_full_grid"}, "geometry": {"type": "Point", "coordinates": [27.0322, -25.2294]}}, {"type": "Feature", "properties": {"kind": "site", "name": "Mont-aux-Sources", "dist_deg": 0.0414996, "dist_km": 4.615, "class": "close", "dist_source": "ks_full_grid"}, "geometry": {"type": "Point", "coordinates": [28.8847, -28.7592]}}, {"type": "Feature", "properties": {"kind": "site", "name": "Sergiev Posad", "dist_deg": 0.0038768, "dist_km": 0.431, "class": "close", "dist_source": "ks_full_grid"}, "geometry": {"type": "Point", "coordinates": [37.6175, 55.7558]}}, {"type": "Feature", "properties": {"kind": "site", "name": "Mount Konzhakovsky Kamen", "dist_deg": 0.0251266, "dist_km": 2.794, "class": "close", "dist_source": "ks_full_grid"}, "geometry": {"type": "Point", "coordinates": [60.0, 59.0]}}, {"type": "Feature", "properties": {"kind": "site", "name": "Mount Elbrus", "dist_deg": 0.0397628, "dist_km": 4.421, "class": "close", "dist_source": "ks_full_grid"}, "geometry": {"type": "Point", "coordinates": [42.4392, 43.355]}}, {"type": "Feature", "properties": {"kind": "site", "name": "Po Lin Monastery", "dist_deg": 0.0164765, "dist_km": 1.832, "class": "close", "dist_source": "ks_full_grid"}, "geometry": {"type": "Point", "coordinates": [113.9078, 22.2556]}}, {"type": "Feature", "properties": {"kind": "site", "name": "Emei Shan", "dist_deg": 0.0145274, "dist_km": 1.615, "class": "close", "dist_source": "ks_full_grid"}, "geometry": {"type": "Point", "coordinates": [104.0756, 30.6511]}}, {"type": "Feature", "properties": {"kind": "site", "name": "Mount Pulag", "dist_deg": 0.0010544, "dist_km": 0.117, "class": "close", "dist_source": "ks_full_grid"}, "geometry": {"type": "Point", "coordinates": [120.8836, 16.5836]}}, {"type": "Feature", "properties": {"kind": "site", "name": "Niagara Falls", "dist_deg": 0.025844, "dist_km": 2.874, "class": "close", "dist_source": "ks_full_grid"}, "geometry": {"type": "Point", "coordinates": [-79.0853, 43.0903]}}, {"type": "Feature", "properties": {"kind": "site", "name": "Pilot Knob State Park", "dist_deg": 0.0006024, "dist_km": 0.067, "class": "close", "dist_source": "ks_full_grid"}, "geometry": {"type": "Point", "coordinates": [-93.5533, 43.2528]}}, {"type": "Feature", "properties": {"kind": "site", "name": "Akimiski Island", "dist_deg": 0.1160427, "dist_km": 12.903, "class": "medium", "dist_source": "ks_full_grid"}, "geometry": {"type": "Point", "coordinates": [-81.3172, 52.9872]}}, {"type": "Feature", "properties": {"kind": "site", "name": "Mount Dimlang", "dist_deg": 0.0148095, "dist_km": 1.647, "class": "close", "dist_source": "ks_full_grid"}, "geometry": {"type": "Point", "coordinates": [11.75, 8.5]}}, {"type": "Feature", "properties": {"kind": "site", "name": "Lake Chad", "dist_deg": 0.0168144, "dist_km": 1.87, "class": "close", "dist_source": "ks_full_grid"}, "geometry": {"type": "Point", "coordinates": [14.1, 13.3303]}}, {"type": "Feature", "properties": {"kind": "site", "name": "Isangila Falls", "dist_deg": 0.0599626, "dist_km": 6.668, "class": "close", "dist_source": "ks_full_grid"}, "geometry": {"type": "Point", "coordinates": [12.0, -6.0]}}, {"type": "Feature", "properties": {"kind": "site", "name": "Marco Zero Recife", "dist_deg": 0.1381813, "dist_km": 15.365, "class": "far", "dist_source": "ks_full_grid"}, "geometry": {"type": "Point", "coordinates": [-34.8711, -8.0633]}}, {"type": "Feature", "properties": {"kind": "site", "name": "Peter and Paul Rocks", "dist_deg": 0.0307874, "dist_km": 3.423, "class": "close", "dist_source": "ks_full_grid"}, "geometry": {"type": "Point", "coordinates": [-29.3353, -0.9169]}}, {"type": "Feature", "properties": {"kind": "site", "name": "Parnaiba River Headwaters", "dist_deg": 0.0311406, "dist_km": 3.463, "class": "close", "dist_source": "ks_full_grid"}, "geometry": {"type": "Point", "coordinates": [-43.1747, -8.3231]}}, {"type": "Feature", "properties": {"kind": "site", "name": "Plaza de Mayo", "dist_deg": 0.0025854, "dist_km": 0.287, "class": "close", "dist_source": "ks_full_grid"}, "geometry": {"type": "Point", "coordinates": [-58.3722, -34.6083]}}, {"type": "Feature", "properties": {"kind": "site", "name": "Iguazu Falls", "dist_deg": 0.0398283, "dist_km": 4.429, "class": "close", "dist_source": "ks_full_grid"}, "geometry": {"type": "Point", "coordinates": [-54.4453, -25.6803]}}, {"type": "Feature", "properties": {"kind": "site", "name": "Plaza de Armas Santiago", "dist_deg": 0.0093578, "dist_km": 1.04, "class": "close", "dist_source": "ks_full_grid"}, "geometry": {"type": "Point", "coordinates": [-70.6519, -33.4431]}}, {"type": "Feature", "properties": {"kind": "site", "name": "Jebel Toubkal", "dist_deg": 0.0814707, "dist_km": 9.059, "class": "close", "dist_source": "ks_full_grid"}, "geometry": {"type": "Point", "coordinates": [-7.9161, 31.0619]}}, {"type": "Feature", "properties": {"kind": "site", "name": "Pico de Teide", "dist_deg": 0.0004098, "dist_km": 0.046, "class": "close", "dist_source": "ks_full_grid"}, "geometry": {"type": "Point", "coordinates": [-16.6333, 28.2667]}}, {"type": "Feature", "properties": {"kind": "site", "name": "Chott el Djerid", "dist_deg": 0.0338173, "dist_km": 3.76, "class": "close", "dist_source": "ks_full_grid"}, "geometry": {"type": "Point", "coordinates": [9.5375, 33.8869]}}, {"type": "Feature", "properties": {"kind": "site", "name": "Teatro Amazonas", "dist_deg": 0.008758, "dist_km": 0.974, "class": "close", "dist_source": "ks_full_grid"}, "geometry": {"type": "Point", "coordinates": [-60.0231, -3.1306]}}, {"type": "Feature", "properties": {"kind": "site", "name": "Angel Falls", "dist_deg": 0.0586426, "dist_km": 6.521, "class": "close", "dist_source": "ks_full_grid"}, "geometry": {"type": "Point", "coordinates": [-62.5356, 5.9675]}}, {"type": "Feature", "properties": {"kind": "site", "name": "Lago Arari", "dist_deg": 0.0019808, "dist_km": 0.22, "class": "close", "dist_source": "ks_full_grid"}, "geometry": {"type": "Point", "coordinates": [-58.75, -3.4167]}}, {"type": "Feature", "properties": {"kind": "site", "name": "Christ the Redeemer", "dist_deg": 0.0359193, "dist_km": 3.994, "class": "close", "dist_source": "ks_full_grid"}, "geometry": {"type": "Point", "coordinates": [-43.2106, -22.9519]}}, {"type": "Feature", "properties": {"kind": "site", "name": "Praca dos Tres Poderes", "dist_deg": 0.0069036, "dist_km": 0.768, "class": "close", "dist_source": "ks_full_grid"}, "geometry": {"type": "Point", "coordinates": [-47.8611, -15.7997]}}, {"type": "Feature", "properties": {"kind": "site", "name": "Terreiro de Jesus", "dist_deg": 0.0247602, "dist_km": 2.753, "class": "close", "dist_source": "ks_full_grid"}, "geometry": {"type": "Point", "coordinates": [-38.51, -12.9733]}}, {"type": "Feature", "properties": {"kind": "site", "name": "High Tatra", "dist_deg": 0.0290846, "dist_km": 3.234, "class": "close", "dist_source": "ks_full_grid"}, "geometry": {"type": "Point", "coordinates": [20.0, 49.1667]}}, {"type": "Feature", "properties": {"kind": "site", "name": "Stortorget Stockholm", "dist_deg": 0.0092045, "dist_km": 1.024, "class": "close", "dist_source": "ks_full_grid"}, "geometry": {"type": "Point", "coordinates": [18.0708, 59.325]}}, {"type": "Feature", "properties": {"kind": "site", "name": "Mount Olympus", "dist_deg": 0.0620864, "dist_km": 6.904, "class": "close", "dist_source": "ks_full_grid"}, "geometry": {"type": "Point", "coordinates": [22.35, 40.0833]}}, {"type": "Feature", "properties": {"kind": "site", "name": "Arunachala Hill", "dist_deg": 0.0404332, "dist_km": 4.496, "class": "close", "dist_source": "ks_full_grid"}, "geometry": {"type": "Point", "coordinates": [79.0517, 12.2406]}}, {"type": "Feature", "properties": {"kind": "site", "name": "Piram Island", "dist_deg": 0.0040078, "dist_km": 0.446, "class": "close", "dist_source": "ks_full_grid"}, "geometry": {"type": "Point", "coordinates": [72.35, 21.6]}}, {"type": "Feature", "properties": {"kind": "site", "name": "Adam’s Peak", "dist_deg": 0.0714404, "dist_km": 7.944, "class": "close", "dist_source": "ks_full_grid"}, "geometry": {"type": "Point", "coordinates": [80.4997, 6.8092]}}, {"type": "Feature", "properties": {"kind": "site", "name": "Uhuru Peak Kilimanjaro", "dist_deg": 0.0902567, "dist_km": 10.036, "class": "close", "dist_source": "ks_full_grid"}, "geometry": {"type": "Point", "coordinates": [37.3533, -3.0758]}}, {"type": "Feature", "properties": {"kind": "site", "name": "Lake Victoria (Ukerewe Island)", "dist_deg": 0.0427455, "dist_km": 4.753, "class": "close", "dist_source": "ks_full_grid"}, "geometry": {"type": "Point", "coordinates": [32.9, -0.9833]}}, {"type": "Feature", "properties": {"kind": "site", "name": "Mount Nkungwe", "dist_deg": 0.0694646, "dist_km": 7.724, "class": "close", "dist_source": "ks_full_grid"}, "geometry": {"type": "Point", "coordinates": [29.8, -6.1167]}}, {"type": "Feature", "properties": {"kind": "site", "name": "Mount Belukha", "dist_deg": 0.0273046, "dist_km": 3.036, "class": "close", "dist_source": "ks_full_grid"}, "geometry": {"type": "Point", "coordinates": [88.9, 48.5]}}, {"type": "Feature", "properties": {"kind": "site", "name": "Uzynaral Strait", "dist_deg": 0.0286893, "dist_km": 3.19, "class": "close", "dist_source": "ks_full_grid"}, "geometry": {"type": "Point", "coordinates": [75.5, 46.6]}}, {"type": "Feature", "properties": {"kind": "site", "name": "Lake Baikal (Cape Khoboy)", "dist_deg": 0.0434255, "dist_km": 4.829, "class": "close", "dist_source": "ks_full_grid"}, "geometry": {"type": "Point", "coordinates": [107.6667, 53.1667]}}, {"type": "Feature", "properties": {"kind": "site", "name": "Forbidden City Beijing", "dist_deg": 0.0293541, "dist_km": 3.264, "class": "close", "dist_source": "ks_full_grid"}, "geometry": {"type": "Point", "coordinates": [116.4075, 39.9042]}}, {"type": "Feature", "properties": {"kind": "site", "name": "Tai Shan", "dist_deg": 0.0023516, "dist_km": 0.262, "class": "close", "dist_source": "ks_full_grid"}, "geometry": {"type": "Point", "coordinates": [117.3333, 36.5]}}, {"type": "Feature", "properties": {"kind": "site", "name": "Karakorum", "dist_deg": 0.0503867, "dist_km": 5.603, "class": "close", "dist_source": "ks_full_grid"}, "geometry": {"type": "Point", "coordinates": [102.8239, 47.1972]}}, {"type": "Feature", "properties": {"kind": "site", "name": "Boulder Colorado", "dist_deg": 0.0016245, "dist_km": 0.181, "class": "close", "dist_source": "ks_full_grid"}, "geometry": {"type": "Point", "coordinates": [-105.2706, 40.015]}}, {"type": "Feature", "properties": {"kind": "site", "name": "Mount Whitney", "dist_deg": 0.0940781, "dist_km": 10.461, "class": "close", "dist_source": "ks_full_grid"}, "geometry": {"type": "Point", "coordinates": [-118.292, 36.5786]}}, {"type": "Feature", "properties": {"kind": "site", "name": "Cahokia Mounds", "dist_deg": 0.0479273, "dist_km": 5.329, "class": "close", "dist_source": "ks_full_grid"}, "geometry": {"type": "Point", "coordinates": [-90.0678, 38.6503]}}, {"type": "Feature", "properties": {"kind": "site", "name": "Three Sisters Blue Mountains", "dist_deg": 0.0156391, "dist_km": 1.739, "class": "close", "dist_source": "ks_full_grid"}, "geometry": {"type": "Point", "coordinates": [150.5, -33.75]}}, {"type": "Feature", "properties": {"kind": "site", "name": "Mount Picton Tasmania", "dist_deg": 0.0042971, "dist_km": 0.478, "class": "close", "dist_source": "ks_full_grid"}, "geometry": {"type": "Point", "coordinates": [146.6075, -43.1575]}}, {"type": "Feature", "properties": {"kind": "site", "name": "Fraser Island", "dist_deg": 0.020637, "dist_km": 2.295, "class": "close", "dist_source": "ks_full_grid"}, "geometry": {"type": "Point", "coordinates": [153.0294, -25.3925]}}, {"type": "Feature", "properties": {"kind": "site", "name": "Cerro de Puntas", "dist_deg": 0.051977, "dist_km": 5.78, "class": "close", "dist_source": "ks_full_grid"}, "geometry": {"type": "Point", "coordinates": [-67.2639, 18.3561]}}, {"type": "Feature", "properties": {"kind": "site", "name": "Great Exuma Island", "dist_deg": 0.000555, "dist_km": 0.062, "class": "close", "dist_source": "ks_full_grid"}, "geometry": {"type": "Point", "coordinates": [-75.8167, 23.5167]}}, {"type": "Feature", "properties": {"kind": "site", "name": "Montego Bay", "dist_deg": 0.0213832, "dist_km": 2.378, "class": "close", "dist_source": "ks_full_grid"}, "geometry": {"type": "Point", "coordinates": [-77.9167, 18.4667]}}, {"type": "Feature", "properties": {"kind": "site", "name": "Mount Simpson PNG", "dist_deg": 0.0039303, "dist_km": 0.437, "class": "close", "dist_source": "ks_full_grid"}, "geometry": {"type": "Point", "coordinates": [148.0, -9.5]}}, {"type": "Feature", "properties": {"kind": "site", "name": "Popomanaseu", "dist_deg": 0.0608352, "dist_km": 6.765, "class": "close", "dist_source": "ks_full_grid"}, "geometry": {"type": "Point", "coordinates": [160.0667, -9.7]}}, {"type": "Feature", "properties": {"kind": "site", "name": "Puncak Jaya", "dist_deg": 0.0145068, "dist_km": 1.613, "class": "close", "dist_source": "ks_full_grid"}, "geometry": {"type": "Point", "coordinates": [138.5, -4.5]}}, {"type": "Feature", "properties": {"kind": "site", "name": "Dakar", "dist_deg": 0.0002317, "dist_km": 0.026, "class": "close", "dist_source": "ks_full_grid"}, "geometry": {"type": "Point", "coordinates": [-17.3333, 14.75]}}, {"type": "Feature", "properties": {"kind": "site", "name": "Timbuktu", "dist_deg": 0.0680466, "dist_km": 7.566, "class": "close", "dist_source": "ks_full_grid"}, "geometry": {"type": "Point", "coordinates": [-3.5, 15.0]}}, {"type": "Feature", "properties": {"kind": "site", "name": "Fogo Cape Verde", "dist_deg": 0.027156, "dist_km": 3.02, "class": "close", "dist_source": "ks_full_grid"}, "geometry": {"type": "Point", "coordinates": [-24.3817, 14.9133]}}, {"type": "Feature", "properties": {"kind": "site", "name": "Tsodilo Hill", "dist_deg": 0.0492417, "dist_km": 5.475, "class": "close", "dist_source": "ks_full_grid"}, "geometry": {"type": "Point", "coordinates": [21.7667, -18.75]}}, {"type": "Feature", "properties": {"kind": "site", "name": "Kgalagadi Transfrontier Park", "dist_deg": 0.0602028, "dist_km": 6.694, "class": "close", "dist_source": "ks_full_grid"}, "geometry": {"type": "Point", "coordinates": [20.7122, -25.2872]}}, {"type": "Feature", "properties": {"kind": "site", "name": "Great Zimbabwe", "dist_deg": 0.0017158, "dist_km": 0.191, "class": "close", "dist_source": "ks_full_grid"}, "geometry": {"type": "Point", "coordinates": [30.9275, -20.2672]}}, {"type": "Feature", "properties": {"kind": "site", "name": "Khao Nan Mia", "dist_deg": 0.0316963, "dist_km": 3.525, "class": "close", "dist_source": "ks_full_grid"}, "geometry": {"type": "Point", "coordinates": [99.5941, 8.8594]}}, {"type": "Feature", "properties": {"kind": "site", "name": "Lake Toba", "dist_deg": 0.0135254, "dist_km": 1.504, "class": "close", "dist_source": "ks_full_grid"}, "geometry": {"type": "Point", "coordinates": [98.8756, 2.6845]}}, {"type": "Feature", "properties": {"kind": "site", "name": "Angkor Wat", "dist_deg": 0.0088511, "dist_km": 0.984, "class": "close", "dist_source": "ks_full_grid"}, "geometry": {"type": "Point", "coordinates": [103.86, 13.4256]}}, {"type": "Feature", "properties": {"kind": "site", "name": "Mount Tomaniivi", "dist_deg": 0.0092121, "dist_km": 1.024, "class": "close", "dist_source": "ks_full_grid"}, "geometry": {"type": "Point", "coordinates": [178.0167, -17.6167]}}, {"type": "Feature", "properties": {"kind": "site", "name": "Tarawa Island", "dist_deg": 0.0259254, "dist_km": 2.883, "class": "close", "dist_source": "ks_full_grid"}, "geometry": {"type": "Point", "coordinates": [173.0764, 1.4403]}}, {"type": "Feature", "properties": {"kind": "site", "name": "Mount Silisili", "dist_deg": 0.0922364, "dist_km": 10.256, "class": "close", "dist_source": "ks_full_grid"}, "geometry": {"type": "Point", "coordinates": [-172.4858, -13.6183]}}, {"type": "Feature", "properties": {"kind": "site", "name": "Denali (Mount McKinley)", "dist_deg": 0.0090968, "dist_km": 1.012, "class": "close", "dist_source": "ks_full_grid"}, "geometry": {"type": "Point", "coordinates": [-149.4289, 63.0694]}}, {"type": "Feature", "properties": {"kind": "site", "name": "Great Bear Lake", "dist_deg": 0.0329514, "dist_km": 3.664, "class": "close", "dist_source": "ks_full_grid"}, "geometry": {"type": "Point", "coordinates": [-120.3833, 66.1197]}}, {"type": "Feature", "properties": {"kind": "site", "name": "Fox Islands Aleutian", "dist_deg": 0.0015479, "dist_km": 0.172, "class": "close", "dist_source": "ks_full_grid"}, "geometry": {"type": "Point", "coordinates": [-166.5833, 53.7667]}}, {"type": "Feature", "properties": {"kind": "site", "name": "Mount Maromokotro", "dist_deg": 0.0214875, "dist_km": 2.389, "class": "close", "dist_source": "ks_full_grid"}, "geometry": {"type": "Point", "coordinates": [49.4847, -13.0183]}}, {"type": "Feature", "properties": {"kind": "site", "name": "Piton des Neiges", "dist_deg": 0.0368435, "dist_km": 4.097, "class": "close", "dist_source": "ks_full_grid"}, "geometry": {"type": "Point", "coordinates": [55.7333, -21.3167]}}, {"type": "Feature", "properties": {"kind": "site", "name": "Morne Seychellois", "dist_deg": 0.0524446, "dist_km": 5.832, "class": "close", "dist_source": "ks_full_grid"}, "geometry": {"type": "Point", "coordinates": [55.45, -4.6167]}}, {"type": "Feature", "properties": {"kind": "site", "name": "Mount Damavand", "dist_deg": 0.0711152, "dist_km": 7.908, "class": "close", "dist_source": "ks_full_grid"}, "geometry": {"type": "Point", "coordinates": [52.1097, 35.9547]}}, {"type": "Feature", "properties": {"kind": "site", "name": "Vozrozhdeniya Island", "dist_deg": 0.00349, "dist_km": 0.388, "class": "close", "dist_source": "ks_full_grid"}, "geometry": {"type": "Point", "coordinates": [59.1419, 45.0917]}}, {"type": "Feature", "properties": {"kind": "site", "name": "Malek Siah Kuh", "dist_deg": 0.004353, "dist_km": 0.484, "class": "close", "dist_source": "ks_full_grid"}, "geometry": {"type": "Point", "coordinates": [60.8636, 29.4892]}}, {"type": "Feature", "properties": {"kind": "site", "name": "Klyuchevskaya Sopka", "dist_deg": 0.0429159, "dist_km": 4.772, "class": "close", "dist_source": "ks_full_grid"}, "geometry": {"type": "Point", "coordinates": [160.6428, 56.0581]}}, {"type": "Feature", "properties": {"kind": "site", "name": "Sakhalin Island", "dist_deg": 0.0062624, "dist_km": 0.696, "class": "close", "dist_source": "ks_full_grid"}, "geometry": {"type": "Point", "coordinates": [143.0028, 50.2247]}}, {"type": "Feature", "properties": {"kind": "site", "name": "Cherskiy", "dist_deg": 0.0017124, "dist_km": 0.19, "class": "close", "dist_source": "ks_full_grid"}, "geometry": {"type": "Point", "coordinates": [-115.9872, 34.6272]}}, {"type": "Feature", "properties": {"kind": "site", "name": "Easter Island", "dist_deg": 0.0040857, "dist_km": 0.454, "class": "close", "dist_source": "ks_full_grid"}, "geometry": {"type": "Point", "coordinates": [-109.3664, -27.1211]}}, {"type": "Feature", "properties": {"kind": "site", "name": "Reykjavik-Thingvellir", "dist_deg": 0.033595, "dist_km": 3.736, "class": "close", "dist_source": "ks_full_grid"}, "geometry": {"type": "Point", "coordinates": [-21.8953, 64.1353]}}, {"type": "Feature", "properties": {"kind": "site", "name": "Callanish", "dist_deg": 0.0101266, "dist_km": 1.126, "class": "close", "dist_source": "ks_full_grid"}, "geometry": {"type": "Point", "coordinates": [-6.7367, 58.1997]}}, {"type": "Feature", "properties": {"kind": "site", "name": "Nuuk Greenland", "dist_deg": 0.1515669, "dist_km": 16.854, "class": "far", "dist_source": "ks_full_grid"}, "geometry": {"type": "Point", "coordinates": [-51.7214, 64.1836]}}, {"type": "Feature", "properties": {"kind": "site", "name": "Port Stanley", "dist_deg": 0.0138297, "dist_km": 1.538, "class": "close", "dist_source": "ks_full_grid"}, "geometry": {"type": "Point", "coordinates": [-57.8492, -51.7011]}}, {"type": "Feature", "properties": {"kind": "site", "name": "South Georgia Island", "dist_deg": 0.0213989, "dist_km": 2.379, "class": "close", "dist_source": "ks_full_grid"}, "geometry": {"type": "Point", "coordinates": [-36.75, -54.25]}}, {"type": "Feature", "properties": {"kind": "site", "name": "Lake Buenos Aires", "dist_deg": 0.0630907, "dist_km": 7.015, "class": "close", "dist_source": "ks_full_grid"}, "geometry": {"type": "Point", "coordinates": [-71.3675, -46.5033]}}, {"type": "Feature", "properties": {"kind": "site", "name": "Wood Buffalo National Park", "dist_deg": 0.0014076, "dist_km": 0.157, "class": "close", "dist_source": "ks_full_grid"}, "geometry": {"type": "Point", "coordinates": [-112.8542, 58.9239]}}, {"type": "Feature", "properties": {"kind": "site", "name": "Adelaide Peninsula", "dist_deg": 0.0254861, "dist_km": 2.834, "class": "close", "dist_source": "ks_full_grid"}, "geometry": {"type": "Point", "coordinates": [-97.8, 68.0833]}}, {"type": "Feature", "properties": {"kind": "site", "name": "Bay of God’s Mercy", "dist_deg": 0.1182357, "dist_km": 13.147, "class": "medium", "dist_source": "ks_full_grid"}, "geometry": {"type": "Point", "coordinates": [-84.1333, 64.6]}}, {"type": "Feature", "properties": {"kind": "site", "name": "Ascension Island", "dist_deg": 0.0171805, "dist_km": 1.91, "class": "close", "dist_source": "ks_full_grid"}, "geometry": {"type": "Point", "coordinates": [-14.3558, -7.9467]}}, {"type": "Feature", "properties": {"kind": "site", "name": "St. Helena Island", "dist_deg": 0.0077785, "dist_km": 0.865, "class": "close", "dist_source": "ks_full_grid"}, "geometry": {"type": "Point", "coordinates": [-5.7167, -15.9333]}}, {"type": "Feature", "properties": {"kind": "site", "name": "Mount Loma", "dist_deg": 0.133055, "dist_km": 14.795, "class": "medium", "dist_source": "ks_full_grid"}, "geometry": {"type": "Point", "coordinates": [-11.117, 9.217]}}, {"type": "Feature", "properties": {"kind": "site", "name": "Lena-Muna juncture", "dist_deg": 0.0261148, "dist_km": 2.904, "class": "close", "dist_source": "ks_full_grid"}, "geometry": {"type": "Point", "coordinates": [123.2833, 68.0167]}}, {"type": "Feature", "properties": {"kind": "site", "name": "Lake Ozero Taymyr", "dist_deg": 0.0554429, "dist_km": 6.165, "class": "close", "dist_source": "ks_full_grid"}, "geometry": {"type": "Point", "coordinates": [101.7167, 74.5167]}}, {"type": "Feature", "properties": {"kind": "site", "name": "Tunguska", "dist_deg": 0.0503587, "dist_km": 5.6, "class": "close", "dist_source": "ks_full_grid"}, "geometry": {"type": "Point", "coordinates": [102.7861, 52.6528]}}, {"type": "Feature", "properties": {"kind": "site", "name": "Mount Ross Kerguelen", "dist_deg": 0.0210228, "dist_km": 2.338, "class": "close", "dist_source": "ks_full_grid"}, "geometry": {"type": "Point", "coordinates": [69.5, -49.5833]}}, {"type": "Feature", "properties": {"kind": "site", "name": "Big Ben Heard Island", "dist_deg": 0.0138766, "dist_km": 1.543, "class": "close", "dist_source": "ks_full_grid"}, "geometry": {"type": "Point", "coordinates": [73.525, -53.1083]}}, {"type": "Feature", "properties": {"kind": "site", "name": "Prydz Bay", "dist_deg": 0.0008611, "dist_km": 0.096, "class": "close", "dist_source": "ks_full_grid"}, "geometry": {"type": "Point", "coordinates": [75.0, -69.0]}}, {"type": "Feature", "properties": {"kind": "site", "name": "Mount Lamlam Guam", "dist_deg": 0.0382472, "dist_km": 4.253, "class": "close", "dist_source": "ks_full_grid"}, "geometry": {"type": "Point", "coordinates": [144.6628, 13.3386]}}, {"type": "Feature", "properties": {"kind": "site", "name": "Yap Island", "dist_deg": 0.0379497, "dist_km": 4.22, "class": "close", "dist_source": "ks_full_grid"}, "geometry": {"type": "Point", "coordinates": [134.3833, -2.55]}}, {"type": "Feature", "properties": {"kind": "site", "name": "Nan Madol", "dist_deg": 0.0918185, "dist_km": 10.21, "class": "close", "dist_source": "ks_full_grid"}, "geometry": {"type": "Point", "coordinates": [158.3358, 6.8444]}}, {"type": "Feature", "properties": {"kind": "site", "name": "Mount Orohena", "dist_deg": 0.0539939, "dist_km": 6.004, "class": "close", "dist_source": "ks_full_grid"}, "geometry": {"type": "Point", "coordinates": [-149.4842, -17.6197]}}, {"type": "Feature", "properties": {"kind": "site", "name": "Hivaoa Island", "dist_deg": 0.0416791, "dist_km": 4.635, "class": "close", "dist_source": "ks_full_grid"}, "geometry": {"type": "Point", "coordinates": [-139.0211, -9.7547]}}, {"type": "Feature", "properties": {"kind": "site", "name": "Kiritimati (Christmas Island)", "dist_deg": 0.0225492, "dist_km": 2.507, "class": "close", "dist_source": "ks_full_grid"}, "geometry": {"type": "Point", "coordinates": [-157.4278, 1.8722]}}, {"type": "Feature", "properties": {"kind": "site", "name": "Graciosa Azores", "dist_deg": 0.0029178, "dist_km": 0.324, "class": "close", "dist_source": "ks_full_grid"}, "geometry": {"type": "Point", "coordinates": [-28.0069, 39.0525]}}, {"type": "Feature", "properties": {"kind": "site", "name": "St. George’s Island Bermuda", "dist_deg": 0.0096512, "dist_km": 1.073, "class": "close", "dist_source": "ks_full_grid"}, "geometry": {"type": "Point", "coordinates": [-64.7786, 32.2811]}}, {"type": "Feature", "properties": {"kind": "site", "name": "Lisbon Portugal", "dist_deg": 0.0108193, "dist_km": 1.203, "class": "close", "dist_source": "ks_full_grid"}, "geometry": {"type": "Point", "coordinates": [-9.1356, 38.7069]}}, {"type": "Feature", "properties": {"kind": "site", "name": "Longyearbyen Spitsbergen", "dist_deg": 0.0649361, "dist_km": 7.221, "class": "close", "dist_source": "ks_full_grid"}, "geometry": {"type": "Point", "coordinates": [18.1642, 78.6481]}}, {"type": "Feature", "properties": {"kind": "site", "name": "Independence Fjord", "dist_deg": 0.0283965, "dist_km": 3.158, "class": "close", "dist_source": "ks_full_grid"}, "geometry": {"type": "Point", "coordinates": [-28.2725, 81.9247]}}, {"type": "Feature", "properties": {"kind": "site", "name": "Yuzhny Novaya Zemlya", "dist_deg": 0.0018717, "dist_km": 0.208, "class": "close", "dist_source": "ks_full_grid"}, "geometry": {"type": "Point", "coordinates": [80.3667, 73.4833]}}, {"type": "Feature", "properties": {"kind": "site", "name": "Mount Hope Antarctica", "dist_deg": 0.0298466, "dist_km": 3.319, "class": "close", "dist_source": "ks_full_grid"}, "geometry": {"type": "Point", "coordinates": [171.0, -83.75]}}, {"type": "Feature", "properties": {"kind": "site", "name": "Bear Island Antarctica", "dist_deg": 0.05203, "dist_km": 5.785, "class": "close", "dist_source": "ks_full_grid"}, "geometry": {"type": "Point", "coordinates": [-67.06, -68.18]}}, {"type": "Feature", "properties": {"kind": "site", "name": "Elephant Island", "dist_deg": 0.0835038, "dist_km": 9.285, "class": "close", "dist_source": "ks_full_grid"}, "geometry": {"type": "Point", "coordinates": [-55.1167, -61.1333]}}, {"type": "Feature", "properties": {"kind": "site", "name": "South Pole", "dist_deg": 0.0352806, "dist_km": 3.923, "class": "close", "dist_source": "ks_full_grid"}, "geometry": {"type": "Point", "coordinates": [0.0, -90.0]}}, {"type": "Feature", "properties": {"kind": "site", "name": "South Magnetic Pole", "dist_deg": 0.0464948, "dist_km": 5.17, "class": "close", "dist_source": "ks_full_grid"}, "geometry": {"type": "Point", "coordinates": [138.0, -67.0]}}, {"type": "Feature", "properties": {"kind": "site", "name": "Sanae Antarctica", "dist_deg": 0.0350541, "dist_km": 3.898, "class": "close", "dist_source": "ks_full_grid"}, "geometry": {"type": "Point", "coordinates": [127.5233, -71.6728]}}, {"type": "Feature", "properties": {"kind": "site", "name": "Halifax Nova Scotia", "dist_deg": 0.0418559, "dist_km": 4.654, "class": "close", "dist_source": "ks_full_grid"}, "geometry": {"type": "Point", "coordinates": [-63.5753, 44.6489]}}, {"type": "Feature", "properties": {"kind": "site", "name": "Washington DC", "dist_deg": 0.0232639, "dist_km": 2.587, "class": "close", "dist_source": "ks_full_grid"}, "geometry": {"type": "Point", "coordinates": [-77.0364, 38.895]}}]}